{"type": "FeatureCollection", "features": [{"type": "Feature", "properties": {"District": "1", "Name": "District 1", "CITY": "Midvale"}, "geometry": {"type": "Polygon", "coordinates": [[[-111.872069382684, 40.6119655910173], [-111.872070179212, 40.6120708166543], [-111.872070999235, 40.6121790473158], [-111.872071854078, 40.6122919246508], [-111.872071881014, 40.6122953439175], [-111.872071886931, 40.6122977267287], [-111.872071814867, 40.612349037049], [-111.872074342636, 40.6125581849418], [-111.872201701811, 40.6125616372407], [-111.872205009264, 40.6127219760598], [-111.872207821674, 40.6128583071352], [-111.872199403315, 40.6128583167214], [-111.872198620526, 40.6129071329866], [-111.8721934767, 40.613247571487], [-111.872193701079, 40.6133570503323], [-111.872194688446, 40.6135770437221], [-111.872195689664, 40.6137820430589], [-111.872195689831, 40.6137820736767], [-111.872198695731, 40.6143970436596], [-111.872199695792, 40.6146020429309], [-111.872200692683, 40.6146850551096], [-111.872206695634, 40.6149360434514], [-111.872208705936, 40.6150200402967], [-111.872204706282, 40.6152220430662], [-111.872200544787, 40.6155381086347], [-111.872196696557, 40.6158310437216], [-111.87219369612, 40.6160340437532], [-111.872193696312, 40.6160340788737], [-111.872190743761, 40.6163209477313], [-111.872187696215, 40.6166170437771], [-111.872184333241, 40.6169605595536], [-111.872181695755, 40.617230043305], [-111.872178691115, 40.6176110576311], [-111.872182695834, 40.6178330434152], [-111.872172681099, 40.6183660443472], [-111.872162696496, 40.6189500425308], [-111.872155696202, 40.619304043663], [-111.872147605695, 40.6203657104386], [-111.872141422557, 40.620730451281], [-111.872778589742, 40.6207205822478], [-111.873418374356, 40.6207117613614], [-111.873513423226, 40.6207104503519], [-111.87386042307, 40.6207064504559], [-111.874290423871, 40.6207004495686], [-111.874367657139, 40.6206985958159], [-111.874415422914, 40.6206974501749], [-111.874792423908, 40.6206924512876], [-111.87491842429, 40.6206914509562], [-111.874984424547, 40.6206924513572], [-111.875129423261, 40.620693449636], [-111.875766425125, 40.6207004499878], [-111.875978423992, 40.6207024493441], [-111.876414424095, 40.6207074494417], [-111.876665584044, 40.6207102666357], [-111.87683207338, 40.6207121349108], [-111.876868091993, 40.6207125379851], [-111.877383773448, 40.6207183196533], [-111.877395424686, 40.6207184496943], [-111.877420897665, 40.6207186145412], [-111.87741360145, 40.6207869860967], [-111.877352345245, 40.6213623670774], [-111.877285009708, 40.6220026466182], [-111.877134016755, 40.6233584045751], [-111.876820443245, 40.6239766644517], [-111.876543345603, 40.6248229210954], [-111.876546830137, 40.6254535803891], [-111.876423981863, 40.6256705694175], [-111.87613689119, 40.6261776599544], [-111.876146583527, 40.6262244369297], [-111.8761481141, 40.6262319271818], [-111.876231503993, 40.6263954997637], [-111.876266407836, 40.6265929086136], [-111.876348009793, 40.627082154561], [-111.876107071519, 40.6272151243739], [-111.876102584652, 40.6272294374444], [-111.876093584616, 40.627261437073], [-111.876042584133, 40.6273264371712], [-111.875747584193, 40.6274214372294], [-111.875710042735, 40.627434235114], [-111.875033239185, 40.627807740153], [-111.874235455574, 40.6277938431866], [-111.874205546849, 40.62779332166], [-111.873760528466, 40.6277855673936], [-111.873660712193, 40.6278351344871], [-111.872443213092, 40.6284397121527], [-111.872197723612, 40.6288388537955], [-111.872190579992, 40.6297480520805], [-111.87215864934, 40.6297155197569], [-111.87196062387, 40.6295137604296], [-111.871460574914, 40.6295249857153], [-111.871171317947, 40.6295314776027], [-111.8710596457, 40.6295339837929], [-111.866751896666, 40.6294009069661], [-111.86674243451, 40.6294006177364], [-111.866596473906, 40.6294790976654], [-111.866596330952, 40.6295107491734], [-111.866596317647, 40.6295137687048], [-111.866596107088, 40.629560537684], [-111.866156159584, 40.6295446510351], [-111.865678526322, 40.6294581459037], [-111.865668333777, 40.6294563297562], [-111.865478930457, 40.6293755004886], [-111.865373621079, 40.6293423266267], [-111.865206661455, 40.6293145693673], [-111.864891279038, 40.6292847707011], [-111.864750558882, 40.6292654655933], [-111.864615119141, 40.6292338687407], [-111.864457794097, 40.6291830664508], [-111.864278816991, 40.6291128769041], [-111.863953378762, 40.6289722548049], [-111.863740735733, 40.6288678125312], [-111.863664872767, 40.6288440573343], [-111.863332646663, 40.628671953855], [-111.86308025868, 40.6285294318245], [-111.862863391585, 40.6283261944167], [-111.862733133423, 40.6281825790445], [-111.862620975479, 40.6280303597426], [-111.862583487142, 40.6279679145218], [-111.862581797328, 40.6279650992677], [-111.86240937005, 40.6276569087324], [-111.862189371601, 40.6276971085282], [-111.862096424706, 40.6273929498034], [-111.862049903997, 40.6272600591339], [-111.86198221097, 40.6271066339985], [-111.861936521357, 40.6270030765204], [-111.86182873779, 40.6267586659896], [-111.861790130547, 40.6266802178325], [-111.861671227286, 40.6264536368635], [-111.861582875726, 40.6263042113333], [-111.861546326057, 40.6262479090013], [-111.861498765145, 40.626174585336], [-111.86147648445, 40.6261402364038], [-111.861421478367, 40.626061271265], [-111.861408063018, 40.6260420114026], [-111.861344520256, 40.6259552819785], [-111.86122802178, 40.6258052547814], [-111.861167589833, 40.6257304837921], [-111.861062102705, 40.6256092027399], [-111.861061365692, 40.6256084053317], [-111.860924336104, 40.6254601447735], [-111.86074883866, 40.6252822711005], [-111.860198636061, 40.6247247777669], [-111.85991497318, 40.6244373504189], [-111.859821413592, 40.6243425487966], [-111.859727257202, 40.624247036602], [-111.859637693728, 40.6241593287074], [-111.85956703034, 40.6240978746992], [-111.85947959674, 40.6240287084868], [-111.859364717111, 40.6239489359742], [-111.859186134692, 40.6238473158725], [-111.859135614718, 40.6238185686527], [-111.859126517643, 40.6238133922884], [-111.858373296697, 40.6233910862256], [-111.857416090411, 40.6228448173141], [-111.857181824894, 40.6227133388946], [-111.857024502379, 40.6226223041216], [-111.856830415396, 40.6225135403788], [-111.856693175668, 40.6224326003532], [-111.856502403634, 40.6223238250893], [-111.856363080394, 40.6222287435793], [-111.856349364437, 40.6222193836208], [-111.856217324803, 40.6221122018331], [-111.856048543993, 40.6219310280191], [-111.855939330631, 40.6217758969597], [-111.855848863881, 40.6215890064814], [-111.855793413826, 40.6213942894912], [-111.855773971841, 40.6211956126364], [-111.855790941917, 40.620996846115], [-111.855834073898, 40.6208383226978], [-111.855856867038, 40.6207765821519], [-111.855865946948, 40.6207550570147], [-111.855905938463, 40.6206698575672], [-111.855916179734, 40.6206480389309], [-111.855940030475, 40.6206044022482], [-111.856136850457, 40.6203624479108], [-111.856186314755, 40.6203016412694], [-111.856372376649, 40.6200729102102], [-111.856518565076, 40.6198931945993], [-111.856636561064, 40.619748136968], [-111.856776202802, 40.6195764691867], [-111.856970209223, 40.619337965537], [-111.857040831934, 40.6192511442769], [-111.857239889237, 40.6190064272823], [-111.857354419342, 40.6188656254489], [-111.857570170675, 40.6186003824027], [-111.85763303262, 40.618523101277], [-111.85787771315, 40.6182222891926], [-111.857909521295, 40.6181831836179], [-111.857937287784, 40.6181490469181], [-111.85805244438, 40.6180074706738], [-111.858142656374, 40.6178602294917], [-111.858164176546, 40.6178249023691], [-111.858170672309, 40.6178142381909], [-111.858175480863, 40.6178063447125], [-111.858388242965, 40.617457067345], [-111.858544349071, 40.617197473396], [-111.858622996815, 40.6170666875252], [-111.858704159088, 40.6169053683668], [-111.858713819535, 40.6169077441813], [-111.858715332977, 40.6169081168816], [-111.858879083834, 40.616948390894], [-111.858908425719, 40.6168579060546], [-111.858926922451, 40.6168066890181], [-111.85894411477, 40.6167553012621], [-111.858960122748, 40.6167036532666], [-111.85897506384, 40.6166518320252], [-111.858994093913, 40.6165778189167], [-111.859004737178, 40.6165318859255], [-111.859014543996, 40.6164853278157], [-111.859023283006, 40.6164384190587], [-111.859031073786, 40.6163914249478], [-111.859037683557, 40.616344350698], [-111.85904353955, 40.6162939476611], [-111.859066309608, 40.6158935229066], [-111.859065703117, 40.6158461420242], [-111.859063797229, 40.615798860573], [-111.859060944798, 40.6157515856185], [-111.859057028845, 40.6157043193197], [-111.859051932382, 40.6156570620344], [-111.859045772164, 40.6156099926123], [-111.859038667776, 40.6155629296794], [-111.859030383832, 40.6155160558642], [-111.859021035196, 40.6154691907075], [-111.859010507005, 40.6154225137675], [-111.858999035601, 40.6153760234205], [-111.858986501172, 40.6153296326805], [-111.858972905361, 40.6152834288943], [-111.858958248181, 40.6152374138627], [-111.858942529623, 40.6151915857842], [-111.858925751355, 40.6151460365082], [-111.85890790936, 40.6151006759928], [-111.858889127003, 40.615055592113], [-111.858869163927, 40.61501069645], [-111.858848260498, 40.6149660783222], [-111.858826414832, 40.6149218286893], [-111.858803388449, 40.614877766371], [-111.858779541544, 40.6148340712739], [-111.858754514882, 40.614790745396], [-111.858728666046, 40.6147476966894], [-111.85867390769, 40.6146627018644], [-111.858644998178, 40.6146207566452], [-111.858615266961, 40.6145791768461], [-111.858584477005, 40.6145380559463], [-111.858552747179, 40.6144973017267], [-111.858520194954, 40.6144570047823], [-111.858486702154, 40.6144171645727], [-111.858452269971, 40.6143777828948], [-111.858416898397, 40.6143388579465], [-111.858343571061, 40.614262378422], [-111.858305618142, 40.6142249147899], [-111.858266842818, 40.6141879066267], [-111.858227128589, 40.6141514470425], [-111.858184800766, 40.6141139246794], [-111.858144880318, 40.6140798079984], [-111.858103300127, 40.6140453424554], [-111.858060422272, 40.6140110672678], [-111.85801672652, 40.6139774303396], [-111.85787921442, 40.6138647924117], [-111.857879097886, 40.6137338885737], [-111.857880398879, 40.613672656037], [-111.857881324349, 40.6132189542468], [-111.856891491959, 40.6132227283014], [-111.856885965201, 40.6132193554761], [-111.856674491509, 40.6132167005372], [-111.856671374097, 40.6131532264802], [-111.856667974088, 40.6130325825288], [-111.856667568777, 40.6127331282319], [-111.856667503512, 40.6126845218025], [-111.856667370656, 40.6125864129108], [-111.856667180317, 40.6124495404568], [-111.856667177302, 40.6124471576378], [-111.856662491898, 40.6124471565668], [-111.856662426374, 40.6123987257377], [-111.856662281114, 40.6122928245013], [-111.856661743683, 40.6118953944717], [-111.856660400483, 40.6109033536331], [-111.856660401013, 40.6109009708018], [-111.856661420052, 40.6104304083258], [-111.856661420582, 40.610428025494], [-111.856661421312, 40.6104238740001], [-111.856661420661, 40.6104214911719], [-111.856662264629, 40.6100351332888], [-111.856663555454, 40.6095998079814], [-111.857354372596, 40.6095886993688], [-111.858160086353, 40.609587277144], [-111.858166898445, 40.6095872653606], [-111.858169716819, 40.6095872963833], [-111.858506478873, 40.6095910050146], [-111.858735680868, 40.6095890745156], [-111.860628732562, 40.6095958975868], [-111.860718169843, 40.6095923474665], [-111.861961651407, 40.609580166502], [-111.862210314581, 40.6095777288302], [-111.862435823531, 40.6095755179311], [-111.862492005215, 40.6095749670935], [-111.862532145794, 40.6095745738454], [-111.862635051803, 40.609573564311], [-111.862646183571, 40.6095734776836], [-111.862654145694, 40.609573521522], [-111.862673639768, 40.609573626983], [-111.863258358156, 40.6095768130435], [-111.863276419845, 40.609576651775], [-111.863433193574, 40.6095752559594], [-111.863443709669, 40.6095751621575], [-111.863850423796, 40.6095715389454], [-111.864580401411, 40.6095650329469], [-111.864934517237, 40.6095618755424], [-111.86513205697, 40.609561266541], [-111.865453846566, 40.6095636050792], [-111.865579837914, 40.609564520277], [-111.865788776442, 40.6095613972743], [-111.866435747357, 40.6095595402599], [-111.867416969654, 40.6095561033304], [-111.867415638152, 40.610411789943], [-111.867415636816, 40.6104141727785], [-111.867431604612, 40.6110078349501], [-111.867503234725, 40.6110073864447], [-111.8675077277, 40.6111902298646], [-111.868422780786, 40.6111895691256], [-111.868422765097, 40.6111901644322], [-111.86842969096, 40.6122844011497], [-111.868429755902, 40.6122946671051], [-111.868670843721, 40.6123079882064], [-111.869741022942, 40.6123084922577], [-111.869741002468, 40.6123062427725], [-111.869740740015, 40.6122770291701], [-111.869739691569, 40.6121604260034], [-111.869738988645, 40.6120822505042], [-111.869738885007, 40.6120707689403], [-111.869738331515, 40.6120092493637], [-111.8697382094, 40.6119956686979], [-111.869737644852, 40.6119329820537], [-111.869737596413, 40.6119275375386], [-111.869736740123, 40.6118324152433], [-111.869736794311, 40.6118265021236], [-111.869737093334, 40.6117938349748], [-111.869737243196, 40.6117774572726], [-111.869738109306, 40.6116828986871], [-111.869738299062, 40.6116621118118], [-111.869738531495, 40.611636775271], [-111.869738794869, 40.611607993164], [-111.869738809793, 40.6116063874532], [-111.869740918882, 40.6113797867739], [-111.869824692027, 40.6113769040604], [-111.870271554758, 40.6113698442416], [-111.87080657682, 40.6113614154707], [-111.870819819858, 40.61136120703], [-111.870832308345, 40.6118224479046], [-111.870918710575, 40.6118216165422], [-111.871026502388, 40.6118203527815], [-111.871134411874, 40.6118189984957], [-111.871302975221, 40.6118186283479], [-111.871471538071, 40.6118181670049], [-111.871801192141, 40.611815318492], [-111.872065248264, 40.6118132353582], [-111.872069382684, 40.6119655910173]]]}}, {"type": "Feature", "properties": {"District": "2", "Name": "District 2", "CITY": "Midvale"}, "geometry": {"type": "Polygon", "coordinates": [[[-111.87599266405, 40.6299467571782], [-111.875917668486, 40.6299411105501], [-111.875629402699, 40.6299363985941], [-111.875354681792, 40.6299332563817], [-111.874952815885, 40.6298911681396], [-111.874623545662, 40.6298666360393], [-111.874294702802, 40.6298477759182], [-111.873962367974, 40.6298240766243], [-111.873631376356, 40.6298127076296], [-111.873302179641, 40.6298029448511], [-111.872857217406, 40.6297927068765], [-111.872374096939, 40.6298032041781], [-111.872190583243, 40.6297486473231], [-111.872198530909, 40.6288148339866], [-111.872444020298, 40.6284156923381], [-111.872554205556, 40.6283609783556], [-111.873133131724, 40.6280735000698], [-111.873661518963, 40.6278111146581], [-111.873761335201, 40.6277615475634], [-111.874143604473, 40.6277682086588], [-111.874206353426, 40.6277693018269], [-111.874236262141, 40.6277698233532], [-111.875034045471, 40.6277837203143], [-111.875710848778, 40.627410215267], [-111.875748390223, 40.6273974173819], [-111.876043390058, 40.6273024173207], [-111.876094390522, 40.6272374172215], [-111.876103390554, 40.6272054175926], [-111.876107877419, 40.627191104522], [-111.876348815606, 40.6270581347061], [-111.876267213673, 40.6265688887543], [-111.87623230984, 40.6263714799027], [-111.876148919974, 40.6262079073198], [-111.876147389402, 40.6262004170676], [-111.876137697067, 40.6261536400919], [-111.876342977736, 40.6257910524405], [-111.876424787633, 40.6256465495479], [-111.876441735284, 40.6256166136285], [-111.876547635862, 40.6254295605165], [-111.876544151321, 40.6247989012166], [-111.876821248856, 40.6239526445626], [-111.877134822248, 40.6233343846776], [-111.877162963766, 40.6230817036536], [-111.877205275893, 40.6227017888511], [-111.877285815131, 40.6219786267062], [-111.877353150637, 40.6213383471586], [-111.877416248229, 40.6207634141221], [-111.87742096453, 40.6207185242724], [-111.877427949587, 40.6207185999718], [-111.877560720057, 40.6207200398069], [-111.877577844047, 40.6207201117024], [-111.877755838281, 40.6207208574126], [-111.87775589028, 40.6207208572453], [-111.877848903446, 40.6207228605528], [-111.877920762524, 40.6207228651616], [-111.877921822621, 40.6207228635497], [-111.877923889626, 40.6207228595964], [-111.878040948501, 40.6207244557355], [-111.87813971833, 40.6207258080954], [-111.878184118407, 40.620726402596], [-111.878224181969, 40.620726930905], [-111.878291091339, 40.6207292431038], [-111.878384229463, 40.6207324613102], [-111.878437148591, 40.6207348275278], [-111.878440028253, 40.6207349560261], [-111.878752049743, 40.6207489057899], [-111.878793592874, 40.6207506907837], [-111.878914814239, 40.6207558999846], [-111.878985251455, 40.6207577897546], [-111.879027301495, 40.6207589174378], [-111.879052684475, 40.6207594712535], [-111.879262943139, 40.620764714935], [-111.879328616354, 40.6207689324719], [-111.879333150313, 40.6207692240029], [-111.879447819032, 40.6207692253075], [-111.87949205984, 40.6207692254736], [-111.879584533704, 40.6207692272546], [-111.879708917106, 40.6207692284079], [-111.879709023469, 40.6207692280639], [-111.8797120407, 40.6207692291102], [-111.879712147063, 40.6207692287661], [-111.879724916815, 40.6207692333851], [-111.879725023178, 40.620769233041], [-111.879727997838, 40.6207692297219], [-111.879728043929, 40.6207692295728], [-111.879728104201, 40.6207692293779], [-111.879728150297, 40.6207692301293], [-111.879773230208, 40.6207692301766], [-111.879898917166, 40.6207692296127], [-111.879899023529, 40.6207692292685], [-111.879900181701, 40.6207692246196], [-111.879900288059, 40.6207692233749], [-111.880023916679, 40.6207682378469], [-111.880024023037, 40.620768236602], [-111.880025779202, 40.6207682291154], [-111.88002588556, 40.6207682278705], [-111.880027043762, 40.6207682286236], [-111.880027150126, 40.6207682282792], [-111.880270752306, 40.6207682291371], [-111.880398896303, 40.6207682290835], [-111.880402035245, 40.620768227016], [-111.880525896334, 40.6207682380017], [-111.880529023448, 40.6207682341681], [-111.880741895915, 40.6207672404101], [-111.880745017074, 40.6207672284853], [-111.881396024074, 40.6207662281312], [-111.881399151188, 40.6207662242744], [-111.881399199642, 40.620766224117], [-111.881613023163, 40.6207662297886], [-111.881613398955, 40.6207662240642], [-111.881614854757, 40.6207661851109], [-111.881650023204, 40.6207652341728], [-111.881651201492, 40.6207652339439], [-111.881652774516, 40.6207652342327], [-111.881653150313, 40.6207652294087], [-111.881763024297, 40.620765224229], [-111.881766156158, 40.6207652239492], [-111.881804113151, 40.6207652238688], [-111.881804150969, 40.6207652237458], [-111.882229150944, 40.6207642242361], [-111.882271630448, 40.6207641579473], [-111.882616530598, 40.6207636195826], [-111.882700143509, 40.6207634892969], [-111.883508151065, 40.6207622237142], [-111.883934150589, 40.6207622242684], [-111.884112061572, 40.6207636747397], [-111.884298633443, 40.6207651947456], [-111.8847253164, 40.6207694353264], [-111.8849139396, 40.6207713078461], [-111.88523721449, 40.620774515891], [-111.88527618888, 40.6207749030829], [-111.885615656942, 40.6207784621771], [-111.885778151553, 40.6207802237239], [-111.88585693861, 40.6207802232191], [-111.885923150942, 40.62078022348], [-111.886361136795, 40.6207802226463], [-111.886502799465, 40.6207811935429], [-111.886951233148, 40.6207866728011], [-111.887332115691, 40.6207913457523], [-111.889538718805, 40.6208184137579], [-111.889649900199, 40.6208205059174], [-111.890180864286, 40.6208304951185], [-111.890592512792, 40.6208382377235], [-111.890602483981, 40.6207466846602], [-111.890603740283, 40.6207225595667], [-111.890604201228, 40.6207136976385], [-111.890608431754, 40.6205379291341], [-111.890609265377, 40.620493463188], [-111.89061001971, 40.6204615573111], [-111.890611574855, 40.6203957516099], [-111.890627407801, 40.6197357006691], [-111.890634431734, 40.6194656508181], [-111.890641738499, 40.6191136122512], [-111.890656407428, 40.618482126322], [-111.890665448495, 40.6181092028394], [-111.890673455411, 40.6177674134804], [-111.890683435788, 40.6172406836398], [-111.890684360923, 40.6172119920766], [-111.890697412902, 40.6165645129392], [-111.890716426302, 40.6156386793982], [-111.890728304708, 40.6151061108729], [-111.890730394829, 40.6148572270112], [-111.890739455853, 40.6141894452299], [-111.890740353228, 40.6141223213531], [-111.890743399584, 40.6138794678292], [-111.890744548981, 40.6136761426274], [-111.890746486338, 40.6135045219262], [-111.890749509146, 40.613238604666], [-111.890751552985, 40.6130797910726], [-111.890754363485, 40.612885890739], [-111.890754408906, 40.6128781477361], [-111.890755254955, 40.6127340520476], [-111.890755564683, 40.6127074823529], [-111.89075899983, 40.6124545512372], [-111.890761108566, 40.6122992332773], [-111.890761233456, 40.6122810293209], [-111.890760995228, 40.6122648275759], [-111.890759234403, 40.6121967849383], [-111.890759665189, 40.6121105296591], [-111.890759574585, 40.612033091512], [-111.890761160764, 40.6119461668802], [-111.890763580538, 40.6118137774379], [-111.890765621197, 40.6117024502138], [-111.890770056633, 40.6114603563818], [-111.890775237329, 40.6111802760981], [-111.890776129877, 40.6111407681647], [-111.890777479624, 40.6110540397055], [-111.890778122606, 40.6110260343198], [-111.890778318296, 40.6110175019361], [-111.890778425049, 40.6110128313713], [-111.89077857155, 40.6110064370373], [-111.890779157768, 40.6109808975233], [-111.890779440077, 40.6109680989848], [-111.890784316769, 40.6109680917528], [-111.890844837632, 40.6109680036933], [-111.890848766641, 40.6109679987139], [-111.890869484611, 40.6109679684409], [-111.890960884499, 40.610967835114], [-111.891044998299, 40.6109677124843], [-111.891315348127, 40.6109673175118], [-111.891318623677, 40.6109673128944], [-111.891581878845, 40.6109669283551], [-111.891664887791, 40.6109668062656], [-111.891887491639, 40.6109664810472], [-111.891941989597, 40.6109664008254], [-111.892126667017, 40.6109661297589], [-111.892149724664, 40.6109660959455], [-111.892239399333, 40.6109659646857], [-111.892307682487, 40.6109658643385], [-111.892469406241, 40.6109656262296], [-111.892505573174, 40.6109655728229], [-111.892673840938, 40.6109653251546], [-111.892800421075, 40.6109651393264], [-111.892842066162, 40.6109650773874], [-111.892955494467, 40.6109649101973], [-111.893148241406, 40.6109646258145], [-111.89318290291, 40.6109645745402], [-111.89335943399, 40.6109643144157], [-111.893469765171, 40.610964150805], [-111.893885306179, 40.6109635359318], [-111.893941980739, 40.6109634510787], [-111.89433364166, 40.6109628697429], [-111.894395546232, 40.610962777905], [-111.894427429661, 40.6109627301953], [-111.894457298367, 40.6109626856462], [-111.895178251223, 40.610961611175], [-111.895330361013, 40.610961384384], [-111.895504831266, 40.6109611234715], [-111.895967535646, 40.6109604296354], [-111.896413369528, 40.6109597603394], [-111.896487858724, 40.6109596483056], [-111.896494025784, 40.6109596391787], [-111.89723866013, 40.6109585161722], [-111.897503882686, 40.6109581152926], [-111.897594698811, 40.6109579778762], [-111.897996614072, 40.6109573684891], [-111.89852898171, 40.6109565588785], [-111.898695057234, 40.6109558633525], [-111.899113930963, 40.6109541082768], [-111.899213835993, 40.6109536892491], [-111.900971091643, 40.6109463066285], [-111.901446104807, 40.6109443072925], [-111.902987632186, 40.6109378032758], [-111.90360327648, 40.6109352005847], [-111.903662455183, 40.6109349502344], [-111.904616815396, 40.6109309075092], [-111.905279843165, 40.6109280948365], [-111.905296068209, 40.6109280262004], [-111.905452189494, 40.6109273635916], [-111.90545222612, 40.6109273625646], [-111.905488253021, 40.6109272101833], [-111.905757673092, 40.6109260656212], [-111.90579383942, 40.6109259117635], [-111.905873291427, 40.610925573091], [-111.90587404532, 40.6109255713845], [-111.905884254654, 40.6109255279731], [-111.905884436924, 40.6109269664096], [-111.905962753786, 40.6115477302319], [-111.905979437293, 40.6116799675722], [-111.905988438611, 40.6117889677731], [-111.906049438001, 40.6125159669128], [-111.906040436324, 40.6132329679396], [-111.905910437361, 40.6141069679819], [-111.905860438257, 40.614379968846], [-111.905745437579, 40.615025968811], [-111.905724438559, 40.6151439690295], [-111.90572143751, 40.6151569688045], [-111.905704436863, 40.6152349693783], [-111.905673438574, 40.6153709690272], [-111.905652437113, 40.6154649689127], [-111.905613437683, 40.6156449686849], [-111.905580437101, 40.6157799683999], [-111.905548437421, 40.6159169692428], [-111.905451439006, 40.6163279688182], [-111.905349437418, 40.616687969012], [-111.90527343735, 40.6168909691687], [-111.905248437162, 40.6169589688227], [-111.905014438294, 40.6175229688251], [-111.90484043769, 40.6180199691645], [-111.904738437161, 40.618289969523], [-111.904669501549, 40.618537311665], [-111.90450543873, 40.6191259690358], [-111.904410841407, 40.6194040960451], [-111.904288439055, 40.6197639696926], [-111.904150921895, 40.6201694264445], [-111.904141096603, 40.6201983945882], [-111.904045763341, 40.6204794729681], [-111.903978438594, 40.6206779691029], [-111.903961438734, 40.6207239703909], [-111.9039469789, 40.6207646353476], [-111.903945437484, 40.6207689713425], [-111.903936439434, 40.6207949702402], [-111.903933811869, 40.6208022907555], [-111.903933794414, 40.6208023367431], [-111.903922438892, 40.6208339703172], [-111.903902438499, 40.620893969985], [-111.903809439069, 40.6211589699449], [-111.903798439002, 40.6211929697949], [-111.90361171604, 40.6216976847473], [-111.903563747763, 40.6218273452761], [-111.903330438746, 40.6224579700196], [-111.90317143922, 40.6228909698509], [-111.903155422394, 40.6229343110133], [-111.903154439446, 40.6229369709758], [-111.903064629994, 40.6232431155215], [-111.903051317402, 40.6232884961008], [-111.902999890363, 40.6234637993248], [-111.90299543928, 40.623478970654], [-111.902962787592, 40.6236581042143], [-111.902954201921, 40.6237052029831], [-111.902923438853, 40.6238739711494], [-111.902912439139, 40.6239269713138], [-111.902877969911, 40.6240970174275], [-111.902867378213, 40.6241492741395], [-111.902822439876, 40.6243709713446], [-111.902795136308, 40.6245196608861], [-111.902782701101, 40.6245873816276], [-111.902748438903, 40.6247739716124], [-111.90273430995, 40.6249706964876], [-111.902731452006, 40.6250104821135], [-111.902722439262, 40.6251359713484], [-111.902716022307, 40.6254125257453], [-111.902714637419, 40.62547218296], [-111.902711440212, 40.625609971563], [-111.902712518696, 40.6258218812782], [-111.90271296383, 40.6259094101198], [-111.902713439886, 40.6260029715473], [-111.902719602116, 40.6262037232499], [-111.902722450781, 40.6262965624012], [-111.902731698782, 40.626597861898], [-111.90273243932, 40.6266219712209], [-111.902741497347, 40.6267069120616], [-111.902751486349, 40.626800582206], [-111.902777445577, 40.6270440017696], [-111.902783788409, 40.6271034820412], [-111.902785440125, 40.627118971001], [-111.902791467183, 40.6271732166362], [-111.902793960165, 40.6271956566498], [-111.902810254989, 40.6273423133961], [-111.902810439719, 40.6273439715499], [-111.902817771934, 40.6273816617464], [-111.902825160235, 40.6274196408215], [-111.902841979891, 40.6275061003137], [-111.902850011836, 40.6275473857464], [-111.902874586777, 40.6276737015577], [-111.902883272156, 40.6277183473445], [-111.902895822979, 40.6277828582959], [-111.90290388565, 40.6278243318269], [-111.901394896389, 40.6278198310595], [-111.900701009592, 40.6278177555794], [-111.899754476996, 40.627822745773], [-111.899552262629, 40.6278221067884], [-111.89955251462, 40.6278110590575], [-111.898567766016, 40.6278136554481], [-111.898326241686, 40.6278133441228], [-111.89832600629, 40.6273152576188], [-111.898325832399, 40.6272931914748], [-111.898340530499, 40.6261502098638], [-111.89550128908, 40.6261474868064], [-111.895502827118, 40.6266609691673], [-111.893757361107, 40.6266748506005], [-111.893756581843, 40.6268824168525], [-111.893384609252, 40.6268825922774], [-111.893384569831, 40.6270039396227], [-111.891301222825, 40.6270128313281], [-111.891301208004, 40.6269139147236], [-111.891226954527, 40.6269138578231], [-111.891226821587, 40.6272240270973], [-111.890795368848, 40.6272239332461], [-111.890813743946, 40.6269249743568], [-111.890207352801, 40.6269019935426], [-111.88996706876, 40.6269178993685], [-111.889867081577, 40.6279720516928], [-111.8896884208, 40.6279719865914], [-111.889680989784, 40.6280356448865], [-111.889226928081, 40.6280340974941], [-111.889190225882, 40.6284405811972], [-111.888763511602, 40.6284416132269], [-111.888756520857, 40.6289041709921], [-111.888552836385, 40.6289076297618], [-111.888554835116, 40.6293927124617], [-111.888554969151, 40.6294253410943], [-111.888289214589, 40.6294291975329], [-111.888237905289, 40.6294299417658], [-111.88823863887, 40.6294495754999], [-111.888233423227, 40.6294664615647], [-111.888224106817, 40.6294861726594], [-111.888216440705, 40.6294965910814], [-111.888207362385, 40.6295074716444], [-111.888199820164, 40.629515362755], [-111.888193484652, 40.6295219918281], [-111.888172865827, 40.6295364748642], [-111.888153624735, 40.6295479725715], [-111.888138689385, 40.6295540339208], [-111.888116660568, 40.6295602402913], [-111.888084235467, 40.6295671546251], [-111.888021224797, 40.6295681796873], [-111.888020788378, 40.6298475422821], [-111.887678590566, 40.6298472895748], [-111.887668776403, 40.6298472760558], [-111.887383679003, 40.6298463143127], [-111.887096340488, 40.6298455483791], [-111.886814084325, 40.6298447424834], [-111.886501316334, 40.6298435410701], [-111.886186263885, 40.629836972849], [-111.886150747906, 40.6298362323652], [-111.886141641881, 40.6298360317797], [-111.886110295441, 40.629843124827], [-111.885958675808, 40.6298774339534], [-111.88568825079, 40.6298771654978], [-111.885678080854, 40.6298771538817], [-111.885396067736, 40.6298767039917], [-111.885116304043, 40.6298766873071], [-111.885106017088, 40.6298766751248], [-111.884732593732, 40.6298756625486], [-111.884357641278, 40.629794664721], [-111.884213217789, 40.6297641509767], [-111.884215434965, 40.6299232258269], [-111.883829280348, 40.6299251904856], [-111.883829817671, 40.6300556320294], [-111.883239519569, 40.6300624008572], [-111.883241759236, 40.6303490389976], [-111.881780329629, 40.6303537213586], [-111.881619798903, 40.6303930527063], [-111.880578163647, 40.6303910010936], [-111.880582599912, 40.6302966467629], [-111.880104490944, 40.6302571358531], [-111.879985584918, 40.6302473087172], [-111.879930363654, 40.6302427452252], [-111.879797200903, 40.6302317348066], [-111.879629468967, 40.6302178777721], [-111.879445165254, 40.6302027061493], [-111.879314602329, 40.6301919893601], [-111.879179066844, 40.6301808589317], [-111.879039388043, 40.6301692212154], [-111.878905981832, 40.6301581637447], [-111.878765476262, 40.6301466220266], [-111.878655509537, 40.6301375490685], [-111.878371655198, 40.6301141237209], [-111.878115853873, 40.6300929172086], [-111.877969308862, 40.6300807879302], [-111.877839219866, 40.6300699761209], [-111.87769409715, 40.6300581057782], [-111.877569691481, 40.6300479705983], [-111.877296607538, 40.6300252716665], [-111.877024473195, 40.6300028356083], [-111.876629872786, 40.6300009665318], [-111.8766262059, 40.6300009053522], [-111.876514943356, 40.63000129916], [-111.876505010971, 40.6300012841862], [-111.876289379114, 40.6299774260706], [-111.87599266405, 40.6299467571782]]]}}, {"type": "Feature", "properties": {"District": "3", "Name": "District 3", "CITY": "Midvale"}, "geometry": {"type": "Polygon", "coordinates": [[[-111.890629972236, 40.6009815828191], [-111.8908092288, 40.6009798188631], [-111.890808360586, 40.6010161254415], [-111.890808180369, 40.601022817094], [-111.890804054122, 40.6011766980171], [-111.890801361786, 40.6012771249909], [-111.890800934267, 40.6013012718351], [-111.890798187127, 40.6014564467339], [-111.890797361817, 40.6015031256421], [-111.890795941792, 40.6015678696654], [-111.890792270902, 40.6017352419051], [-111.890789253854, 40.6018728120186], [-111.890787360794, 40.6019591256614], [-111.890785272606, 40.6020693188025], [-111.890783675195, 40.6021536205368], [-111.890778579636, 40.602422457371], [-111.890777604409, 40.6024739051449], [-111.890774360746, 40.6026451257282], [-111.890774722931, 40.6027765383194], [-111.890774920235, 40.602848061627], [-111.890775812583, 40.6031711092419], [-111.890775906404, 40.6032049973233], [-111.890776961364, 40.6035871236686], [-111.890776989858, 40.6035976599438], [-111.890777361286, 40.6037321261992], [-111.890778609318, 40.6039778805975], [-111.890778759858, 40.604007440463], [-111.890780361507, 40.6043231263161], [-111.890780422963, 40.6043414737986], [-111.890780594242, 40.6043929960615], [-111.890781361464, 40.6046241262584], [-111.890781682703, 40.6047207715765], [-111.890782279839, 40.6049007928368], [-111.890784361222, 40.6055281272682], [-111.890784672932, 40.6056222843801], [-111.890785427827, 40.6058665120082], [-111.890785450654, 40.6058754408222], [-111.890786344846, 40.6063257627405], [-111.890786366795, 40.6063341260144], [-111.89078657962, 40.6063879471845], [-111.890791673759, 40.6076741607435], [-111.890792344529, 40.6078435200141], [-111.890792362675, 40.6078481280316], [-111.890794364449, 40.6083531277522], [-111.890794361838, 40.6085892905692], [-111.890794367294, 40.6085931277631], [-111.890797325398, 40.6093040943983], [-111.890797363006, 40.6093131276134], [-111.89079929934, 40.6095465867571], [-111.89079936266, 40.6095541276871], [-111.890799357965, 40.6095543393302], [-111.890795526207, 40.6097689558017], [-111.890794743598, 40.6098127949992], [-111.890792157942, 40.6099916647831], [-111.890791285855, 40.6100510206144], [-111.890789250028, 40.6101928555608], [-111.89078316976, 40.6106194057886], [-111.89078083052, 40.6108196265382], [-111.890780825666, 40.610820016489], [-111.890779762527, 40.6109196352575], [-111.890779680763, 40.6109257790255], [-111.890779636435, 40.6109281466974], [-111.890779563978, 40.6109336465471], [-111.89077955673, 40.6109342373266], [-111.890779463726, 40.6109413059884], [-111.890779461322, 40.6109415050161], [-111.890779454156, 40.610942110204], [-111.890779438396, 40.6109432773586], [-111.89077943771, 40.6109433638129], [-111.890779412065, 40.6109452802511], [-111.890779410461, 40.6109454126361], [-111.890779700587, 40.6109471695275], [-111.890779698178, 40.6109473676547], [-111.890779677537, 40.6109489202574], [-111.890779674138, 40.6109491517079], [-111.890779654575, 40.6109506862962], [-111.890779651475, 40.6109509699772], [-111.890779629111, 40.6109526342528], [-111.890779628389, 40.6109527144034], [-111.890779603507, 40.6109545578952], [-111.890779601965, 40.6109547010864], [-111.890779579988, 40.6109564329014], [-111.890779577254, 40.6109565742955], [-111.890779554452, 40.6109583682506], [-111.89077955181, 40.6109585258542], [-111.890779529746, 40.6109602423602], [-111.890779528198, 40.610960384651], [-111.890779505808, 40.6109620444239], [-111.890779503389, 40.6109622407501], [-111.890779484652, 40.6109637131982], [-111.890779481361, 40.6109639635598], [-111.890779472163, 40.6109648326132], [-111.890779477412, 40.6109653359985], [-111.890779472621, 40.6109661492036], [-111.890779451337, 40.6109667652451], [-111.890779449532, 40.6109668625096], [-111.890779428983, 40.6109680188736], [-111.890779425428, 40.6109682233084], [-111.890778573041, 40.6110064910649], [-111.890778319514, 40.6110175082358], [-111.890778122973, 40.6110260982571], [-111.890774044406, 40.6111925355413], [-111.890774041532, 40.6111926526213], [-111.890762502899, 40.6118224442342], [-111.890762359061, 40.6118301281324], [-111.890758363093, 40.6120491233801], [-111.890758727739, 40.6121106705631], [-111.890759088432, 40.612171734167], [-111.890759311868, 40.612209473307], [-111.890759362671, 40.6122181291405], [-111.890760276175, 40.6122801850987], [-111.890760363417, 40.6122861274799], [-111.890758317838, 40.6124367966367], [-111.890754360723, 40.6127281285639], [-111.890753404817, 40.6128909900923], [-111.89075340505, 40.6128910306159], [-111.890750447391, 40.6130922429309], [-111.890750364141, 40.6130981282431], [-111.890748437894, 40.6132502450218], [-111.890748366445, 40.6132561275927], [-111.89074348276, 40.613688661892], [-111.890742408144, 40.6138912213843], [-111.890742401836, 40.6138923885059], [-111.890739468633, 40.614136634788], [-111.890739461307, 40.614137212059], [-111.89073936134, 40.6141451290438], [-111.890738590383, 40.6142021475337], [-111.890733027486, 40.6146120776599], [-111.890731990903, 40.6146885216786], [-111.890729529349, 40.6148699293115], [-111.890727707503, 40.6150862460435], [-111.890727706363, 40.6150864594754], [-111.890727433694, 40.6151194976007], [-111.89072736381, 40.61512812771], [-111.890715544849, 40.6156521021794], [-111.890715369871, 40.6156601283742], [-111.890696547393, 40.6165772152303], [-111.890696365683, 40.6165861293765], [-111.890686765268, 40.6170624206824], [-111.890683365664, 40.6172311300507], [-111.890682570269, 40.6172533859273], [-111.890672581833, 40.617780566962], [-111.890664582961, 40.6181219051222], [-111.890664362838, 40.618131129176], [-111.890655527609, 40.6184954302103], [-111.890655367462, 40.6185021289519], [-111.890653119212, 40.6185989542736], [-111.890643149744, 40.6190282779087], [-111.890640872948, 40.6191263145286], [-111.890633566177, 40.6194783530936], [-111.890632602728, 40.6195360411977], [-111.89062660236, 40.619746108171], [-111.890626531671, 40.6197488271318], [-111.890626371611, 40.6197551296326], [-111.890611577089, 40.620395729089], [-111.890610047624, 40.6204604477552], [-111.890609347906, 40.6204752819478], [-111.890609353294, 40.6204898319254], [-111.89060927912, 40.62049297415], [-111.890609222054, 40.6204953895833], [-111.890607566178, 40.6205506314038], [-111.89060736434, 40.6205591304541], [-111.890604031533, 40.6206983170122], [-111.890603699756, 40.6207260051603], [-111.890603601543, 40.6207301083387], [-111.890603301752, 40.6207392506986], [-111.890592433497, 40.6208390430684], [-111.890539528228, 40.6208379511412], [-111.889763289205, 40.6208219665687], [-111.887315643119, 40.620791944031], [-111.887202136433, 40.6207905516459], [-111.88650621725, 40.6207820125852], [-111.886360202892, 40.6207810118897], [-111.885922217034, 40.62078101272], [-111.885856004701, 40.6207810124585], [-111.885777217643, 40.6207810129627], [-111.88561472303, 40.6207792514147], [-111.885275254965, 40.6207756923177], [-111.884724382478, 40.6207702245568], [-111.884297699516, 40.6207659839726], [-111.884111127643, 40.6207644639653], [-111.883933216657, 40.6207630134926], [-111.883507217129, 40.6207630129351], [-111.882615596652, 40.6207644087963], [-111.882228216993, 40.6207650134467], [-111.881803217013, 40.620766012953], [-111.881803179195, 40.620766013076], [-111.881765222202, 40.6207660131561], [-111.881762090341, 40.6207660134359], [-111.881652216355, 40.6207660186148], [-111.881651840559, 40.6207660234388], [-111.881650267535, 40.6207660231499], [-111.881649089247, 40.6207660233788], [-111.881613920799, 40.6207669743167], [-111.881612464997, 40.6207670132699], [-111.881612089205, 40.6207670189943], [-111.881398265682, 40.620767013321], [-111.881398217228, 40.6207670134784], [-111.881395090114, 40.6207670173352], [-111.880744083106, 40.620768017684], [-111.880740961947, 40.6207680296089], [-111.880528089477, 40.6207690233652], [-111.880524962363, 40.6207690271987], [-111.880401101273, 40.6207690162121], [-111.880397962331, 40.6207690182795], [-111.880269818332, 40.6207690183321], [-111.880026216149, 40.6207690174723], [-111.880026109786, 40.6207690178167], [-111.880024951584, 40.6207690170636], [-111.880024845225, 40.6207690183085], [-111.88002308906, 40.6207690257951], [-111.880022982702, 40.6207690270399], [-111.879899354081, 40.620770012567], [-111.879899247723, 40.6207700138118], [-111.879898089551, 40.6207700184606], [-111.879897983188, 40.6207700188048], [-111.879727216317, 40.62077001932], [-111.879727170221, 40.6207700185686], [-111.879727109949, 40.6207700187636], [-111.879727063858, 40.6207700189127], [-111.879724089198, 40.6207700222317], [-111.879723982835, 40.6207700225758], [-111.879711213083, 40.6207700179567], [-111.879711106719, 40.6207700183007], [-111.879708089489, 40.6207700172544], [-111.879707983126, 40.6207700175985], [-111.879583599722, 40.6207700164441], [-111.879491125858, 40.6207700146624], [-111.879446885049, 40.620770014496], [-111.879332216329, 40.6207700131905], [-111.879327682369, 40.6207697216594], [-111.879262009154, 40.620765504122], [-111.879051750487, 40.6207602604388], [-111.879026367507, 40.6207597066229], [-111.878984317467, 40.6207585789394], [-111.87891388025, 40.6207566891688], [-111.878792658883, 40.620751479967], [-111.878751115752, 40.6207496949729], [-111.878436214597, 40.6207356167082], [-111.878383295468, 40.6207332504902], [-111.878290157343, 40.620730032283], [-111.878223247972, 40.6207277200838], [-111.87818318441, 40.6207271917745], [-111.878138784332, 40.6207265972734], [-111.878040014503, 40.6207252449128], [-111.877922955626, 40.6207236487727], [-111.877919828524, 40.6207236543379], [-111.877847969445, 40.6207236497286], [-111.877754956278, 40.6207216464203], [-111.877754904278, 40.6207216465877], [-111.877559786053, 40.6207208289804], [-111.877427015581, 40.6207193891442], [-111.877420030524, 40.6207193134448], [-111.87739926681, 40.620719086629], [-111.877395427982, 40.620719044939], [-111.877383776744, 40.620718914898], [-111.877212854047, 40.6207169986145], [-111.876868095284, 40.6207131332299], [-111.876832076672, 40.6207127301555], [-111.876665587334, 40.6207108618805], [-111.876414427383, 40.6207080446865], [-111.876258533655, 40.6207062571253], [-111.876079266515, 40.6207042011399], [-111.875978427276, 40.6207030445888], [-111.875766428407, 40.6207010452326], [-111.8752332687, 40.620695186258], [-111.875161873371, 40.6206944013582], [-111.874972276062, 40.6206943083505], [-111.874707123946, 40.6206941779791], [-111.874415426184, 40.6206980454197], [-111.874367660408, 40.6206991910607], [-111.87429042714, 40.6207010448135], [-111.874022377122, 40.6207047854409], [-111.873860426335, 40.6207070457007], [-111.873791929235, 40.6207078356826], [-111.873513426488, 40.6207110455967], [-111.873418377617, 40.6207123566062], [-111.872778592998, 40.6207211774926], [-111.872743891394, 40.6207217154462], [-111.872536556226, 40.6207249266687], [-111.872141425808, 40.6207310465259], [-111.872141648506, 40.6207179375987], [-111.872141354254, 40.6207179421338], [-111.872147354209, 40.6203629411827], [-111.872155640909, 40.6192939172903], [-111.872162641202, 40.6189399161566], [-111.872172625804, 40.6183559179705], [-111.872182640538, 40.6178229170364], [-111.872178635819, 40.6176009312513], [-111.872181640459, 40.6172199169236], [-111.872184277946, 40.6169504331711], [-111.872187640919, 40.6166069173932], [-111.872190688465, 40.6163108213462], [-111.872193641015, 40.6160239524873], [-111.872193640824, 40.6160239173669], [-111.872196641261, 40.6158209173344], [-111.87220048949, 40.6155279822463], [-111.872204650984, 40.6152119166764], [-111.872208650638, 40.6150099139061], [-111.872206640336, 40.6149259170605], [-111.872200637387, 40.6146749287176], [-111.872199640495, 40.6145919165386], [-111.872198640436, 40.6143869172663], [-111.872195634536, 40.6137719472809], [-111.872195634369, 40.6137719166631], [-111.872194633152, 40.6135669173255], [-111.872193645785, 40.6133469239348], [-111.872193421406, 40.6132374450891], [-111.872199403315, 40.6128583167214], [-111.872207821674, 40.6128583071352], [-111.872207893959, 40.6128618064053], [-111.872208099555, 40.6128717576234], [-111.872343982513, 40.6128675659685], [-111.872585356697, 40.6128601188724], [-111.872663975944, 40.6128576935659], [-111.872672134187, 40.6128574416265], [-111.872708850555, 40.6128576303215], [-111.872846311806, 40.6128583347135], [-111.872967575082, 40.612858956238], [-111.873325136018, 40.6128607876414], [-111.873470811493, 40.6128615336152], [-111.873588344058, 40.6128621357511], [-111.873683045103, 40.6128903381788], [-111.873683176294, 40.6128903422638], [-111.873715970654, 40.6128913977436], [-111.873716897267, 40.6128914272126], [-111.873899662572, 40.6128973074018], [-111.874013689388, 40.6129009758133], [-111.874183719206, 40.6128962391491], [-111.874242536324, 40.6128946008495], [-111.874357899669, 40.6128913863381], [-111.874360644334, 40.6128913100433], [-111.874368217857, 40.6128910985741], [-111.874350689189, 40.6131782476185], [-111.874858748107, 40.6131786576832], [-111.875501266009, 40.6131788650883], [-111.876400180852, 40.6131791502426], [-111.876616234373, 40.6131792181247], [-111.876983424779, 40.6131793937209], [-111.877125039517, 40.6131880477438], [-111.877100819605, 40.614030526853], [-111.877087076683, 40.6144268473003], [-111.87708021596, 40.6146232212437], [-111.87707326696, 40.614823511001], [-111.877073260782, 40.6148317932845], [-111.877079241472, 40.614992204314], [-111.881097179805, 40.6150101995324], [-111.881502225769, 40.6150125822097], [-111.881499140426, 40.6149906541871], [-111.881498705983, 40.6149875649465], [-111.881498794812, 40.6149044133103], [-111.881498830218, 40.6149044050903], [-111.881526537415, 40.6149014990416], [-111.88154790521, 40.6148902556837], [-111.881557687782, 40.6148791004141], [-111.881562902655, 40.6148531145926], [-111.881558726978, 40.6148232392479], [-111.881549242492, 40.6147941232053], [-111.881538682482, 40.6147732127755], [-111.881524002829, 40.614744677356], [-111.881516679207, 40.6147270757939], [-111.881508917349, 40.6147031727767], [-111.881503279816, 40.6146789818854], [-111.881499041511, 40.6146522676353], [-111.881499076721, 40.6146159091202], [-111.881498865928, 40.6146158296572], [-111.881499045583, 40.6141616840186], [-111.881499502879, 40.6141604118701], [-111.881499462032, 40.6137350670427], [-111.881500871741, 40.6136233639414], [-111.88150884879, 40.6134387146271], [-111.881499479237, 40.6132261391883], [-111.881499414184, 40.6132246508063], [-111.881499480359, 40.6132246505913], [-111.881535963073, 40.6132246436689], [-111.881644463498, 40.6132246241144], [-111.881644005795, 40.6131920530526], [-111.88164150497, 40.6125645221498], [-111.881640346425, 40.6122909056022], [-111.880907088796, 40.612291726074], [-111.880046046185, 40.6122926154065], [-111.879288682411, 40.6122977318609], [-111.879122935142, 40.612298764474], [-111.878921282034, 40.6122978397353], [-111.877608166715, 40.6122931393014], [-111.877037028855, 40.6122884789323], [-111.877062172575, 40.6118579937208], [-111.877092109553, 40.6113298068427], [-111.878616106815, 40.6113322767557], [-111.878611725018, 40.6096339013606], [-111.878777597851, 40.609628135795], [-111.878776940618, 40.6095304849726], [-111.878786432531, 40.6061789112353], [-111.878801828218, 40.6059194331073], [-111.880104904124, 40.6059129351537], [-111.880093214782, 40.6057739183433], [-111.880713574043, 40.6057731610463], [-111.880714123804, 40.6056665880763], [-111.880724953097, 40.6041221946269], [-111.881742338432, 40.6041204087776], [-111.881741745579, 40.6038710555008], [-111.883382530614, 40.6038639028798], [-111.883369808268, 40.6035521949911], [-111.883331909881, 40.6029242305986], [-111.881700855777, 40.6029273237035], [-111.88169246402, 40.6023882554034], [-111.881692579001, 40.6023155171486], [-111.881904963934, 40.6023145523902], [-111.882104132503, 40.6023138103907], [-111.88229983191, 40.6023126056685], [-111.882497265884, 40.6023116309088], [-111.882677324977, 40.6023107421954], [-111.882879463776, 40.6023099846913], [-111.88307392749, 40.6023090240558], [-111.88445423048, 40.6023019579883], [-111.885107172956, 40.6022987237908], [-111.886358331741, 40.6022735888928], [-111.886349161118, 40.6022258974179], [-111.886295806577, 40.6019484107847], [-111.886275556451, 40.6018455649757], [-111.88626569783, 40.6017954956108], [-111.886199424207, 40.6015207134221], [-111.886187915466, 40.6014729971959], [-111.886182132845, 40.6014483223807], [-111.886177507398, 40.6014483448068], [-111.886177238537, 40.6014453081532], [-111.886162571779, 40.6012797587881], [-111.8861623803, 40.6012789111046], [-111.886077878756, 40.600905726763], [-111.88607757169, 40.6009030360436], [-111.886045317621, 40.6006208446239], [-111.886465613484, 40.6006170828563], [-111.886536662082, 40.6006164472039], [-111.888798473946, 40.600612696159], [-111.888879416315, 40.6006128935326], [-111.889606028499, 40.6006146591798], [-111.890254974715, 40.6006112897783], [-111.890255736625, 40.6006112638303], [-111.890623119518, 40.6005988566941], [-111.890629972236, 40.6009815828191]]]}}, {"type": "Feature", "properties": {"District": "4", "Name": "District 4", "CITY": "Midvale"}, "geometry": {"type": "Polygon", "coordinates": [[[-111.910142682031, 40.5992448389713], [-111.910257124932, 40.5992735761111], [-111.910278434625, 40.5994700360571], [-111.910289436377, 40.6001950358522], [-111.910283435724, 40.6003880358517], [-111.910275435456, 40.6006940361864], [-111.910272436, 40.6007720357908], [-111.910266435271, 40.6010080359285], [-111.910264435445, 40.6010870352363], [-111.910257436815, 40.6013170357912], [-111.91023843654, 40.6020100363688], [-111.91023243503, 40.6022410356567], [-111.910229436335, 40.6024130359771], [-111.910229436413, 40.6024460355754], [-111.910240436648, 40.6029320351214], [-111.910245438203, 40.6031050367495], [-111.910247437449, 40.6032240350452], [-111.910256436598, 40.6035830366264], [-111.910259436761, 40.6037030364081], [-111.910262437062, 40.6038670359232], [-111.91027143603, 40.6043620359257], [-111.910275436098, 40.6045270360089], [-111.910276437648, 40.6045660369116], [-111.9102794366, 40.6046850370443], [-111.910280437075, 40.6047250366525], [-111.910286437825, 40.6049670371067], [-111.910294438086, 40.6052540370701], [-111.910295437052, 40.6056960370955], [-111.910297437327, 40.6059400362397], [-111.910297439517, 40.6060130370671], [-111.910298437534, 40.6062330374751], [-111.910299438263, 40.6063070362079], [-111.910297437242, 40.6066960359984], [-111.910294437939, 40.6078650372115], [-111.910293437785, 40.60825503646], [-111.91029143823, 40.6085300370347], [-111.910289283925, 40.6091254415376], [-111.910288438903, 40.6093590373055], [-111.910287439075, 40.6096350374655], [-111.910283439225, 40.6098380374576], [-111.910275439664, 40.610449036962], [-111.910275438294, 40.6104900377796], [-111.910283405881, 40.6106523408636], [-111.910271172329, 40.6106535498318], [-111.910140455503, 40.610666466613], [-111.910104736205, 40.6106699963832], [-111.910079815598, 40.6106724590915], [-111.909608438808, 40.610719037738], [-111.909522513999, 40.6107282439541], [-111.909440442454, 40.6107370377244], [-111.909141789215, 40.610764828045], [-111.909013813285, 40.6107767362131], [-111.908548438372, 40.6108200378195], [-111.908199947927, 40.6108531908404], [-111.908096438702, 40.6108630380185], [-111.908055139596, 40.6108660120194], [-111.907610437837, 40.6108980379754], [-111.907335930002, 40.6109024085794], [-111.907128684409, 40.6109057077302], [-111.906542437827, 40.6109150378909], [-111.906459734618, 40.6109162915201], [-111.906410437619, 40.6109170385821], [-111.90619582811, 40.6109209838596], [-111.906138438525, 40.6109220379832], [-111.90601543786, 40.6109240386061], [-111.906010711841, 40.6109241468106], [-111.905974633418, 40.6109249731362], [-111.905886146984, 40.6109269983185], [-111.905885458173, 40.6109270151093], [-111.905884437347, 40.610927037551], [-111.905884255077, 40.6109255991145], [-111.905874045744, 40.6109256425258], [-111.905873291862, 40.6109256460335], [-111.905793839844, 40.6109259829049], [-111.905757673516, 40.6109261367625], [-111.905488253444, 40.6109272813247], [-111.905452226543, 40.6109274337059], [-111.905452189917, 40.610927434733], [-111.905279843588, 40.6109281659779], [-111.904616815824, 40.6109309795511], [-111.903662455605, 40.6109350213758], [-111.903603276901, 40.610935271726], [-111.902987632607, 40.6109378744172], [-111.901446105226, 40.6109443784339], [-111.900971092061, 40.6109463777699], [-111.89921383641, 40.6109537603905], [-111.89911393138, 40.6109541794183], [-111.89869505765, 40.6109559344939], [-111.898528982126, 40.6109566300199], [-111.897996614488, 40.6109574396306], [-111.897594699226, 40.6109580490175], [-111.897503883101, 40.6109581864341], [-111.897238660545, 40.6109585873135], [-111.896494026198, 40.6109597103202], [-111.896487859138, 40.610959719447], [-111.896413369941, 40.6109598314809], [-111.895967536059, 40.6109605007767], [-111.895504831679, 40.6109611946129], [-111.895330361426, 40.6109614555255], [-111.895178251635, 40.6109616823165], [-111.894457298779, 40.6109627567876], [-111.894427430072, 40.6109628013368], [-111.894395546644, 40.6109628490464], [-111.894333642071, 40.6109629408843], [-111.89394198115, 40.6109635222201], [-111.89388530659, 40.6109636070732], [-111.893469765582, 40.6109642219465], [-111.893359434401, 40.6109643855572], [-111.89318290332, 40.6109646456817], [-111.893148241816, 40.6109646969559], [-111.892955494877, 40.6109649813388], [-111.892842066572, 40.6109651485288], [-111.89280042148, 40.6109652095673], [-111.892673841348, 40.610965396296], [-111.892505573584, 40.6109656439643], [-111.892469406651, 40.6109656973711], [-111.892307682896, 40.61096593548], [-111.892239399742, 40.6109660358272], [-111.892149725073, 40.6109661670869], [-111.892126667426, 40.6109662009004], [-111.891941990006, 40.6109664719669], [-111.891887492048, 40.6109665521886], [-111.8916648882, 40.6109668774071], [-111.891581879254, 40.6109669994965], [-111.891318624086, 40.6109673840358], [-111.891315348535, 40.6109673886533], [-111.891044998707, 40.6109677836257], [-111.890960884907, 40.6109679062555], [-111.890869485019, 40.6109680395823], [-111.890848767049, 40.6109680698554], [-111.89084483804, 40.6109680748347], [-111.890807412638, 40.6109681292186], [-111.890799272212, 40.6109681410153], [-111.890798115373, 40.6109681430662], [-111.890784317177, 40.6109681628942], [-111.890779440485, 40.6109681701263], [-111.890780893962, 40.6108319295288], [-111.890783238056, 40.6106313188294], [-111.890789318325, 40.6102047686037], [-111.890794811895, 40.6098247080439], [-111.890796999117, 40.6096911467536], [-111.890799394531, 40.6095570075151], [-111.890798546758, 40.6094548888444], [-111.890797393695, 40.6093160074456], [-111.890794430135, 40.6086012036199], [-111.890794434503, 40.6083612251988], [-111.890794434307, 40.6083611909788], [-111.890792412825, 40.6078554330684], [-111.890786413139, 40.6063376758023], [-111.890785401845, 40.6058337413125], [-111.890781750993, 40.6047326846461], [-111.890781429754, 40.6046360393285], [-111.890780662531, 40.6044049091328], [-111.890780491252, 40.60435338687], [-111.890780429796, 40.6043350393876], [-111.890778828147, 40.604019353536], [-111.890778677607, 40.6039897936707], [-111.890777429574, 40.6037440392737], [-111.890777058146, 40.6036095730189], [-111.890777029652, 40.6035990367438], [-111.890775974692, 40.6032169104003], [-111.89077588087, 40.6031830223191], [-111.890774988522, 40.6028599747058], [-111.890774791217, 40.6027884513984], [-111.890774429033, 40.6026570388079], [-111.890777672696, 40.6024858182254], [-111.890778647924, 40.6024343704519], [-111.890783743483, 40.6021655336189], [-111.890785340894, 40.602081231885], [-111.890787429082, 40.6019710387444], [-111.890789322143, 40.6018847251021], [-111.890792339191, 40.6017471549892], [-111.890796010081, 40.6015797827504], [-111.890797430106, 40.6015150387273], [-111.890798255416, 40.6014683598194], [-111.890801002557, 40.6013131849214], [-111.890801430076, 40.6012890380772], [-111.890804122412, 40.6011886111039], [-111.89080824866, 40.6010347301815], [-111.890808428877, 40.6010280385291], [-111.8908092288, 40.6009798188631], [-111.890968073859, 40.6009782550202], [-111.891093858815, 40.6009981845996], [-111.891205332444, 40.6009728210942], [-111.891507939546, 40.5996500809912], [-111.890984383967, 40.599651868021], [-111.890995969807, 40.5966701687425], [-111.891054462593, 40.5966670110214], [-111.89103570402, 40.5950306440091], [-111.891034956538, 40.5944792735632], [-111.891575000865, 40.5944842365863], [-111.891574922884, 40.5941468808026], [-111.892057438101, 40.5941513122312], [-111.89238349969, 40.5940954653804], [-111.89240813421, 40.5940912458798], [-111.893427195455, 40.5940911149875], [-111.893432053395, 40.5940913427472], [-111.893554318409, 40.5940970681575], [-111.893554050725, 40.5941657169318], [-111.894733673156, 40.5941609916901], [-111.895924948061, 40.5941596373534], [-111.89601567522, 40.5941596292603], [-111.896012435019, 40.5943852518092], [-111.896012047269, 40.5944295483746], [-111.896095045516, 40.5944267782096], [-111.896103477747, 40.5944264966905], [-111.897539719752, 40.5944263358007], [-111.897539974063, 40.5945690321861], [-111.898845036882, 40.5945687917855], [-111.898845316683, 40.5937512497058], [-111.900653872694, 40.5937472521473], [-111.900653911044, 40.5937511648995], [-111.900667090081, 40.5950932285686], [-111.900538809048, 40.5963222046152], [-111.901112886943, 40.5963252335314], [-111.902592038911, 40.5963330250083], [-111.902592113906, 40.5963333210311], [-111.902709897866, 40.5967512662286], [-111.902710753433, 40.5967543035406], [-111.902714429091, 40.5967677487074], [-111.903055366374, 40.5980148924256], [-111.903204310512, 40.598586396443], [-111.903232283589, 40.5987136151282], [-111.903233508637, 40.5987191880049], [-111.904391659207, 40.5987212955913], [-111.904251798428, 40.5980465852066], [-111.904249313684, 40.5980346011811], [-111.904249503769, 40.5980345798136], [-111.904356213314, 40.5980227121608], [-111.904439797857, 40.598084631195], [-111.904980356919, 40.5984850718096], [-111.904995082591, 40.5985067637926], [-111.905027988037, 40.5985552356276], [-111.905067825182, 40.5986347406863], [-111.905092394824, 40.5994136198189], [-111.907568374336, 40.5993728400038], [-111.907566371767, 40.5992597968199], [-111.908190296073, 40.5992576974669], [-111.908207634883, 40.5992576389527], [-111.908316307457, 40.5993995364515], [-111.908324701255, 40.5994104966163], [-111.908433672174, 40.5993733462542], [-111.908445877774, 40.5993691846695], [-111.908455290526, 40.5993605102589], [-111.908528990939, 40.5992925875117], [-111.908620948135, 40.599259321727], [-111.908624962316, 40.5992578695753], [-111.909276471051, 40.5995670567647], [-111.909280028779, 40.5995657331599], [-111.910053690093, 40.5992779433971], [-111.910142682031, 40.5992448389713]]]}}, {"type": "Feature", "properties": {"District": "5", "Name": "District 5", "CITY": "Midvale"}, "geometry": {"type": "Polygon", "coordinates": [[[-111.917019282226, 40.5966392490328], [-111.917719487803, 40.5966263120992], [-111.91790013892, 40.596920505634], [-111.918712172779, 40.5982461297468], [-111.918711637177, 40.5982477949695], [-111.918711672974, 40.5982478524768], [-111.91871256684, 40.5982493117767], [-111.918706194162, 40.5982691339573], [-111.919142001948, 40.599000785903], [-111.919451729865, 40.5996014528226], [-111.919556003061, 40.5998364695771], [-111.91982500174, 40.6005334062264], [-111.919864325948, 40.6005889778655], [-111.920021343335, 40.6010337075353], [-111.920109148471, 40.6013205316303], [-111.920160682361, 40.6015080867764], [-111.920176725413, 40.6015720203705], [-111.920176810703, 40.6015739733506], [-111.920177119562, 40.6015752023912], [-111.920178579212, 40.6016086380596], [-111.920239398455, 40.6018288830596], [-111.920367163162, 40.6024836071272], [-111.920726805797, 40.60545351566], [-111.92071720021, 40.6057009703562], [-111.920623375326, 40.6062454816679], [-111.920495723895, 40.606650808731], [-111.920498261443, 40.6070596928179], [-111.920957423734, 40.6084315956212], [-111.920966670973, 40.6084430524938], [-111.921122261841, 40.6089144342659], [-111.92117895428, 40.6090861887734], [-111.921178774125, 40.60908763029], [-111.921178792189, 40.6090876851583], [-111.921179348519, 40.6090893707809], [-111.921178848595, 40.6090933718901], [-111.921264820746, 40.6093503414801], [-111.921347122819, 40.6097140863052], [-111.92134423511, 40.6102526468958], [-111.921487967923, 40.6110693981116], [-111.921430697874, 40.6117967642915], [-111.921130442726, 40.6122958970933], [-111.920753972739, 40.6130649057308], [-111.920635475885, 40.6133972802494], [-111.920557130749, 40.6136923966949], [-111.920699725086, 40.6147707690738], [-111.920725391235, 40.6152626168356], [-111.920724077275, 40.6153558753186], [-111.920724038788, 40.6153586383177], [-111.92072149959, 40.6155388538663], [-111.920582796871, 40.6160360364125], [-111.920582722874, 40.6160363014367], [-111.920581018658, 40.6160424096106], [-111.920559363339, 40.6161200337079], [-111.920424697853, 40.6164636160041], [-111.920334474017, 40.6168323396477], [-111.920237604728, 40.6172768782658], [-111.920218695609, 40.6176562933161], [-111.92025541718, 40.6178512180297], [-111.920270619588, 40.6180028029114], [-111.920211242615, 40.6180265178], [-111.920142453952, 40.6181413181885], [-111.920141459659, 40.6181429778413], [-111.920141426908, 40.6181430328915], [-111.920099066416, 40.6182137265391], [-111.920020429136, 40.6183449636348], [-111.919772042771, 40.6185431497522], [-111.920061196846, 40.6188261511038], [-111.920241773814, 40.6190793048622], [-111.920250155475, 40.6190810750336], [-111.920251760138, 40.6190933040259], [-111.920268408055, 40.6191166512578], [-111.920357712578, 40.6191199039194], [-111.920347219572, 40.6193889850279], [-111.920349831164, 40.6198204792639], [-111.920372757971, 40.619985371542], [-111.920637240918, 40.6218874763341], [-111.920848513725, 40.6236091470785], [-111.920876466158, 40.6239139565416], [-111.920985116092, 40.6239135408296], [-111.921016940043, 40.6241387737888], [-111.921117425781, 40.6271981115998], [-111.921125326648, 40.6274386509202], [-111.921132275886, 40.6276498928607], [-111.921146560413, 40.6277712438956], [-111.915834412423, 40.6278077816196], [-111.911876425025, 40.6278345079729], [-111.910304031625, 40.627845322774], [-111.910183581331, 40.6278462452918], [-111.9083732343, 40.6278404985651], [-111.907129296143, 40.6278368377008], [-111.906414664033, 40.6278347283511], [-111.906129033893, 40.6278338851443], [-111.906118865441, 40.6278338752948], [-111.905996555845, 40.6280226652879], [-111.905990261934, 40.628032393032], [-111.905988169044, 40.6280356286916], [-111.905966211792, 40.6280695674813], [-111.905918443873, 40.6281431749733], [-111.905811514117, 40.6283079492049], [-111.905640596191, 40.6285713234824], [-111.905359384725, 40.6290046501341], [-111.905205950248, 40.6292411030467], [-111.904683652956, 40.6300459858855], [-111.904651890714, 40.6300978050018], [-111.904637846332, 40.6301207170979], [-111.904338952379, 40.6307180038009], [-111.904273042967, 40.6308302744398], [-111.903817716981, 40.6298080096131], [-111.903757101053, 40.6296616181518], [-111.903677892681, 40.6294703259496], [-111.903663465807, 40.6294354843109], [-111.903616306493, 40.6293035027823], [-111.903557877152, 40.6291399835918], [-111.903556556263, 40.6291362869313], [-111.903409972142, 40.6287260546321], [-111.902991199649, 40.6278245913636], [-111.90290388565, 40.6278243318269], [-111.902903705256, 40.6278234075955], [-111.90289763096, 40.6277921843457], [-111.902891405526, 40.6277601862524], [-111.902851335862, 40.6275486257437], [-111.902837798916, 40.6274846368742], [-111.90283360193, 40.6274630636239], [-111.902810433367, 40.6273438968272], [-111.902785433774, 40.6271188962783], [-111.902751479998, 40.6268005074833], [-111.902732432968, 40.6266218964981], [-111.902713433534, 40.6260028968246], [-111.902711433861, 40.6256098968402], [-111.902722432911, 40.6251358966256], [-111.902748432552, 40.6247738968896], [-111.902822433525, 40.6243708966218], [-111.902912432788, 40.623926896591], [-111.902923432502, 40.6238738964265], [-111.902995432929, 40.6234788959312], [-111.903154433095, 40.622936896253], [-111.903171432868, 40.6228908951281], [-111.903330432394, 40.6224578952968], [-111.90379843265, 40.6211928950721], [-111.903809432717, 40.6211588952221], [-111.903902432147, 40.6208938952621], [-111.90392243254, 40.6208338955944], [-111.903933788062, 40.6208022620203], [-111.903933805517, 40.6208022160327], [-111.903936433081, 40.6207948955174], [-111.903945431132, 40.6207688966197], [-111.903946972548, 40.6207645606248], [-111.903961432382, 40.620723895668], [-111.903978432241, 40.6206778943801], [-111.904150915543, 40.6201693517216], [-111.904288432703, 40.6197638949697], [-111.904410835055, 40.6194040213222], [-111.904505432378, 40.619125894313], [-111.904669495196, 40.6185372369421], [-111.904738430809, 40.6182898948001], [-111.904840431337, 40.6180198944416], [-111.905014431941, 40.6175228941022], [-111.905248430809, 40.6169588940998], [-111.905273430997, 40.6168908944458], [-111.905349431065, 40.6166878942891], [-111.905451432653, 40.6163278940953], [-111.905548431068, 40.6159168945199], [-111.905580430747, 40.615779893677], [-111.90561343133, 40.6156448939619], [-111.90565243076, 40.6154648941898], [-111.90567343222, 40.6153708943043], [-111.905704430509, 40.6152348946554], [-111.905721431156, 40.6151568940815], [-111.905724432205, 40.6151438943066], [-111.905745431226, 40.6150258940881], [-111.905860431904, 40.6143798941231], [-111.905910431007, 40.6141068932589], [-111.90604042997, 40.6132328932167], [-111.906049431647, 40.6125158921898], [-111.905988432257, 40.61178889305], [-111.90597943094, 40.6116798928492], [-111.905962747432, 40.6115476555089], [-111.905885513411, 40.6109273616271], [-111.905885451412, 40.6109268719464], [-111.905886140207, 40.610926852454], [-111.907279791182, 40.610903156338], [-111.907335923222, 40.610902262715], [-111.907610431057, 40.610897892111], [-111.908055132814, 40.6108658661551], [-111.908096431921, 40.6108628921541], [-111.908199941145, 40.6108530449762], [-111.90854843159, 40.6108198919553], [-111.909013806501, 40.6107765903489], [-111.909141782431, 40.6107646821808], [-111.909440435669, 40.6107368918602], [-111.909522507214, 40.6107280980899], [-111.909608432024, 40.6107188918737], [-111.910079808813, 40.6106723132273], [-111.910104729419, 40.610669850519], [-111.910140448717, 40.6106663207488], [-111.910271165542, 40.6106534039676], [-111.910283399095, 40.6106521949995], [-111.910275431507, 40.6104898919154], [-111.910275432878, 40.6104488910977], [-111.910283432439, 40.6098378915933], [-111.910287432289, 40.6096348916013], [-111.910288432117, 40.6093588914411], [-111.910289277138, 40.6091252956733], [-111.91029032968, 40.608834497542], [-111.910291431444, 40.6085298911704], [-111.910293430999, 40.6082548905957], [-111.910294431153, 40.6078648913471], [-111.910294645673, 40.6077813678639], [-111.910297430456, 40.6066958901339], [-111.910299431477, 40.6063068903435], [-111.910298430748, 40.6062328916106], [-111.910297432731, 40.6060128912026], [-111.910297430541, 40.6059398903752], [-111.910295430266, 40.605695891231], [-111.910294431301, 40.6052538912055], [-111.910286431039, 40.6049668912422], [-111.910280430289, 40.6047248907879], [-111.910279429814, 40.6046848911798], [-111.910276430862, 40.6045658910471], [-111.910275643601, 40.6045352068287], [-111.910275429313, 40.6045268901444], [-111.910271429244, 40.6043618900611], [-111.910262430277, 40.6038668900586], [-111.910261141332, 40.6037964259991], [-111.910259429976, 40.6037028905435], [-111.910256429812, 40.6035828907617], [-111.910247430663, 40.6032238891806], [-111.910245431417, 40.6031048908848], [-111.910240429862, 40.6029318892568], [-111.910229429627, 40.6024458897108], [-111.910229429549, 40.6024128901124], [-111.910232428245, 40.602240889792], [-111.910238429755, 40.6020098905041], [-111.91025743003, 40.6013168899264], [-111.910264428659, 40.6010868893715], [-111.910266428485, 40.6010078900638], [-111.910272429215, 40.600771889926], [-111.910275428671, 40.6006938903217], [-111.9102778663, 40.6006006716434], [-111.910283428939, 40.6003878899869], [-111.910289429591, 40.6001948899874], [-111.910289122149, 40.6001746260626], [-111.910278427839, 40.5994698901923], [-111.910257124932, 40.5992735761111], [-111.91023729259, 40.5988492257549], [-111.910222478972, 40.5985176969905], [-111.910184867218, 40.5971964705383], [-111.910262393926, 40.5971963102731], [-111.910246356361, 40.5959429198341], [-111.911305095511, 40.596296496901], [-111.911412241926, 40.5961156856603], [-111.911412312092, 40.5961155665419], [-111.911316142607, 40.5959872315701], [-111.911626919725, 40.5959580230549], [-111.911730567848, 40.5959059463299], [-111.912124059549, 40.5958322112984], [-111.912369551027, 40.5959992749431], [-111.912571148187, 40.5962670431125], [-111.912681431832, 40.5964940418887], [-111.912760459753, 40.596656703678], [-111.913119170737, 40.5967017952212], [-111.913400901882, 40.5966973728068], [-111.914278507798, 40.5966835935344], [-111.916557462205, 40.5966477794962], [-111.917019282226, 40.5966392490328]]]}}]}