{"type":"FeatureCollection","features":[{"type":"Feature","id":1,"geometry":{"type":"Polygon","coordinates":[[[-111.97720137367845,40.561004053821442],[-111.9772033742622,40.561926054724005],[-111.97802537302438,40.561935055680117],[-111.97844737469805,40.561941055381816],[-111.98106837474359,40.561934055535396],[-111.98108837432521,40.561934055448035],[-111.98208237478055,40.561944054061229],[-111.98240337538489,40.56194605450326],[-111.98252337525513,40.561948055406909],[-111.98336237561774,40.562044054265968],[-111.98368237679564,40.562081054849763],[-111.98421637732133,40.562146054094185],[-111.98538637709987,40.562289053307246],[-111.98581837710685,40.562348052655473],[-111.98583537763095,40.5623510540551],[-111.98635537789609,40.562393054330542],[-111.98732337757107,40.562410053420074],[-111.98744237766103,40.562402053584385],[-111.98776537838475,40.562382053678789],[-111.98822037773677,40.562342053976167],[-111.98871537891175,40.562250052944023],[-111.98915137867984,40.562143053862982],[-111.98956537949131,40.562023053480424],[-111.99002037906067,40.561852053370067],[-111.99038437808788,40.561684052660027],[-111.99057337844354,40.561582053174234],[-111.99073337831112,40.561499053266523],[-111.99097537910689,40.56134005253206],[-111.99107037876794,40.561141052337689],[-111.99139437925365,40.560878052305739],[-111.99169437894247,40.560646052155953],[-111.99206738014212,40.560411053141642],[-111.9925773798853,40.560165051726308],[-111.99321237945009,40.560012052432441],[-111.99347337979279,40.559971052228953],[-111.99370437942468,40.559937051759036],[-111.99393237914157,40.559915051793986],[-111.9942263794274,40.559904052841567],[-111.99459637926475,40.559911051956476],[-111.99487238071947,40.559942051313733],[-111.9950993800435,40.559975052631991],[-111.99541337995103,40.560060052098677],[-111.99586038050731,40.560210051412078],[-111.99686638089084,40.560649051824491],[-111.99857138187987,40.56146105190188],[-111.99954238336427,40.561925051681278],[-111.99982138312026,40.561894051557886],[-111.99994838352146,40.561935051496185],[-112.00006338331119,40.561971051197901],[-112.00036438294266,40.562124052172031],[-112.00258938399438,40.562111052107227],[-112.00473338450708,40.562113050278114],[-112.00485638473072,40.561999050537445],[-112.00499438463791,40.561915051446306],[-112.00504338456935,40.561898051206029],[-112.00515738545965,40.561878052174997],[-112.00527038514518,40.56188805067432],[-112.00537738505311,40.561927050608226],[-112.00546938464191,40.562001050726174],[-112.00553838429769,40.562075050853771],[-112.00554238486824,40.562111050815865],[-112.00733038457706,40.562124050924801],[-112.00751738639347,40.562121050757412],[-112.00883538690638,40.562134049917596],[-112.00928938705619,40.562141050707169],[-112.00974338767894,40.562085050678796],[-112.01000238637991,40.562036050608931],[-112.01021438709503,40.562000049672143],[-112.01043638704712,40.561923050710014],[-112.0106353876032,40.561846049702162],[-112.0108523867045,40.561742050244284],[-112.0110873875399,40.561611050416637],[-112.01132238864756,40.56145704965536],[-112.01148038780289,40.561380050335451],[-112.01326238895955,40.56036804907604],[-112.0147073884623,40.559555048884853],[-112.01406438710892,40.558864049152135],[-112.01350838859651,40.558271049080439],[-112.0131753874723,40.557957048896974],[-112.01285238706252,40.55761904891822],[-112.01190738666638,40.556641047848075],[-112.01121038437094,40.555927049196377],[-112.01061338599996,40.555313048504757],[-112.01039438403912,40.55508904902284],[-112.00999138420858,40.554663049638741],[-112.00936938531113,40.554005047597741],[-112.00908438480594,40.553704048174623],[-112.00861438353721,40.553226048646941],[-112.00852838394093,40.553116048842227],[-112.00764138266639,40.552224048671597],[-112.00675138294434,40.551317048354072],[-112.0056653820011,40.550230048518493],[-112.00534038065683,40.549894047643704],[-112.00474238129404,40.54927804903221],[-112.00417538118255,40.548682048023707],[-112.00378838056601,40.548275048070948],[-112.00316038048506,40.547615047480633],[-112.00287538086248,40.547338048851849],[-112.00173137876237,40.546226048696134],[-112.00052038027525,40.544980047036454],[-111.99958337917816,40.545513048486626],[-111.99881937821137,40.545945049486797],[-111.99823737820644,40.546274048405273],[-111.99814737760555,40.546339048542656],[-111.99805337864248,40.546422048182166],[-111.99798237778906,40.546554048263054],[-111.99796137731873,40.546644049492798],[-111.99795437779561,40.546754048756668],[-111.99789437692046,40.546704049035839],[-111.99778237790068,40.54664604874344],[-111.99772737797696,40.546629048015191],[-111.9976823771658,40.546622048880025],[-111.99763337767564,40.546620048653566],[-111.99753837782094,40.546624049587912],[-111.99743937757084,40.546642048770465],[-111.99740537781051,40.546655048650152],[-111.99717637840502,40.546635049211766],[-111.99694337718292,40.546598049111843],[-111.99679337803407,40.546563048288093],[-111.99666637787504,40.546518048983486],[-111.99648237708955,40.546479048261567],[-111.99627637631285,40.546437048712598],[-111.99548137782618,40.546213049352588],[-111.99520037569384,40.546130049369623],[-111.99377737472571,40.545663048642602],[-111.99288237585073,40.545370049396645],[-111.99256937574107,40.545267048964327],[-111.99223237518071,40.545164049394323],[-111.99184937450194,40.545047048840622],[-111.99115837433358,40.544850050365348],[-111.99107537509359,40.544830049632054],[-111.99025537378984,40.54464104909642],[-111.99015837506319,40.544619050247888],[-111.9898413736553,40.544579050572253],[-111.98957937396354,40.544561050072183],[-111.98908837468326,40.544462049839389],[-111.98850637341536,40.544368049372601],[-111.98839737361071,40.544350048972767],[-111.98806737376026,40.544314049453902],[-111.98776037335119,40.544282049124348],[-111.98693437294446,40.544242049743588],[-111.98674337362981,40.544241049783182],[-111.98663737271519,40.544241049411475],[-111.98630137302055,40.544241050322356],[-111.98586737250619,40.544234049230241],[-111.98456837130755,40.544214050567419],[-111.98442737167154,40.544212050381155],[-111.98432337177513,40.544211049923142],[-111.98413537111887,40.544209050805591],[-111.98330137236684,40.544197050396178],[-111.98319437165539,40.544195050866513],[-111.98304537171398,40.544204050034978],[-111.98284637096306,40.544221051174702],[-111.98213037063051,40.544286051408854],[-111.98200537126257,40.544305051355074],[-111.98150937075792,40.544365050969269],[-111.98132737046583,40.544400050549122],[-111.98096236924953,40.544441051001634],[-111.98078037018249,40.544462051262364],[-111.98025037049425,40.544451050718564],[-111.97973837011838,40.544377050401557],[-111.97948937068108,40.544332050730496],[-111.97932137066311,40.544302051629572],[-111.97901436906434,40.544245052010389],[-111.9776943693408,40.544233051041161],[-111.97677236789522,40.544184052090507],[-111.97569336976703,40.544170051415186],[-111.97442936699876,40.544154050928483],[-111.973377366878,40.544150052006515],[-111.97269836713434,40.544151052455717],[-111.97026636697527,40.544129052881047],[-111.96794936515118,40.544116052162366],[-111.96681536455664,40.544136053420701],[-111.96639136505478,40.544143053252391],[-111.96632636494205,40.544152052722126],[-111.96630836491121,40.544155052964044],[-111.96625736523684,40.544161052751278],[-111.96610836406542,40.544181053362166],[-111.96611136520758,40.54428305343226],[-111.96612136377978,40.544594052324115],[-111.96614136301793,40.544669053275975],[-111.96617336425662,40.544788053344909],[-111.96638036521175,40.545142052590855],[-111.96646736448382,40.54529005274577],[-111.96651836557888,40.545416053775583],[-111.96653836569814,40.545543053488331],[-111.96654436559649,40.54597405359997],[-111.96656836476743,40.547698053322598],[-111.96657336589766,40.547962053895574],[-111.96658036516642,40.548296053946878],[-111.96660236688119,40.549959054714215],[-111.96661836582497,40.55010205338526],[-111.96665136582625,40.550327054889181],[-111.96670536499062,40.550565054426599],[-111.96676136752046,40.550776054145338],[-111.96682636621949,40.550965054076009],[-111.96686236607958,40.551053054652414],[-111.96703036669571,40.551404054358947],[-111.96705336616378,40.551446054350926],[-111.96708136729893,40.551506054758711],[-111.96729436724701,40.55142805455516],[-111.96871636630397,40.551431054267631],[-111.97261936959346,40.55143605338354],[-111.9744073691739,40.551447052550387],[-111.97603237020422,40.551448052383336],[-111.97672137057006,40.55144805313536],[-111.97691036972478,40.551449053319914],[-111.97912837095957,40.551456052375109],[-111.97926137133354,40.551575051993716],[-111.97937537168792,40.551680052363267],[-111.97918937196764,40.551873052238577],[-111.97886437055188,40.552215052835251],[-111.97807537028406,40.553312053256398],[-111.97750237260418,40.554544053997233],[-111.97723837121806,40.55556105382837],[-111.97716137253036,40.556661053480973],[-111.97716537203517,40.557734054611942],[-111.97719837207869,40.559921054647226],[-111.97720137367845,40.561004053821442]]]},"properties":{"OBJECTID":1,"STATEFP20":"49","COUNTYFP20":"035","District":5,"created_user":null,"created_date":null,"last_edited_user":null,"last_edited_date":null,"Shape.STArea()":60225116.489507943,"Shape.STLength()":37988.287539593242,"Acres":1382.58396214}},{"type":"Feature","id":2,"geometry":{"type":"Polygon","coordinates":[[[-112.05461240436063,40.560428042719941],[-112.05464840491479,40.560461043112184],[-112.05469140500284,40.560549043242624],[-112.05480040394113,40.560637042746933],[-112.05498740582884,40.560736042718759],[-112.05508040539628,40.560834042839822],[-112.05513840562634,40.560972042514024],[-112.05518840385638,40.561109043480585],[-112.05524640375438,40.561197042624443],[-112.05540440581817,40.561353042011824],[-112.05632740538594,40.561349042742926],[-112.05909940749586,40.561341042290941],[-112.06002340700415,40.561338041216779],[-112.06057440620009,40.561336041878405],[-112.06222840732491,40.561333041325483],[-112.0627804090054,40.561332042658123],[-112.06272740838236,40.561092041380263],[-112.06270740811279,40.561001042983449],[-112.06257940677396,40.560372042144962],[-112.06253140828979,40.560132041914528],[-112.06250240733212,40.55986204171117],[-112.06241940747563,40.5590530411394],[-112.06239840801804,40.558854041175657],[-112.06239240763631,40.558784041640543],[-112.0623850790943,40.558736409622398],[-112.06266884824197,40.558733247310521],[-112.0674187262327,40.558734077861878],[-112.07691848484772,40.558735160904739],[-112.08166836424532,40.558735414302433],[-112.08166841423709,40.55874944765408],[-112.0828816831299,40.559001272409475],[-112.08934331272167,40.552197236659779],[-112.09470837688872,40.549970555249658],[-112.08229230818881,40.531448455865622],[-112.08564139979609,40.529680146755659],[-112.08631338274674,40.529358630074881],[-112.08693669028499,40.529054695710776],[-112.08730023171417,40.528874159760434],[-112.08753892009496,40.528744876549503],[-112.08776461243801,40.528615256348019],[-112.08801077283439,40.528468489510857],[-112.08820627635878,40.528343824476401],[-112.08846945037577,40.528179938561991],[-112.08869004595115,40.528022496113273],[-112.08891920007663,40.527850608121447],[-112.08921503591432,40.527613990143543],[-112.08938918663708,40.527463484619659],[-112.08963584664623,40.52724359975106],[-112.08978595562606,40.527107729234217],[-112.08992897328649,40.526970774780246],[-112.09006446570582,40.526837146952559],[-112.09021064832852,40.526676666485464],[-112.09036814495829,40.526504445575881],[-112.09049684666753,40.526360275870779],[-112.09061224221468,40.526215708359516],[-112.0907210229276,40.52608145241647],[-112.09080278059015,40.525970580227465],[-112.09088101726181,40.525870457975394],[-112.0910001114778,40.525700309244996],[-112.09109821344441,40.525566611987152],[-112.09121404567092,40.525378883864946],[-112.09134218623834,40.525174756931364],[-112.09142996519651,40.525019992756398],[-112.09152142413711,40.524854125549872],[-112.09160593002289,40.524691102274211],[-112.09169714758151,40.524507020916303],[-112.09180507261637,40.524271780304552],[-112.09190607975296,40.524029990334249],[-112.09208569830923,40.523579888028905],[-112.09225853278683,40.523148359066667],[-112.09238677277729,40.522828030576846],[-112.09252573331497,40.522445314648493],[-112.09254739343805,40.522354743230053],[-112.09254766086543,40.521992409662936],[-112.09253161592494,40.521394149443402],[-112.09245409221019,40.521270308348377],[-112.09235856249745,40.521122406313452],[-112.09252299095651,40.520126796907775],[-112.09250609771244,40.519538950417711],[-112.08182835307029,40.522439542353666],[-112.06274734984196,40.522429018845386],[-112.06271999838496,40.526063573011641],[-112.0540130083768,40.526050950112868],[-112.05331599526815,40.526677429861458],[-112.0531533229442,40.526746382394023],[-112.05232819568643,40.527096128638362],[-112.0502925852286,40.527893258295066],[-112.04920895244467,40.528112895557022],[-112.04849478769852,40.528166753009501],[-112.04851855151958,40.53115674401171],[-112.04936102976799,40.531152842050453],[-112.04936331852733,40.531440395108064],[-112.05156145446081,40.53143018745893],[-112.05196832848466,40.531606908441184],[-112.05197374784704,40.532284397234768],[-112.0531405873886,40.532278956637491],[-112.05378520200743,40.531990964691808],[-112.05413527087988,40.531989329315799],[-112.05442922545451,40.532116995931332],[-112.05457164942436,40.532116328540468],[-112.05571253096812,40.531606597905004],[-112.05615357562918,40.53160452878064],[-112.05689901036391,40.532166340861465],[-112.05681500542771,40.532376426180676],[-112.05692655191663,40.53240341257348],[-112.05713371678145,40.532450591127905],[-112.05738852676956,40.532464109695702],[-112.05761319597785,40.532351772903809],[-112.05774094518436,40.532301232568884],[-112.05787310516496,40.532265291099968],[-112.05796256349932,40.53225820915781],[-112.05817610034502,40.5323239020667],[-112.05839600504095,40.532411764424225],[-112.05859780404758,40.532461969386326],[-112.05884218137496,40.53249521215691],[-112.05904359221233,40.53246582954462],[-112.0592362975965,40.532412339091799],[-112.05933092584203,40.532395615961164],[-112.05958818078577,40.532449038045947],[-112.05957531037055,40.534154809830461],[-112.05961154828032,40.534142007137838],[-112.05972966578526,40.534133248862609],[-112.05980510930311,40.534152586070128],[-112.05986794042921,40.534189856342643],[-112.0599111005951,40.534240874203704],[-112.05992974108459,40.534299907237575],[-112.05990796445259,40.534388915437418],[-112.05988807511839,40.534415337035277],[-112.05981616063092,40.534473278760437],[-112.0597900390464,40.534813254687052],[-112.06444433883637,40.534792325154477],[-112.06580815234102,40.534785745269311],[-112.06580062597041,40.535736840061375],[-112.06579188312124,40.53683893034988],[-112.06579152327254,40.536884223944739],[-112.06578984582762,40.536979170948342],[-112.06579102008963,40.537005765645993],[-112.06469440278289,40.537013036951144],[-112.06379340206645,40.537012036619799],[-112.06317140244496,40.537011036687872],[-112.06269240086559,40.537011036673483],[-112.06130840095457,40.537006036780383],[-112.06068840117237,40.537004036973542],[-112.05980640073143,40.537000036882901],[-112.05911240087624,40.536998037156593],[-112.05713939923699,40.536995036450648],[-112.05560839843817,40.536993038100022],[-112.05526539893879,40.536993038538554],[-112.05078139623825,40.536979038530646],[-112.04951139550793,40.53698603845465],[-112.04649639488784,40.536974038599574],[-112.04607239489772,40.536973039740673],[-112.04397839378848,40.536975039779129],[-112.0436513946056,40.536976039703148],[-112.04362139250567,40.5369760392392],[-112.04294839362311,40.536977038988077],[-112.04168239275702,40.536978039499914],[-112.04095939358166,40.536979040007225],[-112.03944439340242,40.536983040056668],[-112.03711539075401,40.536990040400994],[-112.03499439038428,40.53698504041067],[-112.03486939016869,40.536985040714292],[-112.03308738959213,40.536997040658974],[-112.03300639047421,40.536998040253962],[-112.03277638926588,40.5370010408813],[-112.03159638960753,40.537010042138498],[-112.03122038849104,40.536994041189757],[-112.03065238810247,40.536971040836498],[-112.02909438800606,40.536968041249864],[-112.02837138751427,40.536968041041462],[-112.02615538654148,40.536968042693736],[-112.02586138770498,40.536967041931419],[-112.02456438691857,40.536965042749841],[-112.0244853867415,40.536965042283569],[-112.02435238475938,40.536965041955902],[-112.02407538662442,40.536965042265471],[-112.02316238503376,40.536964042686407],[-112.02273338476985,40.536963042072308],[-112.02163538561112,40.536963042657582],[-112.02145838514144,40.53696204334971],[-112.01926738383393,40.536960042979025],[-112.01689938311775,40.536958042834392],[-112.01628938227302,40.536958042597703],[-112.01455438159959,40.536961043401533],[-112.01247638035112,40.536956044374691],[-112.01230138202628,40.536941043772515],[-112.01183938058608,40.536956043542467],[-112.0115873810545,40.536956043889042],[-112.01088638008061,40.536955044638418],[-112.01001538147256,40.536954044206858],[-112.00915637964944,40.536954045178092],[-112.00711337854453,40.536953045288243],[-112.00592337738706,40.536953045390192],[-112.00582137857172,40.536953045140109],[-112.00551537859781,40.536953045673762],[-112.00541337860872,40.536953045974343],[-112.00444137791398,40.536956045420368],[-112.00198037672598,40.536966045147338],[-112.00152637719816,40.536967046228717],[-112.00055537667222,40.536972046273448],[-112.00013837530491,40.536973046105828],[-112.00000037716617,40.536974046306732],[-111.99888737637497,40.536978045861154],[-111.99847137640566,40.536981045582955],[-111.99640037396392,40.53698804719518],[-111.99528537559002,40.536991047489515],[-111.99416437387666,40.536995046811022],[-111.99314437290917,40.536995047029613],[-111.99302237356872,40.536995047727942],[-111.99265637434746,40.536995046364424],[-111.99253537375941,40.536996047398766],[-111.99238437337864,40.536996046793277],[-111.99236137331937,40.536995046492841],[-111.9918393744361,40.536992048519643],[-111.99166637275606,40.536992047432015],[-111.98831437064582,40.536949048403827],[-111.98628137067649,40.536924047913196],[-111.98440836978939,40.536919048139573],[-111.98431836863953,40.536919048050237],[-111.9840963704505,40.536919048175697],[-111.98260336858107,40.536979048080426],[-111.98254636871762,40.536979048561378],[-111.98231836808131,40.536978047875451],[-111.98163736798476,40.536975048836254],[-111.98157436821018,40.536975050079221],[-111.98141036834386,40.536975050013027],[-111.98132436866027,40.536975050105305],[-111.98106936897641,40.53697504940309],[-111.98098436790565,40.536975049651026],[-111.98063536916212,40.536972049270162],[-111.97979836779754,40.536968048979602],[-111.97959136872619,40.536968049431358],[-111.9792433685444,40.536968049635249],[-111.97874736768362,40.536966049730857],[-111.97827336696417,40.536964048935481],[-111.97726036742056,40.536961049192776],[-111.97676536642659,40.536960049976955],[-111.97602936595528,40.53693104977387],[-111.97474136484921,40.536881049515493],[-111.97382236710008,40.536878050033529],[-111.97358036632821,40.536878049849477],[-111.97308736479181,40.53687505027326],[-111.97303536634736,40.536875050262935],[-111.97288336544696,40.536875050191732],[-111.97283236546417,40.536876051102603],[-111.97281136518471,40.536876051145804],[-111.97275036509765,40.536876050389296],[-111.97273036579023,40.536876050884331],[-111.97269336417133,40.53687605058721],[-111.97258636555739,40.536876050586876],[-111.97255036593707,40.536877051244112],[-111.97251736464625,40.536877050076463],[-111.97216236570668,40.5368750509964],[-111.97107236553254,40.536872051223391],[-111.97099836484875,40.536871050825887],[-111.97061136415003,40.536871050606294],[-111.97049536411156,40.536870050974528],[-111.97035336348715,40.536870050716118],[-111.97014936438356,40.536869050744002],[-111.9700343639562,40.536869051685954],[-111.96997436386489,40.536868050343394],[-111.96979636380094,40.536868051430645],[-111.9697373644909,40.536868050994919],[-111.96941536443562,40.536867050595603],[-111.96845036416133,40.53686405090275],[-111.96812936374144,40.53686405161779],[-111.96791136413407,40.536863050522463],[-111.96725836352938,40.536862050902663],[-111.96704136232388,40.536862050149324],[-111.96699736221524,40.536862050718931],[-111.96664836329116,40.536861051202614],[-111.96547136154946,40.536861051849797],[-111.9650793620859,40.536861050514261],[-111.96474636338098,40.536860051204613],[-111.96374736204989,40.536859050493135],[-111.96341436193065,40.536859051543352],[-111.96298736111966,40.536857051711642],[-111.96170636094577,40.536852052417785],[-111.9612793611204,40.536851051399651],[-111.95909436015289,40.53684905289996],[-111.95770935960674,40.536865051953157],[-111.95776636034327,40.539206053235866],[-111.9577373596603,40.540315053396519],[-111.95773536004472,40.540381053197351],[-111.95773435915801,40.540409053134837],[-111.9577333616466,40.540428053659696],[-111.95773235991395,40.540474053298652],[-111.95773435952739,40.54051205406104],[-111.95773635990631,40.540570053783853],[-111.95773836049391,40.540618053572445],[-111.95776336043035,40.541188052893212],[-111.95776136000883,40.541335052644051],[-111.95775236021063,40.542596053880757],[-111.95775736003672,40.543134054370753],[-111.95776136163235,40.543488054343626],[-111.95777035993059,40.544206055579224],[-111.95839636105356,40.544204054684045],[-111.96027736217818,40.54420005366066],[-111.96090536240612,40.5442000541995],[-111.96122636243446,40.544198053425021],[-111.96219136399026,40.544194053412376],[-111.96251336239432,40.544193053816088],[-111.96290636308527,40.544191053476439],[-111.96401236363303,40.544188054103437],[-111.96408636323105,40.544187053375182],[-111.9644803634985,40.544186053341079],[-111.96485736345436,40.544184053112204],[-111.96598936473558,40.544181052676031],[-111.96610836406542,40.544181053362166],[-111.96625736523684,40.544161052751278],[-111.96630836491121,40.544155052964044],[-111.96632636494205,40.544152052722126],[-111.96639136505478,40.544143053252391],[-111.96681536455664,40.544136053420701],[-111.96794936515118,40.544116052162366],[-111.97026636697527,40.544129052881047],[-111.97269836713434,40.544151052455717],[-111.973377366878,40.544150052006515],[-111.97442936699876,40.544154050928483],[-111.97569336976703,40.544170051415186],[-111.97677236789522,40.544184052090507],[-111.9776943693408,40.544233051041161],[-111.97901436906434,40.544245052010389],[-111.97932137066311,40.544302051629572],[-111.97948937068108,40.544332050730496],[-111.97973837011838,40.544377050401557],[-111.98025037049425,40.544451050718564],[-111.98078037018249,40.544462051262364],[-111.98096236924953,40.544441051001634],[-111.98132737046583,40.544400050549122],[-111.98150937075792,40.544365050969269],[-111.98200537126257,40.544305051355074],[-111.98213037063051,40.544286051408854],[-111.98284637096306,40.544221051174702],[-111.98304537171398,40.544204050034978],[-111.98319437165539,40.544195050866513],[-111.98330137236684,40.544197050396178],[-111.98413537111887,40.544209050805591],[-111.98432337177513,40.544211049923142],[-111.98442737167154,40.544212050381155],[-111.98456837130755,40.544214050567419],[-111.98586737250619,40.544234049230241],[-111.98630137302055,40.544241050322356],[-111.98663737271519,40.544241049411475],[-111.98674337362981,40.544241049783182],[-111.98693437294446,40.544242049743588],[-111.98776037335119,40.544282049124348],[-111.98806737376026,40.544314049453902],[-111.98839737361071,40.544350048972767],[-111.98850637341536,40.544368049372601],[-111.98908837468326,40.544462049839389],[-111.98957937396354,40.544561050072183],[-111.9898413736553,40.544579050572253],[-111.99015837506319,40.544619050247888],[-111.99025537378984,40.54464104909642],[-111.99107537509359,40.544830049632054],[-111.99115837433358,40.544850050365348],[-111.99184937450194,40.545047048840622],[-111.99223237518071,40.545164049394323],[-111.99256937574107,40.545267048964327],[-111.99288237585073,40.545370049396645],[-111.99377737472571,40.545663048642602],[-111.99520037569384,40.546130049369623],[-111.99548137782618,40.546213049352588],[-111.99627637631285,40.546437048712598],[-111.99648237708955,40.546479048261567],[-111.99666637787504,40.546518048983486],[-111.99679337803407,40.546563048288093],[-111.99694337718292,40.546598049111843],[-111.99717637840502,40.546635049211766],[-111.99740537781051,40.546655048650152],[-111.99743937757084,40.546642048770465],[-111.99753837782094,40.546624049587912],[-111.99763337767564,40.546620048653566],[-111.9976823771658,40.546622048880025],[-111.99772737797696,40.546629048015191],[-111.99778237790068,40.54664604874344],[-111.99789437692046,40.546704049035839],[-111.99795437779561,40.546754048756668],[-111.99796137731873,40.546644049492798],[-111.99798237778906,40.546554048263054],[-111.99805337864248,40.546422048182166],[-111.99814737760555,40.546339048542656],[-111.99823737820644,40.546274048405273],[-111.99881937821137,40.545945049486797],[-111.99958337917816,40.545513048486626],[-112.00052038027525,40.544980047036454],[-112.00173137876237,40.546226048696134],[-112.00287538086248,40.547338048851849],[-112.00316038048506,40.547615047480633],[-112.00378838056601,40.548275048070948],[-112.00417538118255,40.548682048023707],[-112.00474238129404,40.54927804903221],[-112.00534038065683,40.549894047643704],[-112.0056653820011,40.550230048518493],[-112.00675138294434,40.551317048354072],[-112.00764138266639,40.552224048671597],[-112.00852838394093,40.553116048842227],[-112.00861438353721,40.553226048646941],[-112.00908438480594,40.553704048174623],[-112.00936938531113,40.554005047597741],[-112.00999138420858,40.554663049638741],[-112.01039438403912,40.55508904902284],[-112.01061338599996,40.555313048504757],[-112.01121038437094,40.555927049196377],[-112.01190738666638,40.556641047848075],[-112.01285238706252,40.55761904891822],[-112.0131753874723,40.557957048896974],[-112.01350838859651,40.558271049080439],[-112.01406438710892,40.558864049152135],[-112.0147073884623,40.559555048884853],[-112.01652438874937,40.558530048036971],[-112.01860538904042,40.557357046953676],[-112.02144039037498,40.555723046587431],[-112.02390239189957,40.554360046524991],[-112.02415838954128,40.554239045786474],[-112.0242723902349,40.554139045785085],[-112.02493839006075,40.553734045874243],[-112.02658239039496,40.552789045922204],[-112.02877439249046,40.551684044545503],[-112.02937739184034,40.551425045804315],[-112.0298463931701,40.551188045229338],[-112.03005439295222,40.551213043411842],[-112.03019939280288,40.551427044256215],[-112.03068939412394,40.552224045126103],[-112.03137239248615,40.553683044605997],[-112.03183539368487,40.555135044807628],[-112.03208239463008,40.556605046147844],[-112.03230039554403,40.559307045899352],[-112.03238139695206,40.561240046180167],[-112.03260839514355,40.561122046231148],[-112.03279439604616,40.561074047667724],[-112.03283939510814,40.561062045795211],[-112.03306939628537,40.561040047074847],[-112.03337239651796,40.561078046728028],[-112.0335443970208,40.561062045660016],[-112.03366739646418,40.561024045831331],[-112.03391139680187,40.560857046248117],[-112.03399139608055,40.560804046555191],[-112.03435139713382,40.560623047103952],[-112.034574396523,40.560535045010923],[-112.0346683963262,40.560486046188132],[-112.03499239719922,40.560442045596368],[-112.03524439721592,40.5604910465484],[-112.03571939701905,40.560442045475625],[-112.03607239641026,40.560244045636182],[-112.03620239780588,40.560211045290323],[-112.0366913975739,40.560184045565769],[-112.03682139738916,40.560151046339449],[-112.037131397357,40.560085045398345],[-112.0372783981482,40.560033045063115],[-112.03736839806253,40.560003046350161],[-112.03763539601547,40.559860045318906],[-112.0378223981608,40.559794044389378],[-112.03797339861678,40.559707045867164],[-112.03830239797217,40.559461044557885],[-112.03834839865966,40.559427044983892],[-112.03896739736163,40.559141045157226],[-112.03908239858887,40.559081045746659],[-112.03912539850425,40.559004044908328],[-112.03916939800418,40.558938044401145],[-112.03926939908976,40.558823044906497],[-112.03941339825988,40.5587460441647],[-112.03960839774649,40.558680044977159],[-112.03974539767462,40.5586970449449],[-112.03990339770705,40.558724044346803],[-112.04023439836631,40.558796045118882],[-112.04085339810891,40.558845043998645],[-112.04122839930203,40.558900044331715],[-112.04138639860051,40.558911044943422],[-112.04155939933982,40.558905045379589],[-112.04173239902893,40.558873045251133],[-112.04174440031333,40.558866044626896],[-112.04185439893764,40.558807044505784],[-112.04196239902807,40.558790045227404],[-112.04208539811067,40.558785044137295],[-112.04229339918889,40.558823044679727],[-112.04245939977875,40.558878044650108],[-112.04266839997567,40.558955043531661],[-112.04285540001516,40.558972045338855],[-112.04297739990284,40.558961043849322],[-112.0431793990163,40.558878044097781],[-112.04338140018096,40.55881804360682],[-112.04356839893354,40.558791044298978],[-112.04374139914775,40.558681043841567],[-112.0438273993386,40.558653044433392],[-112.04397139896163,40.558653044796799],[-112.04438139896648,40.558719045166278],[-112.04464839917686,40.558813044188604],[-112.04504439935272,40.558917044620266],[-112.04528139890259,40.558933044686604],[-112.04549740039757,40.558955043376223],[-112.04570640086345,40.559005043209936],[-112.04589340150117,40.559104044160748],[-112.04614540154114,40.559192043369606],[-112.04633240138946,40.559225044545741],[-112.04662040071462,40.559197043875649],[-112.04676540171091,40.55922504473407],[-112.04705239996589,40.559368043154777],[-112.04719640130098,40.559406043555917],[-112.0475714014042,40.559461043449744],[-112.04785940078727,40.559571043788061],[-112.04829840206193,40.55972504355649],[-112.04859340166716,40.559785044014355],[-112.0488314015488,40.559791044032686],[-112.04906140181494,40.559856043052093],[-112.04927740171674,40.559966043767965],[-112.04956540221882,40.560049043567638],[-112.04978840218136,40.560153043369858],[-112.05001240332902,40.560296044376933],[-112.05047240391907,40.560433044656591],[-112.05066740287972,40.56050504372984],[-112.05083940318143,40.56054904376213],[-112.05109940306762,40.560587042922563],[-112.05135140471572,40.56059804404331],[-112.05146640287603,40.560587044139986],[-112.05158140389912,40.560527043275087],[-112.05160340308866,40.56045004295585],[-112.0515964026997,40.560335043552442],[-112.05168940477697,40.560236043350621],[-112.05184040416219,40.560175044346025],[-112.0520784034367,40.560208043138275],[-112.05219640441886,40.560206043070579],[-112.05248840433995,40.560203043181531],[-112.05273340438686,40.560247043234078],[-112.05296440347979,40.560324043490951],[-112.05317940431119,40.560379042215494],[-112.05332340294891,40.56037904282482],[-112.05364040440422,40.560362042541577],[-112.05388540350442,40.560357043852015],[-112.05406540436745,40.56038404366732],[-112.05426740413121,40.560450043733972],[-112.05443940362477,40.560456042605246],[-112.05454840523926,40.560417043225584],[-112.05461240436063,40.560428042719941]]]},"properties":{"OBJECTID":2,"STATEFP20":"49","COUNTYFP20":"035","District":4,"created_user":null,"created_date":null,"last_edited_user":null,"last_edited_date":null,"Shape.STArea()":262545934.41598722,"Shape.STLength()":116798.53044883742,"Acres":6027.2494169600004}},{"type":"Feature","id":3,"geometry":{"type":"Polygon","coordinates":[[[-111.95292736915914,40.58097906434719],[-111.95307236828377,40.580979062779392],[-111.95405036939867,40.580980062609221],[-111.95478336979691,40.580980062735549],[-111.95683437094897,40.580955062396043],[-111.95777537142693,40.580943062257155],[-111.95777436985867,40.580804062655858],[-111.95777237171596,40.58051906338833],[-111.957927371008,40.58051806220341],[-111.96732737428128,40.580503060628104],[-111.96879637477346,40.580501061032699],[-111.96887237539457,40.580501060784066],[-111.96896537620512,40.580501060969517],[-111.969051375414,40.58050006154113],[-111.96928737459204,40.580501061098445],[-111.97207637634351,40.580515060411187],[-111.97207637628986,40.58050106125576],[-111.97207737700771,40.580334059768667],[-111.97208037582269,40.580155059314031],[-111.97208037697081,40.580105061288236],[-111.97208237664832,40.579954060453744],[-111.97208337685694,40.579905060723384],[-111.97208337687894,40.579639060477632],[-111.97208537641093,40.578842060147977],[-111.97208637665506,40.578577058984727],[-111.97208537561056,40.578351059991121],[-111.97208437563374,40.577673060229635],[-111.97208437615801,40.577447058924747],[-111.9720883759465,40.577242059627714],[-111.97210237539764,40.576630058747561],[-111.97210837447942,40.576426059961356],[-111.97210337647374,40.575798059467424],[-111.9720943734382,40.574380058757633],[-111.97209337473376,40.573917058324852],[-111.97209337496159,40.573290058320246],[-111.97149937523702,40.573288058169602],[-111.96971937310752,40.573284058832321],[-111.96912637252589,40.573283059395692],[-111.96876237386523,40.57328105916887],[-111.967670373337,40.573275058934328],[-111.96730637338086,40.573274059218825],[-111.96730737295822,40.572990059384878],[-111.96731037092967,40.572141058556362],[-111.96731237172848,40.571858059629697],[-111.96730937214392,40.571414059599228],[-111.96730337161772,40.57008405894382],[-111.96730137102367,40.569641058744985],[-111.96729337144501,40.569177057879955],[-111.96727537172477,40.568115058586542],[-111.96727537011313,40.567785058794684],[-111.9672773706785,40.567322057895218],[-111.96728137077912,40.567059058233738],[-111.9672823707114,40.567015058223333],[-111.96727837114352,40.566270057606985],[-111.96727736987245,40.566008058473251],[-111.96728337129746,40.565273058080138],[-111.96729037041443,40.564528058156057],[-111.96729537023998,40.563370057145576],[-111.96729336984362,40.563194056432238],[-111.967293369412,40.563070056141761],[-111.96728937093755,40.562336057436845],[-111.96772336937215,40.562334056333874],[-111.96922637025024,40.562309056079286],[-111.97000737039366,40.562269056087167],[-111.97024837027197,40.56226205713606],[-111.97091337211745,40.562215055894498],[-111.97208537197766,40.562098056430386],[-111.97291237186059,40.562027056231344],[-111.97385237222404,40.56197405613235],[-111.97452237198404,40.561946055723404],[-111.97619237363884,40.56192705535819],[-111.97701237311139,40.561923055683963],[-111.9772033742622,40.561926054724005],[-111.97720137367845,40.561004053821442],[-111.97719837207869,40.559921054647226],[-111.97716537203517,40.557734054611942],[-111.97716137253036,40.556661053480973],[-111.97723837121806,40.55556105382837],[-111.97750237260418,40.554544053997233],[-111.97807537028406,40.553312053256398],[-111.97886437055188,40.552215052835251],[-111.97918937196764,40.551873052238577],[-111.97937537168792,40.551680052363267],[-111.97926137133354,40.551575051993716],[-111.97912837095957,40.551456052375109],[-111.97691036972478,40.551449053319914],[-111.97672137057006,40.55144805313536],[-111.97603237020422,40.551448052383336],[-111.9744073691739,40.551447052550387],[-111.97261936959346,40.55143605338354],[-111.96871636630397,40.551431054267631],[-111.96729436724701,40.55142805455516],[-111.96708136729893,40.551506054758711],[-111.96721836682849,40.551800054671908],[-111.96733636735871,40.552326054852905],[-111.96731736643243,40.55235905439325],[-111.9673273675394,40.553293055045508],[-111.96732236708914,40.553380054366002],[-111.96734236835252,40.55503305534446],[-111.96735936811129,40.555134055376016],[-111.96735736827944,40.555532055691422],[-111.96735436724933,40.555960055965237],[-111.96646136739884,40.555958055897172],[-111.96640836839165,40.556011055136842],[-111.96536936702309,40.555997056359068],[-111.96329636547858,40.555971054815643],[-111.96225136662146,40.555979056518574],[-111.96121236443813,40.555987056843477],[-111.96111636520502,40.555990055911451],[-111.96061136486338,40.555998057238533],[-111.95923336540666,40.555992056060383],[-111.95848136445285,40.555994056567478],[-111.95774736470575,40.555996056734031],[-111.95774736384719,40.555765056443718],[-111.95774736381223,40.554936057486003],[-111.95774836412521,40.554661056073641],[-111.95774836405019,40.55459505634343],[-111.9577483649884,40.554479056318115],[-111.95774836394359,40.553949056435478],[-111.95774836365901,40.553934056616583],[-111.95775436317413,40.553753056435362],[-111.9575943637907,40.553771056415478],[-111.95714136281777,40.553772055982265],[-111.9570673633776,40.553773056784785],[-111.95681636361664,40.553777056249757],[-111.95520436244644,40.553774057187859],[-111.95510136290135,40.55378705678504],[-111.95501736224368,40.553827056271828],[-111.95496036228099,40.553876056560888],[-111.95489436116188,40.553992056881988],[-111.95488236281155,40.554140056409615],[-111.95485636244825,40.554212057500131],[-111.95482036200691,40.554283056315541],[-111.954754362137,40.554355056714861],[-111.95469236182632,40.554400057930174],[-111.95457236218013,40.554437056392999],[-111.95449236179803,40.554449056719555],[-111.95446136183519,40.554454057026717],[-111.9541413618265,40.554459057508268],[-111.95387636169114,40.554459057748126],[-111.95367136264292,40.554460057248043],[-111.95338736165711,40.554460057845738],[-111.95253536225371,40.554460057299423],[-111.9522513612859,40.5544600578475],[-111.95224836164742,40.554324057065941],[-111.95224236084363,40.553918057679454],[-111.95224236149834,40.553901057705971],[-111.9522153609373,40.553856057920804],[-111.95216736156911,40.553812057677995],[-111.95209836144259,40.553794056652947],[-111.9520533621461,40.553789056385945],[-111.95076336141402,40.553807057020443],[-111.94941336049236,40.553789057197321],[-111.94931735948046,40.553808057773892],[-111.94927336044006,40.553829057328144],[-111.94924035986395,40.553868056653286],[-111.94922335944574,40.553922058428263],[-111.94914635967486,40.554272058103045],[-111.94910536076051,40.554436057616449],[-111.94905836070409,40.554479057670299],[-111.94900836023062,40.554506058049341],[-111.94896335975055,40.55452405793001],[-111.94890535999066,40.554537058089075],[-111.94880336002966,40.554544057757333],[-111.94838336026878,40.554545058363914],[-111.9483513599821,40.554545059141354],[-111.94821436057711,40.554566057204525],[-111.94821436082211,40.554352056868922],[-111.94821435987748,40.553711058089476],[-111.94821436078644,40.553498057306811],[-111.94821435986889,40.552873056857521],[-111.94371335743823,40.552862058153849],[-111.94185535739575,40.552858059157117],[-111.94186135792384,40.553007057558681],[-111.94142135589523,40.553013059041461],[-111.94032735663333,40.553011059122746],[-111.93978835562626,40.553019058905299],[-111.93874635488028,40.553023059503182],[-111.93867535563521,40.554319058512647],[-111.93866835583681,40.554450059188021],[-111.93868235594752,40.554727059139914],[-111.9371423543739,40.554742059740846],[-111.93712635606479,40.555738060379575],[-111.93711435642433,40.555841060271703],[-111.93708435546522,40.555918060434934],[-111.93683635510435,40.555912059189644],[-111.93623335542064,40.555916059977704],[-111.93548535404366,40.555897059997434],[-111.93495935475228,40.555901060944969],[-111.93475335367239,40.555882061071877],[-111.9345853547802,40.555847061083298],[-111.93441735398535,40.555805059878828],[-111.93408935445072,40.55568706056426],[-111.93382235367552,40.555592061127008],[-111.93368535429815,40.555557060437209],[-111.93359335317598,40.555538061037709],[-111.93343235508128,40.555519060846187],[-111.93334935465823,40.555508061016575],[-111.93273935402654,40.555519060798858],[-111.93236135411466,40.555522059886528],[-111.92981435234397,40.555497061036057],[-111.92959435118728,40.555491061629738],[-111.92952735276634,40.555475060883417],[-111.92942835326852,40.555473061279024],[-111.92914935144456,40.555480061482193],[-111.92914735215858,40.555592061083061],[-111.92914135230123,40.555929062190017],[-111.92914035343995,40.556042061337394],[-111.92913735293979,40.556203061526737],[-111.92913035150634,40.556686061918391],[-111.92912835377834,40.556848061624351],[-111.92912635241035,40.556909061384495],[-111.92912235316071,40.557095062100693],[-111.92912235233578,40.557157062264274],[-111.92912435264803,40.557249061861697],[-111.92913035362274,40.557525061534221],[-111.92913335208051,40.55761806249383],[-111.92914135375487,40.557886061409931],[-111.92913535317585,40.558005062111654],[-111.92913635363982,40.558125062028857],[-111.92913835321782,40.55850806127625],[-111.9291423535698,40.559167062890367],[-111.92914535290271,40.559555061845337],[-111.92914335503629,40.559732062931722],[-111.92914135357886,40.560266062086555],[-111.92914135396067,40.560444061738615],[-111.92913935414519,40.560729061736417],[-111.92913935407282,40.560799062398587],[-111.92913435440325,40.561867061990789],[-111.92913335380378,40.562223062919941],[-111.92913335414927,40.562520063479752],[-111.92913635569835,40.563411062976428],[-111.92913735544526,40.563709063864941],[-111.92913735469425,40.563820063370343],[-111.92913835577423,40.564155063734312],[-111.92913935441561,40.564267062787714],[-111.92913935532786,40.564425063411242],[-111.92914035468,40.564902062242417],[-111.92914135500273,40.565061063293946],[-111.92914235575672,40.565331061968998],[-111.92914835479559,40.566143063209047],[-111.92915035503256,40.566414064036408],[-111.92915235520292,40.566999063832199],[-111.92915535583383,40.567798063326407],[-111.92915935616915,40.568757064809361],[-111.92916235595659,40.56934306452635],[-111.92916135683025,40.570462064289117],[-111.92916135703429,40.571728064254174],[-111.92916135722457,40.572503065261202],[-111.92915735620763,40.572653065048186],[-111.92915635643037,40.572877066155101],[-111.92915435677826,40.574005066367526],[-111.92915435866139,40.574382064698767],[-111.92915635721501,40.57452906608259],[-111.92916335794669,40.574973065358762],[-111.92916635726259,40.57512106536592],[-111.92916935777839,40.575458066051034],[-111.9291743573113,40.575946065559322],[-111.92918035902373,40.576472065673649],[-111.92918435806239,40.576810065742926],[-111.92918135810548,40.576944065935194],[-111.92917535811993,40.577346066299526],[-111.92917335770679,40.577481066024859],[-111.92917235796247,40.577568065165359],[-111.9291723583088,40.577831066137428],[-111.92917235815511,40.577919065728132],[-111.9291713588659,40.578187066602197],[-111.92917035818232,40.578994066897586],[-111.92917035847478,40.579263066317033],[-111.9291703584893,40.579324066315458],[-111.92917135971351,40.579509065473303],[-111.92917235817472,40.579571066832308],[-111.92917235824183,40.579687066414948],[-111.92917435928574,40.580035065915602],[-111.92917535860664,40.5801510672243],[-111.92917535939586,40.580214066429711],[-111.92917635984782,40.580403067589415],[-111.92917735870046,40.580466066739312],[-111.92961635908701,40.58047006671368],[-111.93374236155127,40.580461066279916],[-111.93533336166828,40.580469065856768],[-111.93640636228615,40.580469065888195],[-111.93663736254236,40.580469065454118],[-111.93672036311139,40.580468065768059],[-111.93724836337158,40.580468065782981],[-111.9376823629261,40.580464064489497],[-111.93872036210361,40.58046706472053],[-111.9401253629368,40.580470064490193],[-111.94118336399082,40.580469064878251],[-111.94182136337423,40.580470065160611],[-111.94358036480784,40.580470064268894],[-111.94410436482873,40.580474065028916],[-111.94428836517918,40.580470064179138],[-111.9458803660259,40.58047106370406],[-111.94640536529734,40.580471063629531],[-111.94819536691412,40.580472063403043],[-111.94969936702499,40.580476064257482],[-111.9497103676585,40.58051306284203],[-111.94976036731167,40.580634064333516],[-111.9497803672657,40.580702063353364],[-111.94980336718994,40.580780063242223],[-111.9498623673952,40.580976063551972],[-111.95070836743363,40.580980063980213],[-111.95082336795122,40.580977062718347],[-111.95292736915914,40.58097906434719]]]},"properties":{"OBJECTID":3,"STATEFP20":"49","COUNTYFP20":"035","District":2,"created_user":null,"created_date":null,"last_edited_user":null,"last_edited_date":null,"Shape.STArea()":114829011.6192715,"Shape.STLength()":54723.175958055828,"Acres":2636.12192233}},{"type":"Feature","id":4,"geometry":{"type":"Polygon","coordinates":[[[-111.97209337473376,40.573917058324852],[-111.9720943734382,40.574380058757633],[-111.97210337647374,40.575798059467424],[-111.97210837447942,40.576426059961356],[-111.97210237539764,40.576630058747561],[-111.9720883759465,40.577242059627714],[-111.97208437615801,40.577447058924747],[-111.97208437563374,40.577673060229635],[-111.97208537561056,40.578351059991121],[-111.97208637665506,40.578577058984727],[-111.97208537641093,40.578842060147977],[-111.97208337687894,40.579639060477632],[-111.97208337685694,40.579905060723384],[-111.97208237664832,40.579954060453744],[-111.97208037697081,40.580105061288236],[-111.97208037582269,40.580155059314031],[-111.97207737700771,40.580334059768667],[-111.97207637628986,40.58050106125576],[-111.97207637634351,40.580515060411187],[-111.97703737896416,40.58054006015373],[-111.97712237871053,40.580541059910431],[-111.97725237886034,40.580542059354215],[-111.97928937822434,40.580569059180561],[-111.97996437941065,40.580579058536962],[-111.98207838063828,40.580579059091562],[-111.98571638242879,40.580597059040272],[-111.98646438193686,40.580600058212447],[-111.99079338473373,40.580608056641417],[-111.99240238441014,40.58063405744965],[-111.99731538737765,40.580642056053904],[-112.00400539000101,40.580636056307448],[-112.00410938884944,40.580636055227025],[-112.00493038991905,40.580631054643476],[-112.0055953897056,40.58060805488261],[-112.00588239013125,40.580599055684679],[-112.0070713900694,40.580008054782304],[-112.01171539202751,40.577699053057735],[-112.01326439150294,40.576930053356257],[-112.01330439191666,40.576910052491442],[-112.0134253928225,40.576854052932184],[-112.01346639323373,40.576836053182312],[-112.01350839266669,40.576815052880093],[-112.01363639201898,40.576753053548344],[-112.01367939216736,40.576733052926897],[-112.01369339088725,40.573324052682132],[-112.01458039173929,40.573325053069659],[-112.01468139035144,40.573325053028206],[-112.01477839166724,40.573326052955323],[-112.01480839103355,40.569541050932635],[-112.01483239106645,40.568204051161693],[-112.01485138982135,40.565983049942133],[-112.01534139069592,40.565984049921994],[-112.01776139049791,40.565992050492802],[-112.02403739430881,40.565977048656393],[-112.02619739408325,40.565978048562137],[-112.02620539443473,40.567333049341627],[-112.02706739498618,40.56733404910576],[-112.02706639557259,40.565979048367339],[-112.0293943968499,40.565983048190532],[-112.03196239697044,40.565987048219419],[-112.03326339821622,40.565990047640256],[-112.03385539738629,40.565986047771283],[-112.03535939813112,40.565987047899533],[-112.03561739839155,40.565986047361463],[-112.03670539923891,40.566040047186171],[-112.03743339918661,40.566039046917879],[-112.03961940002512,40.566038045973158],[-112.04034839993,40.566038046053244],[-112.04497940285775,40.566028045388187],[-112.05431640641747,40.56601004447338],[-112.05887340751245,40.566002043199909],[-112.06328840947701,40.565994042616275],[-112.06332140957471,40.565702042648915],[-112.0632844098738,40.565121041788068],[-112.06328541032113,40.565093042837574],[-112.06327940891778,40.564827042158299],[-112.06326640970867,40.564562043169524],[-112.06325840892855,40.564466042335098],[-112.06323340893647,40.564175042104679],[-112.06322240811618,40.564032043308096],[-112.06319240958322,40.563769042273442],[-112.06307640936288,40.563003042760684],[-112.06299940883498,40.562517042408473],[-112.06289840891856,40.561870042657048],[-112.06287440895854,40.56176204186054],[-112.06280340850947,40.561439041455834],[-112.0627804090054,40.561332042658123],[-112.06222840732491,40.561333041325483],[-112.06057440620009,40.561336041878405],[-112.06002340700415,40.561338041216779],[-112.05909940749586,40.561341042290941],[-112.05632740538594,40.561349042742926],[-112.05540440581817,40.561353042011824],[-112.05524640375438,40.561197042624443],[-112.05518840385638,40.561109043480585],[-112.05513840562634,40.560972042514024],[-112.05508040539628,40.560834042839822],[-112.05498740582884,40.560736042718759],[-112.05480040394113,40.560637042746933],[-112.05469140500284,40.560549043242624],[-112.05464840491479,40.560461043112184],[-112.05461240436063,40.560428042719941],[-112.05454840523926,40.560417043225584],[-112.05443940362477,40.560456042605246],[-112.05426740413121,40.560450043733972],[-112.05406540436745,40.56038404366732],[-112.05388540350442,40.560357043852015],[-112.05364040440422,40.560362042541577],[-112.05332340294891,40.56037904282482],[-112.05317940431119,40.560379042215494],[-112.05296440347979,40.560324043490951],[-112.05273340438686,40.560247043234078],[-112.05248840433995,40.560203043181531],[-112.05219640441886,40.560206043070579],[-112.0520784034367,40.560208043138275],[-112.05184040416219,40.560175044346025],[-112.05168940477697,40.560236043350621],[-112.0515964026997,40.560335043552442],[-112.05160340308866,40.56045004295585],[-112.05158140389912,40.560527043275087],[-112.05146640287603,40.560587044139986],[-112.05135140471572,40.56059804404331],[-112.05109940306762,40.560587042922563],[-112.05083940318143,40.56054904376213],[-112.05066740287972,40.56050504372984],[-112.05047240391907,40.560433044656591],[-112.05001240332902,40.560296044376933],[-112.04978840218136,40.560153043369858],[-112.04956540221882,40.560049043567638],[-112.04927740171674,40.559966043767965],[-112.04906140181494,40.559856043052093],[-112.0488314015488,40.559791044032686],[-112.04859340166716,40.559785044014355],[-112.04829840206193,40.55972504355649],[-112.04785940078727,40.559571043788061],[-112.0475714014042,40.559461043449744],[-112.04719640130098,40.559406043555917],[-112.04705239996589,40.559368043154777],[-112.04676540171091,40.55922504473407],[-112.04662040071462,40.559197043875649],[-112.04633240138946,40.559225044545741],[-112.04614540154114,40.559192043369606],[-112.04589340150117,40.559104044160748],[-112.04570640086345,40.559005043209936],[-112.04549740039757,40.558955043376223],[-112.04528139890259,40.558933044686604],[-112.04504439935272,40.558917044620266],[-112.04464839917686,40.558813044188604],[-112.04438139896648,40.558719045166278],[-112.04397139896163,40.558653044796799],[-112.0438273993386,40.558653044433392],[-112.04374139914775,40.558681043841567],[-112.04356839893354,40.558791044298978],[-112.04338140018096,40.55881804360682],[-112.0431793990163,40.558878044097781],[-112.04297739990284,40.558961043849322],[-112.04285540001516,40.558972045338855],[-112.04266839997567,40.558955043531661],[-112.04245939977875,40.558878044650108],[-112.04229339918889,40.558823044679727],[-112.04208539811067,40.558785044137295],[-112.04196239902807,40.558790045227404],[-112.04185439893764,40.558807044505784],[-112.04174440031333,40.558866044626896],[-112.04173239902893,40.558873045251133],[-112.04155939933982,40.558905045379589],[-112.04138639860051,40.558911044943422],[-112.04122839930203,40.558900044331715],[-112.04085339810891,40.558845043998645],[-112.04023439836631,40.558796045118882],[-112.03990339770705,40.558724044346803],[-112.03974539767462,40.5586970449449],[-112.03960839774649,40.558680044977159],[-112.03941339825988,40.5587460441647],[-112.03926939908976,40.558823044906497],[-112.03916939800418,40.558938044401145],[-112.03912539850425,40.559004044908328],[-112.03908239858887,40.559081045746659],[-112.03896739736163,40.559141045157226],[-112.03834839865966,40.559427044983892],[-112.03830239797217,40.559461044557885],[-112.03797339861678,40.559707045867164],[-112.0378223981608,40.559794044389378],[-112.03763539601547,40.559860045318906],[-112.03736839806253,40.560003046350161],[-112.0372783981482,40.560033045063115],[-112.037131397357,40.560085045398345],[-112.03682139738916,40.560151046339449],[-112.0366913975739,40.560184045565769],[-112.03620239780588,40.560211045290323],[-112.03607239641026,40.560244045636182],[-112.03571939701905,40.560442045475625],[-112.03524439721592,40.5604910465484],[-112.03499239719922,40.560442045596368],[-112.0346683963262,40.560486046188132],[-112.034574396523,40.560535045010923],[-112.03435139713382,40.560623047103952],[-112.03399139608055,40.560804046555191],[-112.03391139680187,40.560857046248117],[-112.03366739646418,40.561024045831331],[-112.0335443970208,40.561062045660016],[-112.03337239651796,40.561078046728028],[-112.03306939628537,40.561040047074847],[-112.03283939510814,40.561062045795211],[-112.03279439604616,40.561074047667724],[-112.03260839514355,40.561122046231148],[-112.03238139695206,40.561240046180167],[-112.03230039554403,40.559307045899352],[-112.03208239463008,40.556605046147844],[-112.03183539368487,40.555135044807628],[-112.03137239248615,40.553683044605997],[-112.03068939412394,40.552224045126103],[-112.03019939280288,40.551427044256215],[-112.03005439295222,40.551213043411842],[-112.0298463931701,40.551188045229338],[-112.02937739184034,40.551425045804315],[-112.02877439249046,40.551684044545503],[-112.02658239039496,40.552789045922204],[-112.02493839006075,40.553734045874243],[-112.0242723902349,40.554139045785085],[-112.02415838954128,40.554239045786474],[-112.02390239189957,40.554360046524991],[-112.02144039037498,40.555723046587431],[-112.01860538904042,40.557357046953676],[-112.01652438874937,40.558530048036971],[-112.0147073884623,40.559555048884853],[-112.01326238895955,40.56036804907604],[-112.01148038780289,40.561380050335451],[-112.01132238864756,40.56145704965536],[-112.0110873875399,40.561611050416637],[-112.0108523867045,40.561742050244284],[-112.0106353876032,40.561846049702162],[-112.01043638704712,40.561923050710014],[-112.01021438709503,40.562000049672143],[-112.01000238637991,40.562036050608931],[-112.00974338767894,40.562085050678796],[-112.00928938705619,40.562141050707169],[-112.00883538690638,40.562134049917596],[-112.00751738639347,40.562121050757412],[-112.00733038457706,40.562124050924801],[-112.00554238486824,40.562111050815865],[-112.00553838429769,40.562075050853771],[-112.00546938464191,40.562001050726174],[-112.00537738505311,40.561927050608226],[-112.00527038514518,40.56188805067432],[-112.00515738545965,40.561878052174997],[-112.00504338456935,40.561898051206029],[-112.00499438463791,40.561915051446306],[-112.00485638473072,40.561999050537445],[-112.00473338450708,40.562113050278114],[-112.00258938399438,40.562111052107227],[-112.00036438294266,40.562124052172031],[-112.00006338331119,40.561971051197901],[-111.99994838352146,40.561935051496185],[-111.99982138312026,40.561894051557886],[-111.99954238336427,40.561925051681278],[-111.99857138187987,40.56146105190188],[-111.99686638089084,40.560649051824491],[-111.99586038050731,40.560210051412078],[-111.99541337995103,40.560060052098677],[-111.9950993800435,40.559975052631991],[-111.99487238071947,40.559942051313733],[-111.99459637926475,40.559911051956476],[-111.9942263794274,40.559904052841567],[-111.99393237914157,40.559915051793986],[-111.99370437942468,40.559937051759036],[-111.99347337979279,40.559971052228953],[-111.99321237945009,40.560012052432441],[-111.9925773798853,40.560165051726308],[-111.99206738014212,40.560411053141642],[-111.99169437894247,40.560646052155953],[-111.99139437925365,40.560878052305739],[-111.99107037876794,40.561141052337689],[-111.99097537910689,40.56134005253206],[-111.99073337831112,40.561499053266523],[-111.99057337844354,40.561582053174234],[-111.99038437808788,40.561684052660027],[-111.99002037906067,40.561852053370067],[-111.98956537949131,40.562023053480424],[-111.98915137867984,40.562143053862982],[-111.98871537891175,40.562250052944023],[-111.98822037773677,40.562342053976167],[-111.98776537838475,40.562382053678789],[-111.98744237766103,40.562402053584385],[-111.98732337757107,40.562410053420074],[-111.98635537789609,40.562393054330542],[-111.98583537763095,40.5623510540551],[-111.98581837710685,40.562348052655473],[-111.98538637709987,40.562289053307246],[-111.98421637732133,40.562146054094185],[-111.98368237679564,40.562081054849763],[-111.98336237561774,40.562044054265968],[-111.98252337525513,40.561948055406909],[-111.98240337538489,40.56194605450326],[-111.98208237478055,40.561944054061229],[-111.98108837432521,40.561934055448035],[-111.98106837474359,40.561934055535396],[-111.97844737469805,40.561941055381816],[-111.97802537302438,40.561935055680117],[-111.9772033742622,40.561926054724005],[-111.97701237311139,40.561923055683963],[-111.97619237363884,40.56192705535819],[-111.97452237198404,40.561946055723404],[-111.97385237222404,40.56197405613235],[-111.97291237186059,40.562027056231344],[-111.97208537197766,40.562098056430386],[-111.97091337211745,40.562215055894498],[-111.97024837027197,40.56226205713606],[-111.97000737039366,40.562269056087167],[-111.96922637025024,40.562309056079286],[-111.96772336937215,40.562334056333874],[-111.96728937093755,40.562336057436845],[-111.967293369412,40.563070056141761],[-111.96729336984362,40.563194056432238],[-111.96729537023998,40.563370057145576],[-111.96729037041443,40.564528058156057],[-111.96728337129746,40.565273058080138],[-111.96727736987245,40.566008058473251],[-111.96727837114352,40.566270057606985],[-111.9672823707114,40.567015058223333],[-111.96728137077912,40.567059058233738],[-111.9672773706785,40.567322057895218],[-111.96727537011313,40.567785058794684],[-111.96727537172477,40.568115058586542],[-111.96729337144501,40.569177057879955],[-111.96730137102367,40.569641058744985],[-111.96730337161772,40.57008405894382],[-111.96730937214392,40.571414059599228],[-111.96731237172848,40.571858059629697],[-111.96731037092967,40.572141058556362],[-111.96730737295822,40.572990059384878],[-111.96730637338086,40.573274059218825],[-111.967670373337,40.573275058934328],[-111.96876237386523,40.57328105916887],[-111.96912637252589,40.573283059395692],[-111.96971937310752,40.573284058832321],[-111.97149937523702,40.573288058169602],[-111.97209337496159,40.573290058320246],[-111.97209337473376,40.573917058324852]]]},"properties":{"OBJECTID":4,"STATEFP20":"49","COUNTYFP20":"035","District":3,"created_user":null,"created_date":null,"last_edited_user":null,"last_edited_date":null,"Shape.STArea()":122817105.64094442,"Shape.STLength()":72649.443833332698,"Acres":2819.50406131}},{"type":"Feature","id":5,"geometry":{"type":"Polygon","coordinates":[[[-111.92187235571498,40.580509066876026],[-111.92232435573278,40.580510068354457],[-111.92252535647141,40.580511067335713],[-111.92252535730145,40.58052206760366],[-111.92253235725101,40.581228066965949],[-111.92253735610787,40.581595067938991],[-111.92330735691482,40.581595067546999],[-111.92441935782936,40.581596066783256],[-111.92442135737832,40.582112067940145],[-111.92653335771251,40.582110067193206],[-111.92681535796189,40.582110067284901],[-111.9268153586155,40.582065067502157],[-111.9291833597795,40.581431068155034],[-111.92918135982275,40.581342066484062],[-111.92917835946258,40.581122067524305],[-111.92917736021066,40.580991065724874],[-111.9291773596815,40.580886067378316],[-111.92917735924102,40.580571066904639],[-111.92917735870046,40.580466066739312],[-111.92917635984782,40.580403067589415],[-111.92917535939586,40.580214066429711],[-111.92917535860664,40.5801510672243],[-111.92917435928574,40.580035065915602],[-111.92917235824183,40.579687066414948],[-111.92917235817472,40.579571066832308],[-111.92917135971351,40.579509065473303],[-111.9291703584893,40.579324066315458],[-111.92917035847478,40.579263066317033],[-111.92917035818232,40.578994066897586],[-111.9291713588659,40.578187066602197],[-111.92917235815511,40.577919065728132],[-111.9291723583088,40.577831066137428],[-111.92917235796247,40.577568065165359],[-111.92917335770679,40.577481066024859],[-111.92917535811993,40.577346066299526],[-111.92918135810548,40.576944065935194],[-111.92918435806239,40.576810065742926],[-111.92918035902373,40.576472065673649],[-111.9291743573113,40.575946065559322],[-111.92916935777839,40.575458066051034],[-111.92916635726259,40.57512106536592],[-111.92916335794669,40.574973065358762],[-111.92915635721501,40.57452906608259],[-111.92915435866139,40.574382064698767],[-111.92915435677826,40.574005066367526],[-111.92915635643037,40.572877066155101],[-111.92915735620763,40.572653065048186],[-111.92916135722457,40.572503065261202],[-111.92916135703429,40.571728064254174],[-111.92916135683025,40.570462064289117],[-111.92916235595659,40.56934306452635],[-111.92915935616915,40.568757064809361],[-111.92915535583383,40.567798063326407],[-111.92915235520292,40.566999063832199],[-111.92915035503256,40.566414064036408],[-111.92914835479559,40.566143063209047],[-111.92914235575672,40.565331061968998],[-111.92914135500273,40.565061063293946],[-111.92914035468,40.564902062242417],[-111.92913935532786,40.564425063411242],[-111.92913935441561,40.564267062787714],[-111.92913835577423,40.564155063734312],[-111.92913735469425,40.563820063370343],[-111.92913735544526,40.563709063864941],[-111.92913635569835,40.563411062976428],[-111.92913335414927,40.562520063479752],[-111.92913335380378,40.562223062919941],[-111.92913435440325,40.561867061990789],[-111.92913935407282,40.560799062398587],[-111.92913935414519,40.560729061736417],[-111.92914135396067,40.560444061738615],[-111.92914135357886,40.560266062086555],[-111.92914335503629,40.559732062931722],[-111.92914535290271,40.559555061845337],[-111.9291423535698,40.559167062890367],[-111.92913835321782,40.55850806127625],[-111.92913635363982,40.558125062028857],[-111.92913535317585,40.558005062111654],[-111.92914135375487,40.557886061409931],[-111.92913335208051,40.55761806249383],[-111.92913035362274,40.557525061534221],[-111.92912435264803,40.557249061861697],[-111.92912235233578,40.557157062264274],[-111.92912235316071,40.557095062100693],[-111.92912635241035,40.556909061384495],[-111.92912835377834,40.556848061624351],[-111.92913035150634,40.556686061918391],[-111.92913735293979,40.556203061526737],[-111.92914035343995,40.556042061337394],[-111.92914135230123,40.555929062190017],[-111.92914735215858,40.555592061083061],[-111.92914935144456,40.555480061482193],[-111.92942835326852,40.555473061279024],[-111.92952735276634,40.555475060883417],[-111.92959435118728,40.555491061629738],[-111.92981435234397,40.555497061036057],[-111.93236135411466,40.555522059886528],[-111.93273935402654,40.555519060798858],[-111.93334935465823,40.555508061016575],[-111.93343235508128,40.555519060846187],[-111.93359335317598,40.555538061037709],[-111.93368535429815,40.555557060437209],[-111.93382235367552,40.555592061127008],[-111.93408935445072,40.55568706056426],[-111.93441735398535,40.555805059878828],[-111.9345853547802,40.555847061083298],[-111.93475335367239,40.555882061071877],[-111.93495935475228,40.555901060944969],[-111.93548535404366,40.555897059997434],[-111.93623335542064,40.555916059977704],[-111.93683635510435,40.555912059189644],[-111.93708435546522,40.555918060434934],[-111.93711435642433,40.555841060271703],[-111.93712635606479,40.555738060379575],[-111.9371423543739,40.554742059740846],[-111.93868235594752,40.554727059139914],[-111.93866835583681,40.554450059188021],[-111.93867535563521,40.554319058512647],[-111.93874635488028,40.553023059503182],[-111.93978835562626,40.553019058905299],[-111.94032735663333,40.553011059122746],[-111.94142135589523,40.553013059041461],[-111.94186135792384,40.553007057558681],[-111.94185535739575,40.552858059157117],[-111.94371335743823,40.552862058153849],[-111.94821435986889,40.552873056857521],[-111.94821436078644,40.553498057306811],[-111.94821435987748,40.553711058089476],[-111.94821436082211,40.554352056868922],[-111.94821436057711,40.554566057204525],[-111.9483513599821,40.554545059141354],[-111.94838336026878,40.554545058363914],[-111.94880336002966,40.554544057757333],[-111.94890535999066,40.554537058089075],[-111.94896335975055,40.55452405793001],[-111.94900836023062,40.554506058049341],[-111.94905836070409,40.554479057670299],[-111.94910536076051,40.554436057616449],[-111.94914635967486,40.554272058103045],[-111.94922335944574,40.553922058428263],[-111.94924035986395,40.553868056653286],[-111.94927336044006,40.553829057328144],[-111.94931735948046,40.553808057773892],[-111.94941336049236,40.553789057197321],[-111.95076336141402,40.553807057020443],[-111.9520533621461,40.553789056385945],[-111.95209836144259,40.553794056652947],[-111.95216736156911,40.553812057677995],[-111.9522153609373,40.553856057920804],[-111.95224236149834,40.553901057705971],[-111.95224236084363,40.553918057679454],[-111.95224836164742,40.554324057065941],[-111.9522513612859,40.5544600578475],[-111.95253536225371,40.554460057299423],[-111.95338736165711,40.554460057845738],[-111.95367136264292,40.554460057248043],[-111.95387636169114,40.554459057748126],[-111.9541413618265,40.554459057508268],[-111.95446136183519,40.554454057026717],[-111.95449236179803,40.554449056719555],[-111.95457236218013,40.554437056392999],[-111.95469236182632,40.554400057930174],[-111.954754362137,40.554355056714861],[-111.95482036200691,40.554283056315541],[-111.95485636244825,40.554212057500131],[-111.95488236281155,40.554140056409615],[-111.95489436116188,40.553992056881988],[-111.95496036228099,40.553876056560888],[-111.95501736224368,40.553827056271828],[-111.95510136290135,40.55378705678504],[-111.95520436244644,40.553774057187859],[-111.95681636361664,40.553777056249757],[-111.9570673633776,40.553773056784785],[-111.95714136281777,40.553772055982265],[-111.9575943637907,40.553771056415478],[-111.95775436317413,40.553753056435362],[-111.95774836365901,40.553934056616583],[-111.95774836394359,40.553949056435478],[-111.9577483649884,40.554479056318115],[-111.95774836405019,40.55459505634343],[-111.95774836412521,40.554661056073641],[-111.95774736381223,40.554936057486003],[-111.95774736384719,40.555765056443718],[-111.95774736470575,40.555996056734031],[-111.95848136445285,40.555994056567478],[-111.95923336540666,40.555992056060383],[-111.96061136486338,40.555998057238533],[-111.96111636520502,40.555990055911451],[-111.96121236443813,40.555987056843477],[-111.96225136662146,40.555979056518574],[-111.96329636547858,40.555971054815643],[-111.96536936702309,40.555997056359068],[-111.96640836839165,40.556011055136842],[-111.96646136739884,40.555958055897172],[-111.96735436724933,40.555960055965237],[-111.96735736827944,40.555532055691422],[-111.96735936811129,40.555134055376016],[-111.96734236835252,40.55503305534446],[-111.96732236708914,40.553380054366002],[-111.9673273675394,40.553293055045508],[-111.96731736643243,40.55235905439325],[-111.96733636735871,40.552326054852905],[-111.96721836682849,40.551800054671908],[-111.96708136729893,40.551506054758711],[-111.96705336616378,40.551446054350926],[-111.96703036669571,40.551404054358947],[-111.96686236607958,40.551053054652414],[-111.96682636621949,40.550965054076009],[-111.96676136752046,40.550776054145338],[-111.96670536499062,40.550565054426599],[-111.96665136582625,40.550327054889181],[-111.96661836582497,40.55010205338526],[-111.96660236688119,40.549959054714215],[-111.96658036516642,40.548296053946878],[-111.96657336589766,40.547962053895574],[-111.96656836476743,40.547698053322598],[-111.96654436559649,40.54597405359997],[-111.96653836569814,40.545543053488331],[-111.96651836557888,40.545416053775583],[-111.96646736448382,40.54529005274577],[-111.96638036521175,40.545142052590855],[-111.96617336425662,40.544788053344909],[-111.96614136301793,40.544669053275975],[-111.96612136377978,40.544594052324115],[-111.96611136520758,40.54428305343226],[-111.96610836406542,40.544181053362166],[-111.96598936473558,40.544181052676031],[-111.96485736345436,40.544184053112204],[-111.9644803634985,40.544186053341079],[-111.96408636323105,40.544187053375182],[-111.96401236363303,40.544188054103437],[-111.96290636308527,40.544191053476439],[-111.96251336239432,40.544193053816088],[-111.96219136399026,40.544194053412376],[-111.96122636243446,40.544198053425021],[-111.96090536240612,40.5442000541995],[-111.96027736217818,40.54420005366066],[-111.95839636105356,40.544204054684045],[-111.95777035993059,40.544206055579224],[-111.95776136163235,40.543488054343626],[-111.95775736003672,40.543134054370753],[-111.95775236021063,40.542596053880757],[-111.95776136000883,40.541335052644051],[-111.95776336043035,40.541188052893212],[-111.95773836049391,40.540618053572445],[-111.95773635990631,40.540570053783853],[-111.95773435952739,40.54051205406104],[-111.95707935907924,40.540511053147803],[-111.95637435915923,40.540517053327143],[-111.95299735782127,40.540516054361419],[-111.95299735755394,40.540498054668944],[-111.95240135834344,40.540503054995902],[-111.95091135701522,40.54048705438997],[-111.94904935729311,40.540480054754497],[-111.94895235627907,40.540473055078131],[-111.94886935659915,40.540480055109271],[-111.94824135711487,40.540484055403546],[-111.94822435507646,40.538934054673504],[-111.94820235517683,40.536867054315024],[-111.94767135486549,40.536865054040263],[-111.94723835493122,40.536872055185285],[-111.94439235413221,40.536900054451699],[-111.94400535270417,40.536902053929111],[-111.9428653527339,40.536909055042187],[-111.94284635382829,40.536908055131697],[-111.94249635393588,40.536908055575324],[-111.94235335309136,40.536907055262134],[-111.94192835382637,40.536907055097551],[-111.94187335197786,40.536906055655322],[-111.94177335319274,40.536906055182911],[-111.94129635255153,40.536909055750712],[-111.94131635120684,40.536981054944327],[-111.94131535171516,40.537911056279121],[-111.94131135289005,40.539422055055084],[-111.94126635254804,40.539422055129798],[-111.94126835344714,40.54038205666653],[-111.94126435292229,40.540679057013399],[-111.93953535290211,40.540677056684906],[-111.93889935170218,40.540677056411596],[-111.93869735247641,40.540674056159112],[-111.93870035351264,40.540464056482499],[-111.93870235229699,40.540180056245873],[-111.93870335203279,40.540135056452847],[-111.93869235228047,40.539184056462545],[-111.93719635228376,40.5391800554995],[-111.93693935106117,40.539189055692852],[-111.93682335056434,40.539203055943538],[-111.93664735215735,40.539385056579192],[-111.93662735195444,40.539406056702298],[-111.93656434992764,40.539470056151124],[-111.93636135089548,40.539680056515905],[-111.9356723517197,40.540392056833745],[-111.93535434961944,40.540381057014997],[-111.93444635063648,40.540348056620445],[-111.93444135036592,40.540488056916494],[-111.93440235073054,40.540488056433254],[-111.93394434928243,40.540489057291644],[-111.93395235059235,40.539888057130526],[-111.93394634956755,40.539788056709391],[-111.93353235090109,40.539859057353397],[-111.93338335012888,40.539885056524632],[-111.93053834995337,40.540380057461583],[-111.93026534879358,40.540431057461852],[-111.92914734759886,40.540427058099802],[-111.92914834714718,40.540292057359594],[-111.92915134776078,40.5400050575536],[-111.92915734733296,40.539613057484772],[-111.92915634746527,40.539378057607507],[-111.92915634865309,40.539256057482767],[-111.92915634883302,40.53916805745078],[-111.92915434803312,40.538564057355877],[-111.92915434747535,40.537989058049519],[-111.92886134709826,40.537994056720429],[-111.92798434729157,40.538011057407964],[-111.92769234692811,40.538017057243351],[-111.92763934794195,40.538017056955226],[-111.92748034735897,40.53802005755891],[-111.9274283477224,40.538022058199445],[-111.92739734671959,40.537950058105146],[-111.92657834683148,40.537955056465826],[-111.92350334674592,40.537905058009578],[-111.92196834436746,40.537871058886189],[-111.92196534551508,40.537961058179164],[-111.92056434241434,40.537960058575258],[-111.92049534457256,40.537961058947936],[-111.92045034377738,40.53796905890033],[-111.92031034544982,40.537996058349847],[-111.92022434440837,40.538013058696841],[-111.92019134411257,40.537857057881297],[-111.92016334410684,40.537724057681217],[-111.92008034270589,40.537341058345675],[-111.92021434439064,40.537341058115118],[-111.92027634352679,40.537328058590582],[-111.92034134359872,40.537312058382469],[-111.92031934299162,40.537246058870828],[-111.92022034503304,40.536938057820805],[-111.92014034354071,40.536967058317288],[-111.9201183423249,40.536967057911966],[-111.91891234372409,40.536979058042611],[-111.91820434291098,40.536987058548561],[-111.91758034324789,40.536980059209078],[-111.91741534373902,40.536978058570185],[-111.91743134324193,40.537019057667166],[-111.91747434301696,40.537115058359035],[-111.91751234248805,40.537226059613907],[-111.91759034254936,40.537334059069693],[-111.91764934376336,40.537439058815146],[-111.9176763436184,40.537507058278557],[-111.91768034299122,40.537578059326826],[-111.91767134190303,40.537651059124187],[-111.91764634258357,40.537739059058666],[-111.91761934200275,40.537798058777739],[-111.91758334305914,40.537851059428455],[-111.91754434280149,40.537890059700224],[-111.91746734236663,40.537959059054607],[-111.91748134369232,40.538246058407942],[-111.91750434316083,40.538701059246122],[-111.9175073417463,40.538839058952881],[-111.91800234362803,40.539185059680754],[-111.91837834391937,40.539483059438673],[-111.91845634454501,40.539566059349816],[-111.91849534505795,40.539649058839281],[-111.91850034338542,40.539712059188716],[-111.91849034416839,40.539800059722481],[-111.91845134367655,40.53989706048376],[-111.9183833435349,40.539985059071419],[-111.91822734272263,40.540141060099202],[-111.91806134429508,40.540293059309512],[-111.91797334219666,40.540351058986424],[-111.9178903443681,40.540390059479009],[-111.91775434467671,40.540414059795047],[-111.91755434269989,40.540380059867374],[-111.91736334426108,40.540385059981041],[-111.91720234313341,40.540434059276087],[-111.91694434286406,40.540566059304034],[-111.9168463431344,40.54063405936639],[-111.91682234290677,40.540683059959299],[-111.9168273428533,40.54076105930698],[-111.91683234326938,40.540927059467847],[-111.91683234337457,40.541019060605386],[-111.91680734372633,40.541088060053603],[-111.91669034331885,40.541322060775073],[-111.91662234385356,40.541414060400982],[-111.9165733419575,40.541497060652567],[-111.91654434478154,40.541595060812405],[-111.91655934333934,40.541727060491056],[-111.91657334321694,40.541917059374121],[-111.91659834387897,40.542019060704241],[-111.91663734251121,40.542068059802169],[-111.91672434410938,40.542175060447818],[-111.91675434471247,40.54224405977304],[-111.91676834394562,40.54230705965275],[-111.91675934475299,40.542351060055481],[-111.91668534231189,40.542458059256042],[-111.9165733440208,40.542527059778678],[-111.91643234428669,40.542624060083313],[-111.91639334328455,40.54268806054472],[-111.9163493443954,40.542819060245023],[-111.91633434288889,40.542956060101673],[-111.91633934437769,40.543097061285394],[-111.91636834370435,40.54322405987449],[-111.91642234523776,40.543341060711406],[-111.91656834378514,40.543566061223473],[-111.91672934445165,40.543707060950375],[-111.91695934468665,40.543846059886135],[-111.9169443432753,40.544007060781908],[-111.91689034455257,40.544144059733362],[-111.91659334344848,40.544277060155764],[-111.91505434448136,40.544286061109943],[-111.91394434395372,40.544284061304715],[-111.91385834331963,40.544282061249447],[-111.91377234387653,40.544280062027461],[-111.91325734190052,40.544272060382042],[-111.91308634327768,40.544270061230584],[-111.91295934220089,40.544275060976219],[-111.91257934362767,40.544291060884639],[-111.91245334147936,40.544298061228382],[-111.91227034319273,40.544298061831086],[-111.91172334247787,40.54430006138552],[-111.91154134185136,40.54430106147889],[-111.91130534221216,40.544283062356342],[-111.91059934051262,40.544231061608642],[-111.9103643413665,40.544214060320762],[-111.91024534222224,40.544202062443496],[-111.90989234220619,40.54416606131732],[-111.90977434203576,40.54415506180068],[-111.90890034128253,40.544052062404873],[-111.90850134110967,40.544020061129089],[-111.90803134130904,40.544008062234255],[-111.90760434041724,40.544012062741984],[-111.90716933941042,40.544056062025732],[-111.90694133959792,40.544093062667649],[-111.90666333976476,40.544142062536153],[-111.90582734046347,40.544289061492478],[-111.9055493390532,40.544338062318054],[-111.90535333973359,40.544338061970983],[-111.90476933900972,40.544338062275315],[-111.90457433959575,40.544338062577495],[-111.90441533991064,40.544338062667528],[-111.90393933957515,40.544338062706046],[-111.90378133978503,40.544338062093779],[-111.90359633932094,40.544338062356999],[-111.90304233901463,40.544338063357316],[-111.90285833844548,40.544338062621158],[-111.90255833837612,40.544338062776085],[-111.90165933808942,40.544338063314882],[-111.90136033672783,40.54433906291564],[-111.90124633819636,40.544339063152279],[-111.90090533777487,40.544339063396663],[-111.90079233795785,40.544339063379219],[-111.90036733693967,40.544341062948227],[-111.89909433600589,40.544346063979511],[-111.89867033594491,40.544349063524393],[-111.89841633722901,40.54434406331854],[-111.8976583359527,40.544332062747486],[-111.89740533712381,40.54432906252125],[-111.89723633764844,40.544326063569045],[-111.89708433629245,40.544324064071425],[-111.89673033621773,40.544324063778525],[-111.8965623363182,40.544325064389206],[-111.89634333603084,40.544325063733822],[-111.89602933642713,40.544325063887072],[-111.89568833615975,40.544325063367218],[-111.89547033567928,40.544326064539831],[-111.89529533554555,40.544325064275029],[-111.89496333433628,40.54432506462738],[-111.8949743355741,40.544366064556236],[-111.89529333628633,40.545638063418451],[-111.89555233681719,40.546672063779432],[-111.89569233570199,40.54732706406179],[-111.89609333719086,40.549003064895153],[-111.8964833372245,40.550564065206643],[-111.89671333829055,40.551487065673506],[-111.89673033855081,40.551564064871613],[-111.89700333799411,40.552761065665926],[-111.8973333379293,40.554038066373309],[-111.89842634081492,40.558880066590433],[-111.89843034003457,40.558899065646166],[-111.89843134136265,40.55891706535796],[-111.89845433978394,40.559019066700742],[-111.89845934018577,40.559040066100792],[-111.89847434136082,40.559104066622986],[-111.89865334113188,40.559889066946376],[-111.89893834195013,40.561278066799709],[-111.89910134174046,40.562091068201639],[-111.89921634159387,40.562664066791136],[-111.89937634217203,40.563465066836457],[-111.899680343231,40.565355068332437],[-111.89975534283816,40.565817068567448],[-111.89977434376472,40.565995067635221],[-111.89988034349857,40.566956068489617],[-111.89997834386025,40.567986068091187],[-111.90012334531691,40.569715068930378],[-111.90028234371844,40.569720069356883],[-111.90043334486914,40.569721068678341],[-111.90061034470941,40.569721068547082],[-111.90080534459204,40.569722069298926],[-111.90107534434787,40.569723068150715],[-111.90188734539616,40.569728068664801],[-111.90196934595009,40.569729068264856],[-111.90215834428821,40.569730068423318],[-111.90256634581965,40.570480068465947],[-111.90355834609807,40.572300068131938],[-111.90377234815405,40.572744068705035],[-111.90398234684723,40.573179069841146],[-111.90404034755527,40.573306069112405],[-111.90635934816781,40.573318069570931],[-111.90753534864386,40.573313068384216],[-111.90833334830349,40.57331506880562],[-111.90880034922195,40.573323068229733],[-111.90898034827011,40.573317068956335],[-111.90919634898844,40.573320068256884],[-111.91026535011362,40.573320067892539],[-111.91026535046937,40.573516068565844],[-111.91494735213604,40.573502066908638],[-111.91501035076874,40.573283067333833],[-111.91547135230131,40.573288067076227],[-111.91584335232017,40.573285067527365],[-111.91666335248583,40.573277066782531],[-111.91688335130419,40.573531066980912],[-111.91723535274011,40.573937066899951],[-111.91748935311681,40.574230066931086],[-111.9176383534444,40.574464067501339],[-111.91812235401301,40.575122066401313],[-111.91817635307149,40.575244067655873],[-111.91839535341653,40.575737066947298],[-111.91854835423537,40.576082067083547],[-111.91864135436357,40.576253066837744],[-111.91871935355866,40.576396067747758],[-111.91894335430085,40.576612067713633],[-111.91959435426769,40.576909067566525],[-111.92018835506512,40.577331066939749],[-111.92151235559419,40.578537066553288],[-111.92161235598982,40.578647068398475],[-111.92164435531939,40.57881606769395],[-111.92161235675177,40.579034067444496],[-111.92142835524389,40.579222067412523],[-111.92111035581627,40.579397067764788],[-111.92013935497067,40.57976506774046],[-111.92012735538613,40.580180068170307],[-111.9201223553568,40.580406067565761],[-111.92026535570565,40.580406066872506],[-111.92027535505159,40.580511068092619],[-111.92046935593133,40.580506067363686],[-111.92187235571498,40.580509066876026]]]},"properties":{"OBJECTID":5,"STATEFP20":"49","COUNTYFP20":"035","District":1,"created_user":null,"created_date":null,"last_edited_user":null,"last_edited_date":null,"Shape.STArea()":159491871.22377321,"Shape.STLength()":78373.728449916409,"Acres":3661.4441963499999}}]}