{"type":"FeatureCollection","crs":{"type":"name","properties":{"name":"EPSG:4326"}},"features":[{"type":"Feature","geometry":{"type":"MultiPolygon","coordinates":[[[[-111.856104950422,39.7101385939934],[-111.856089575756,39.7076729871348],[-111.858186122357,39.7076706395138],[-111.858187797715,39.7090221199767],[-111.858172477846,39.7101382228932],[-111.856104950422,39.7101385939934]]],[[[-111.84387739449,39.6984066907542],[-111.843872705285,39.6990181239487],[-111.843945586502,39.6990181018312],[-111.845983755186,39.6990109841291],[-111.845983489284,39.7002737482413],[-111.843952511615,39.7002646560225],[-111.843863144515,39.7002649145166],[-111.843855402834,39.7012744012853],[-111.843871983938,39.7026069627481],[-111.843874223438,39.7054624223097],[-111.843857488722,39.7086848181617],[-111.843847996224,39.7088631066569],[-111.845938330975,39.7088625814403],[-111.84808310992,39.7088592781035],[-111.848040991509,39.7099068266692],[-111.847964352639,39.7099066767083],[-111.847964200824,39.7099325128279],[-111.847997185164,39.7122188536206],[-111.845955963107,39.7122137799974],[-111.845922018468,39.709929789345],[-111.8459277066,39.7099026692271],[-111.844635005753,39.7099007501418],[-111.843844072383,39.7099007356295],[-111.843869574656,39.7099927231257],[-111.843871951598,39.7104367222608],[-111.843886833089,39.7113516767221],[-111.843839842217,39.7157480313126],[-111.843967289799,39.7191211930439],[-111.843970261426,39.7198913514881],[-111.843977550356,39.7213411068166],[-111.844157088547,39.721338990438],[-111.845947394078,39.7213221747949],[-111.845935322517,39.7232656413083],[-111.846071154974,39.7233148376022],[-111.850640343141,39.7233357783002],[-111.850736358671,39.7268951250417],[-111.847010455893,39.7268984150786],[-111.847015985922,39.7289037428181],[-111.847016052398,39.7289097568745],[-111.847079664798,39.7289091813767],[-111.847087293291,39.7293657728108],[-111.846094227304,39.7293768073726],[-111.846108719825,39.7307689145516],[-111.843649994061,39.7307864698691],[-111.84365145562,39.7308680908794],[-111.841046742843,39.7308946493799],[-111.841051732086,39.7324382138106],[-111.839850944164,39.7324191563398],[-111.836379634718,39.7323716874221],[-111.836219917853,39.7323748203772],[-111.836204838733,39.7338020300034],[-111.831563553579,39.7338112228075],[-111.83155951116,39.7326479340686],[-111.827855030506,39.7326727019272],[-111.827846883685,39.7322610377122],[-111.827855552428,39.7322483822098],[-111.827824594686,39.7302714998263],[-111.82448633292,39.7302743005732],[-111.82636504525,39.7338363066457],[-111.819079790941,39.7338890324154],[-111.819007781988,39.7302325505037],[-111.823831110735,39.7302047143466],[-111.823824396726,39.7296007743294],[-111.823751955683,39.7288696737489],[-111.823696186474,39.7278800446769],[-111.823668664789,39.7266263101178],[-111.822301669675,39.7266238380895],[-111.818937049541,39.7265740997295],[-111.816475788732,39.7267204599209],[-111.816292006899,39.7265322707296],[-111.813865782183,39.7219874194272],[-111.813853667503,39.7192497040135],[-111.809381129976,39.7192791690646],[-111.804678727043,39.7192956666686],[-111.804680098771,39.7192946944736],[-111.804678427006,39.7192950724343],[-111.804646631136,39.715662836484],[-111.799948746729,39.7156811053111],[-111.799922311107,39.7120488524896],[-111.803910775273,39.7120345078238],[-111.80616760827,39.7120244455483],[-111.806372452901,39.7120239037706],[-111.806372457392,39.7120245478226],[-111.806381184525,39.7133914925366],[-111.806611216213,39.7133656340427],[-111.806840267849,39.7133350578441],[-111.807068175957,39.7132997857575],[-111.807294777876,39.7132598429496],[-111.807519911878,39.71321525792],[-111.807743417282,39.7131660624808],[-111.807965134569,39.7131122917334],[-111.808184905496,39.713053984044],[-111.809312375619,39.712728625076],[-111.809304704905,39.7120140501886],[-111.812478442024,39.7119995244623],[-111.813191254304,39.7118034614098],[-111.813146049282,39.7116594363926],[-111.813145973824,39.708463468802],[-111.816294446723,39.7084508365749],[-111.816471700499,39.7081685655782],[-111.816488087566,39.708143582284],[-111.816505646037,39.7081189514326],[-111.81652437591,39.7080948527058],[-111.817360596049,39.7070606471984],[-111.817437397514,39.7069655907927],[-111.818317425794,39.7058798928416],[-111.818535826002,39.7056653550147],[-111.818554160617,39.7056473855487],[-111.818588036985,39.7049209330859],[-111.818597444143,39.7047200321462],[-111.818798192456,39.7047197874911],[-111.82072624116,39.704717257315],[-111.821066702653,39.704773416007],[-111.82170508502,39.7047804322119],[-111.823151986176,39.703337038286],[-111.824871337376,39.7000152481491],[-111.825071239476,39.6986031167303],[-111.825152321413,39.697811363674],[-111.825337706739,39.6964936699131],[-111.825563424623,39.695429143447],[-111.82652698814,39.6939773380456],[-111.827485286631,39.6928791186362],[-111.830723498532,39.6893886366805],[-111.832321327437,39.6875713879257],[-111.834214710154,39.6859298535998],[-111.83631256021,39.6841446360989],[-111.837127435479,39.6837084415577],[-111.837139737907,39.6815500691758],[-111.83711595501,39.6792133753206],[-111.83711390236,39.6753248894662],[-111.837114448535,39.6749451084236],[-111.837067910414,39.6716691792298],[-111.837021809772,39.6680134677628],[-111.83701259665,39.666119602331],[-111.846422078247,39.6661242969417],[-111.846450096701,39.6677993481464],[-111.846843793255,39.6677981899077],[-111.846755119655,39.6642492914547],[-111.846839277424,39.6642482272034],[-111.85265176269,39.6641745649325],[-111.854169031578,39.6605356386839],[-111.855749406216,39.6605103712082],[-111.8558391551,39.6641872343065],[-111.865156729162,39.6640404952764],[-111.865187664445,39.665945804697],[-111.859964483887,39.6677925867983],[-111.859728942027,39.6677966347562],[-111.857315042196,39.668662337037],[-111.857614094049,39.6691603889258],[-111.854075660687,39.6708346073069],[-111.853763468902,39.6710124020709],[-111.853455596988,39.6711946047181],[-111.853152149998,39.6713811530424],[-111.852853231475,39.6715719833551],[-111.852558943414,39.6717670305057],[-111.852269386232,39.671966227905],[-111.851984658734,39.672169507547],[-111.851704858072,39.6723768000332],[-111.851430079722,39.6725880345952],[-111.851160417442,39.6728031391199],[-111.850895963246,39.6730220401734],[-111.851888959165,39.673728759022],[-111.851896966747,39.673752909851],[-111.851646542497,39.6750727302371],[-111.851639611096,39.6752817551212],[-111.851637740804,39.6754379135463],[-111.851490184767,39.6754762861662],[-111.851345025836,39.6755197386933],[-111.851202559063,39.6755681827964],[-111.851063074025,39.6756215199974],[-111.850926854241,39.6756796418718],[-111.850794176592,39.6757424302688],[-111.850665310758,39.675809757552],[-111.850540518673,39.6758814868586],[-111.850420053989,39.6759574723779],[-111.850304161564,39.6760375596477],[-111.850193076961,39.6761215858682],[-111.850087025971,39.6762093802335],[-111.849986224153,39.6763007642783],[-111.849890876399,39.6763955522412],[-111.849801176511,39.6764935514422],[-111.849717306814,39.6765945626746],[-111.849639437783,39.6766983806097],[-111.849567727694,39.6768047942147],[-111.849502322304,39.6769135871814],[-111.849200645574,39.6779900614133],[-111.849076726574,39.6789563498778],[-111.849130211202,39.679067322342],[-111.849189463124,39.6791765456089],[-111.849254386074,39.6792838422304],[-111.84932487457,39.6793890378896],[-111.849400814088,39.6794919616833],[-111.849482081248,39.6795924464003],[-111.849568544014,39.6796903287924],[-111.849660061908,39.6797854498401],[-111.849756486241,39.6798776550104],[-111.849761974947,39.682542009716],[-111.845216229217,39.6826002701433],[-111.844428188422,39.6836517541431],[-111.843808605998,39.683659602779],[-111.843815551771,39.6845645784585],[-111.841473088667,39.6845938820371],[-111.841463012264,39.690014044847],[-111.841458526078,39.6927920202454],[-111.837857284308,39.6927924612537],[-111.837880363825,39.6973361133943],[-111.838229366499,39.6972902556835],[-111.841483439954,39.6972853689664],[-111.843869010514,39.697249044819],[-111.84387739449,39.6984066907542]]]]},"properties":{"NAME":"Nephi","COUNTYNBR":"12","FIPS":"54220","POPLASTCENSUS":6443}}]}