{
"type": "FeatureCollection",
"crs": { "type": "name", "properties": { "name": "urn:ogc:def:crs:OGC:1.3:CRS84" } },
"features": [
{ "type": "Feature", "properties": { "OBJECTID": 2304, "CountyID": 12, "VistaID": "12NE4:I", "PrecinctID": "12NE4", "SubPrecinctID": " I", "VersionNbr": "Current", "EffectiveDate": 1767916800000, "AliasName": " ", "Comments": "glenng", "RcvdDate": 1767830400000, "GlobalID": "e3135db1-b4ea-494c-be50-2c13cf483aff", "Shape__Area": 7609089.30078125, "Shape__Length": 15498.35737248463 }, "geometry": { "type": "Polygon", "coordinates": [ [ [ -111.828525646222005, 39.718729568438299 ], [ -111.826700796875997, 39.718720953351998 ], [ -111.824816825808, 39.718744264800399 ], [ -111.822908032491, 39.718740691074402 ], [ -111.820985485069997, 39.718757906039698 ], [ -111.819161758617994, 39.718745560379702 ], [ -111.814005257309006, 39.718779126584501 ], [ -111.804684462786, 39.718676443436998 ], [ -111.80466146322, 39.716049117705097 ], [ -111.804658134961997, 39.715668798487698 ], [ -111.799960249657005, 39.715687067313297 ], [ -111.799933814034006, 39.712054814114701 ], [ -111.806179112094995, 39.7120304078665 ], [ -111.806383957625002, 39.712029865397902 ], [ -111.806392689248995, 39.7133974547367 ], [ -111.806622720844004, 39.713371595728702 ], [ -111.806851772377001, 39.713341019742103 ], [ -111.807079680353993, 39.713305748192496 ], [ -111.807306280385006, 39.713265804567797 ], [ -111.807531415263, 39.713221219956203 ], [ -111.807754922393997, 39.713172024754201 ], [ -111.807976639182002, 39.713118253503502 ], [ -111.808196409321994, 39.713059945582202 ], [ -111.809323880343001, 39.712734586642298 ], [ -111.809316209629003, 39.712020011125603 ], [ -111.812489946748002, 39.712005484709501 ], [ -111.813202759926, 39.711809422365 ], [ -111.813157554005997, 39.711665397360299 ], [ -111.813157479446005, 39.708469430045803 ], [ -111.814976694557998, 39.708462140548903 ], [ -111.816305951447006, 39.708456796437702 ], [ -111.816535881532005, 39.7081008132904 ], [ -111.817372101670998, 39.707066607872399 ], [ -111.818328931416005, 39.7058858529265 ], [ -111.818567777279995, 39.705608078146099 ], [ -111.820004797867, 39.705618412271498 ], [ -111.828565038245998, 39.705640348007599 ], [ -111.843906750535993, 39.705664814569403 ], [ -111.843869808218003, 39.708535202033403 ], [ -111.843859507236999, 39.708869065102 ], [ -111.848094621830001, 39.708865236548903 ], [ -111.848052504318005, 39.709912785024102 ], [ -111.847975865448007, 39.7099126357542 ], [ -111.848008697075002, 39.7122248124668 ], [ -111.845967475915998, 39.712219738153102 ], [ -111.845933529480007, 39.709935747697898 ], [ -111.844646517664003, 39.709906709188303 ], [ -111.843855583394998, 39.709906694675901 ], [ -111.843881086566, 39.709998681473103 ], [ -111.843898344101007, 39.711357635643203 ], [ -111.843886932801993, 39.712425297662001 ], [ -111.843861181695999, 39.714834596658797 ], [ -111.843851354126997, 39.715753990544997 ], [ -111.843978802608007, 39.719127152675803 ], [ -111.843981514622001, 39.719543700993803 ], [ -111.843038959107005, 39.7195387066797 ], [ -111.842252531686, 39.719534503523299 ], [ -111.841831679959, 39.719274462175001 ], [ -111.841839381214996, 39.7187563278517 ], [ -111.834218101293999, 39.718732954219497 ], [ -111.832309396911, 39.718736742148401 ], [ -111.830448437087, 39.718732950073701 ], [ -111.828525646222005, 39.718729568438299 ] ] ] } },
{ "type": "Feature", "properties": { "OBJECTID": 2305, "CountyID": 12, "VistaID": "12NE7", "PrecinctID": "12NE7", "SubPrecinctID": " ", "VersionNbr": "Current", "EffectiveDate": 1767916800000, "AliasName": " ", "Comments": "glenng", "RcvdDate": 1767830400000, "GlobalID": "f5a06dc5-0562-4038-87c4-8a52aef78523", "Shape__Area": 3391748.81640625, "Shape__Length": 12650.236779596 }, "geometry": { "type": "Polygon", "coordinates": [ [ [ -111.832312310147998, 39.722375885904803 ], [ -111.832288833576001, 39.726634207065899 ], [ -111.832287520239007, 39.730018391704498 ], [ -111.832344507564002, 39.733815674481299 ], [ -111.831575065489005, 39.733817185314699 ], [ -111.831571023069998, 39.732653895985599 ], [ -111.827866541519001, 39.732678664532898 ], [ -111.827836105697997, 39.730277461948802 ], [ -111.824497842135003, 39.730280263386298 ], [ -111.826376555364007, 39.733842269150699 ], [ -111.819091300156998, 39.733894995606697 ], [ -111.819019291203006, 39.730238514011297 ], [ -111.823842620847998, 39.730210677165701 ], [ -111.823835906840003, 39.72960673651 ], [ -111.823763465797001, 39.7288756359928 ], [ -111.823707695688995, 39.727886007006298 ], [ -111.823680174901995, 39.726632271864702 ], [ -111.822313179787997, 39.726629799836601 ], [ -111.818948557857993, 39.726580062171799 ], [ -111.816487296150001, 39.726726423041498 ], [ -111.816303514317994, 39.726538233866499 ], [ -111.813877289600995, 39.7219933808843 ], [ -111.813865174022993, 39.719255665707102 ], [ -111.809392635598002, 39.719285131446703 ], [ -111.804691603495002, 39.719300656163398 ], [ -111.804684462786, 39.718676443436998 ], [ -111.814005257309006, 39.718779126584501 ], [ -111.819161758617994, 39.718745560379702 ], [ -111.820985485069997, 39.718757906039698 ], [ -111.822908032491, 39.718740691074402 ], [ -111.824816825808, 39.718744264800399 ], [ -111.826700796875997, 39.718720953351998 ], [ -111.828525646222005, 39.718729568438299 ], [ -111.830448437087, 39.718732950073701 ], [ -111.832309396911, 39.718736742148401 ], [ -111.832312310147998, 39.722375885904803 ] ] ] } },
{ "type": "Feature", "properties": { "OBJECTID": 2306, "CountyID": 12, "VistaID": "12NE5:I", "PrecinctID": "12NE5", "SubPrecinctID": "I", "VersionNbr": "Current", "EffectiveDate": 1767916800000, "AliasName": " ", "Comments": "glenng", "RcvdDate": 1767830400000, "GlobalID": "d95cd160-f44a-4fad-8bd9-caff5f8b1ef3", "Shape__Area": 1998020.02734375, "Shape__Length": 7104.6183215681658 }, "geometry": { "type": "Polygon", "coordinates": [ [ [ -111.818599542607004, 39.704926892562497 ], [ -111.818608949764993, 39.704725992331298 ], [ -111.818809697180001, 39.704725746985098 ], [ -111.820737746782001, 39.704723216118097 ], [ -111.821078209172995, 39.704779375496301 ], [ -111.821716590641998, 39.704786391700601 ], [ -111.823163491798994, 39.703342997208303 ], [ -111.824882842997994, 39.700021206667103 ], [ -111.824927404825999, 39.6997064198315 ], [ -111.832268171425994, 39.699673509939302 ], [ -111.836160860809997, 39.699676282899901 ], [ -111.836150097195997, 39.699817425891403 ], [ -111.838057872720995, 39.699845404944497 ], [ -111.839957878717996, 39.699840684979101 ], [ -111.843868131961997, 39.699775156287799 ], [ -111.843866912948002, 39.701280358312196 ], [ -111.843883494950006, 39.7026129203511 ], [ -111.843906750535993, 39.705664814569403 ], [ -111.828565038245998, 39.705640348007599 ], [ -111.820004797867, 39.705618412271498 ], [ -111.818567777279995, 39.705608078146099 ], [ -111.818599542607004, 39.704926892562497 ] ] ] } },
{ "type": "Feature", "properties": { "OBJECTID": 2308, "CountyID": 12, "VistaID": "12NE6:I", "PrecinctID": "12NE6", "SubPrecinctID": "I", "VersionNbr": "Current", "EffectiveDate": 1767916800000, "AliasName": " ", "Comments": "glenng", "RcvdDate": 1767830400000, "GlobalID": "f81600c8-107e-4c55-9628-c595494db0a1", "Shape__Area": 8074723.4140625, "Shape__Length": 20480.694801271769 }, "geometry": { "type": "Polygon", "coordinates": [ [ [ -111.824927404825999, 39.6997064198315 ], [ -111.825082745098001, 39.6986090753702 ], [ -111.825349212361004, 39.696499628735097 ], [ -111.825574930246006, 39.695435100978401 ], [ -111.826538493762001, 39.693983295702303 ], [ -111.827496793150999, 39.692885077078998 ], [ -111.830735005053, 39.689394594042 ], [ -111.832332833058999, 39.687577344752697 ], [ -111.834226215775999, 39.685935810568502 ], [ -111.836324065832002, 39.6841505918389 ], [ -111.837138941101003, 39.683714398026702 ], [ -111.837127461530002, 39.679219330794503 ], [ -111.837125407982001, 39.675330844584003 ], [ -111.837079415136998, 39.671675133279898 ], [ -111.837024102271997, 39.666125556167799 ], [ -111.846433584766999, 39.666130250086702 ], [ -111.846461604119, 39.667805301838499 ], [ -111.846855298877998, 39.667804143599902 ], [ -111.846766626176006, 39.6642552447612 ], [ -111.852663270109005, 39.664180517553902 ], [ -111.854180539894998, 39.660541590927203 ], [ -111.855760913634995, 39.660516322762099 ], [ -111.855850663417002, 39.664193186235302 ], [ -111.865168239274993, 39.6640464465262 ], [ -111.865199173660002, 39.6659517571658 ], [ -111.859975993103006, 39.667798539108098 ], [ -111.859740451242004, 39.667802587065601 ], [ -111.857326551411006, 39.6686682899633 ], [ -111.857625603263998, 39.669166341117702 ], [ -111.856260631156005, 39.669812203444103 ], [ -111.855215041573004, 39.670306925266701 ], [ -111.854541463212996, 39.670625620825199 ], [ -111.854087169004003, 39.670840560737503 ], [ -111.853659013973996, 39.671086168688198 ], [ -111.853032318689003, 39.671470071239703 ], [ -111.852625274066995, 39.671736094674898 ], [ -111.851838166622002, 39.672291573479001 ], [ -111.851272443588996, 39.672727980491601 ], [ -111.850907472461998, 39.673027993415502 ], [ -111.851908475063993, 39.673758863721503 ], [ -111.851658049915997, 39.675078683993803 ], [ -111.851651119414001, 39.675287708859997 ], [ -111.851649250018994, 39.675443867962898 ], [ -111.851501692751, 39.675482239782603 ], [ -111.851356534882001, 39.675525693433002 ], [ -111.851214067468007, 39.675574136947397 ], [ -111.851074583358994, 39.675627474209598 ], [ -111.850938363728005, 39.675685595966002 ], [ -111.850805685254997, 39.675748384665503 ], [ -111.850676820131, 39.675815710311099 ], [ -111.850552027968007, 39.675887440831303 ], [ -111.850431562091998, 39.675963426177603 ], [ -111.850315669539, 39.676043514227203 ], [ -111.850204585667996, 39.676127540412203 ], [ -111.850098534159002, 39.676215333941897 ], [ -111.849997732404006, 39.676306717803598 ], [ -111.849902384320998, 39.676401505996203 ], [ -111.849812685743998, 39.676499504914403 ], [ -111.849728815435, 39.676600516113297 ], [ -111.849650945872995, 39.6767043356176 ], [ -111.849579236956998, 39.6768107476992 ], [ -111.849513830622001, 39.676919541470902 ], [ -111.849212154789996, 39.677996015609899 ], [ -111.849088234890999, 39.678962304682599 ], [ -111.849141719684994, 39.679073276346799 ], [ -111.849200971662995, 39.679182500736097 ], [ -111.849265893807001, 39.6792897967198 ], [ -111.849336381911996, 39.679394992155601 ], [ -111.849412322790997, 39.6794979162852 ], [ -111.849493589782, 39.679598401116301 ], [ -111.849580052627999, 39.679696283497101 ], [ -111.849671570294007, 39.679791404424599 ], [ -111.849767994557993, 39.679883609735697 ], [ -111.849773484162995, 39.682547964902902 ], [ -111.845227736636005, 39.682606226016503 ], [ -111.844439696739002, 39.683657709925697 ], [ -111.843820113416001, 39.683665558560797 ], [ -111.843827060986996, 39.684570533470897 ], [ -111.841484596984003, 39.684599837738403 ], [ -111.841474520581002, 39.690020001463203 ], [ -111.841470035293, 39.692797977313198 ], [ -111.837868792625002, 39.6927984176302 ], [ -111.837891872141995, 39.697342070761103 ], [ -111.838240874815995, 39.697296213745503 ], [ -111.841494949169004, 39.697291326337599 ], [ -111.843880520628005, 39.697255002193401 ], [ -111.843888903706002, 39.698412648028601 ], [ -111.843868131961997, 39.699775156287799 ], [ -111.839957878717996, 39.699840684979101 ], [ -111.838057872720995, 39.699845404944497 ], [ -111.836150097195997, 39.699817425891403 ], [ -111.836160860809997, 39.699676282899901 ], [ -111.832268171425994, 39.699673509939302 ], [ -111.824927404825999, 39.6997064198315 ] ] ] } },
{ "type": "Feature", "properties": { "OBJECTID": 2312, "CountyID": 12, "VistaID": "12NE3:I", "PrecinctID": "12NE3", "SubPrecinctID": "I", "VersionNbr": "Current", "EffectiveDate": 1767916800000, "AliasName": " ", "Comments": "glenng", "RcvdDate": 1767830400000, "GlobalID": "e4f9883d-3dc7-4778-9601-7bb4d1099d5a", "Shape__Area": 3181468.984375, "Shape__Length": 8438.8530977100399 }, "geometry": { "type": "Polygon", "coordinates": [ [ [ -111.832344507564002, 39.733815674481299 ], [ -111.832287520239007, 39.730018391704498 ], [ -111.832288833576001, 39.726634207065899 ], [ -111.832312310147998, 39.722375885904803 ], [ -111.832309396911, 39.718736742148401 ], [ -111.834218101293999, 39.718732954219497 ], [ -111.841839381214996, 39.7187563278517 ], [ -111.841831679959, 39.719274462175001 ], [ -111.842252531686, 39.719534503523299 ], [ -111.843038959107005, 39.7195387066797 ], [ -111.843981514622001, 39.719543700993803 ], [ -111.843981773337006, 39.719897310362398 ], [ -111.843989063164997, 39.721347066947601 ], [ -111.844168601356003, 39.721344949878201 ], [ -111.845958906885997, 39.7213281342367 ], [ -111.845946837122, 39.723271601272998 ], [ -111.846082667782994, 39.723320798253603 ], [ -111.850651857746001, 39.7233417375679 ], [ -111.850747874174999, 39.726901085383602 ], [ -111.847021969599993, 39.726904375420197 ], [ -111.847027567002996, 39.728915717042199 ], [ -111.847091180301007, 39.728915141544398 ], [ -111.847098807896998, 39.729371733629897 ], [ -111.846105741909994, 39.729382768190803 ], [ -111.846120234430003, 39.730774875940199 ], [ -111.843661508666003, 39.730792431256198 ], [ -111.843662970224997, 39.730874051568698 ], [ -111.841058255652001, 39.730900610066797 ], [ -111.841063244894997, 39.732444175054901 ], [ -111.839862457871007, 39.732425118276602 ], [ -111.836231430661996, 39.732380781627 ], [ -111.836216351542006, 39.733807991820498 ], [ -111.832507922792999, 39.733815351866298 ], [ -111.832344507564002, 39.733815674481299 ] ] ] } }
]
}
