{"type":"FeatureCollection","crs":{"type":"name","properties":{"name":"EPSG:4326"}},"features":[{"type":"Feature","id":1,"geometry":{"type":"Polygon","coordinates":[[[-111.86545817233,40.6699618750335],[-111.865485956323,40.6702111555702],[-111.865532050677,40.670624714206],[-111.867091586197,40.6706267950303],[-111.867111818054,40.6706724961555],[-111.867872094619,40.6705709329846],[-111.867320462559,40.6696954037022],[-111.867980417069,40.6696908795155],[-111.867966450063,40.6681940252667],[-111.867972869424,40.6665174759673],[-111.867339080143,40.6663426975372],[-111.867764068612,40.6659797908475],[-111.868049274732,40.6659865659215],[-111.868049636753,40.6660783601678],[-111.868210478308,40.6661106628326],[-111.868369719963,40.6661471219587],[-111.868716063625,40.6662428891616],[-111.868987810286,40.6663337236612],[-111.869282851162,40.666450776434],[-111.869566611892,40.6665828678557],[-111.869837902209,40.6667293764153],[-111.870095413269,40.6668897719022],[-111.87033783353,40.667063160927],[-111.870564205388,40.6672487434498],[-111.870871206433,40.6675481261369],[-111.871041320398,40.6677470145322],[-111.871052733494,40.6677603510506],[-111.871214858741,40.6679815503072],[-111.871356617385,40.6682106499805],[-111.871477527029,40.6684466640522],[-111.871618446646,40.6688109888606],[-111.871709677749,40.6691844268948],[-111.871750101937,40.6695630234188],[-111.871752224656,40.6696896687504],[-111.871803273219,40.6702223194583],[-111.871710171823,40.6713391900803],[-111.871702457091,40.6714281630426],[-111.871698815321,40.6733239151891],[-111.87057768371,40.6733247600213],[-111.87057785978,40.673520245737],[-111.870378019664,40.6735204017579],[-111.870378900911,40.6742887379676],[-111.871696663856,40.6742902368418],[-111.873842452507,40.6742926636554],[-111.880928550318,40.6742804328413],[-111.880974603349,40.6744980894892],[-111.881034173331,40.6745741182394],[-111.881157717733,40.6746741614586],[-111.881277249362,40.674730092966],[-111.881846675251,40.6747975438692],[-111.881988147331,40.674866279637],[-111.88249545382,40.6752386924729],[-111.882928193852,40.6754205085279],[-111.881862278987,40.676996419703],[-111.882288945509,40.6772553998396],[-111.882572859852,40.677438626764],[-111.882673466672,40.6775035303701],[-111.882776938219,40.677570393254],[-111.882937715096,40.6776668171482],[-111.883149140784,40.6778083464753],[-111.883466930596,40.6780654526963],[-111.883611412931,40.6781910967673],[-111.88406406502,40.6785876193103],[-111.884091702588,40.6786118136635],[-111.884323440083,40.6785081527135],[-111.884339947525,40.6785216294636],[-111.884366817033,40.6785401618641],[-111.884400071767,40.6785583740659],[-111.884427328449,40.6785704160666],[-111.884449204223,40.6785782669376],[-111.884483174914,40.6785880062675],[-111.884506431398,40.6785928718442],[-111.884554081634,40.6785990849578],[-111.884590307995,40.678600427726],[-111.884620348556,40.6785992975116],[-111.884652727432,40.6785959865762],[-111.884708899087,40.6785844759649],[-111.884753076436,40.6785696326145],[-111.884790136433,40.6785534928175],[-111.884818171056,40.6785439094919],[-111.884867135528,40.6785330849035],[-111.884897382702,40.6785296997071],[-111.884928016151,40.6785286532869],[-111.884968753851,40.6785311344472],[-111.88500860132,40.6785378557887],[-111.885057666403,40.6785526139884],[-111.88518862011,40.6786214262737],[-111.885275568046,40.6786217287541],[-111.88628770886,40.6786252461107],[-111.886719247844,40.6786247249451],[-111.887016958513,40.6786244197397],[-111.887533219408,40.6786237854846],[-111.888074043837,40.6785481885045],[-111.888075385022,40.6786581728647],[-111.888534272316,40.6786498676015],[-111.889322709268,40.6786498396697],[-111.889326089629,40.6796262463648],[-111.890574306801,40.6796489661124],[-111.891445088721,40.6798078229165],[-111.891805823393,40.6801321380327],[-111.892803261481,40.6804264863907],[-111.894389370066,40.6806997810632],[-111.894520089313,40.6805199488789],[-111.894692971886,40.6804578910385],[-111.894522485119,40.6796618717431],[-111.894513121979,40.679618154454],[-111.894548680891,40.6796225641981],[-111.894676958517,40.6795633259079],[-111.894766101936,40.6795731339003],[-111.894887642198,40.6796361524482],[-111.895515253764,40.6798208259352],[-111.89589287856,40.6797965461833],[-111.896094795581,40.679755701135],[-111.896082795886,40.6796637274723],[-111.897125721066,40.6798459783591],[-111.897581865804,40.6798444148911],[-111.8980942873,40.6813554913249],[-111.898875338304,40.6812095101597],[-111.899734691858,40.6810522834908],[-111.899739645168,40.6817374357919],[-111.899743954387,40.6819435185517],[-111.899864722995,40.6819396941363],[-111.899867075683,40.6823347011378],[-111.900706793861,40.6823147896315],[-111.900707388546,40.6827751540699],[-111.899742279927,40.6827958324918],[-111.899754791662,40.6835502018697],[-111.899754887782,40.6838300982741],[-111.900095412157,40.6838173535345],[-111.900339670371,40.6838092328405],[-111.900726580153,40.6837963055329],[-111.901007698938,40.6836657570923],[-111.902005967069,40.6832021112599],[-111.902970935551,40.6827513679161],[-111.902972508501,40.6830242034532],[-111.903005996796,40.6830241217071],[-111.903009487649,40.6838964840973],[-111.905372505106,40.6838908586791],[-111.905601791997,40.683904465133],[-111.905610121177,40.6838028730714],[-111.906865073019,40.6838014009783],[-111.907987605103,40.6837910452344],[-111.907981046503,40.6827060156805],[-111.910437863346,40.6826918919355],[-111.910432336012,40.6822248413767],[-111.912377837186,40.6822172000714],[-111.912536955772,40.6823398402933],[-111.912681684246,40.6824095036046],[-111.912991078403,40.6826485758292],[-111.913215477561,40.6828937257094],[-111.913404910695,40.6831694217698],[-111.913422603014,40.6831998203326],[-111.913462935574,40.6832416612503],[-111.913590741584,40.6832678560044],[-111.913857157643,40.6832447580535],[-111.914070866849,40.6831575754276],[-111.914213431282,40.6831379782077],[-111.914638331716,40.6830011537843],[-111.914988275825,40.6829198681464],[-111.915222939133,40.6829460248788],[-111.9156526213,40.6830585579085],[-111.915881015266,40.6831453905189],[-111.916297837151,40.683338378719],[-111.916652540534,40.683566453538],[-111.916872992495,40.683626050675],[-111.917351820592,40.6837235032927],[-111.917372168332,40.6837748712788],[-111.917286117813,40.6840324783352],[-111.917050111523,40.6843401937621],[-111.916842319519,40.6847469590298],[-111.91681999908,40.6851797237205],[-111.917187124367,40.6854433743364],[-111.917481007313,40.6855833749086],[-111.917741405558,40.6855881514199],[-111.917849386649,40.6855834185048],[-111.918113530868,40.6856011376436],[-111.918166875524,40.6855561211309],[-111.91840939999,40.6855076182481],[-111.918617244096,40.6854935577665],[-111.918847699695,40.6855136794925],[-111.918985467124,40.6855322215293],[-111.919231297389,40.6856037738522],[-111.919466862606,40.6856258607799],[-111.919709307122,40.6856404144155],[-111.919875170259,40.6856625163172],[-111.919937060589,40.6856623828039],[-111.920178540314,40.6857186538613],[-111.920318475377,40.6857656443506],[-111.920616173469,40.6858395730892],[-111.920818515394,40.6859584035778],[-111.920879048369,40.6860229630636],[-111.920990991928,40.686099723206],[-111.921090353683,40.6863284677156],[-111.918229111706,40.686943393674],[-111.917669875407,40.6870250436023],[-111.917102573135,40.6870622528473],[-111.911183603373,40.6870613768551],[-111.905504467621,40.6870570541125],[-111.903909772041,40.6868194724522],[-111.90329182455,40.6867524226661],[-111.902981552739,40.686736652006],[-111.901923748763,40.6867063640451],[-111.901103497975,40.6866964637807],[-111.900584124417,40.6866902473348],[-111.899758665198,40.6866802884865],[-111.897441938826,40.686712374092],[-111.893988274986,40.6870447404933],[-111.891188226246,40.6870508050038],[-111.889628727556,40.687053464315],[-111.881662081341,40.6870639523812],[-111.872982058704,40.6870658637607],[-111.871629127615,40.6870640143682],[-111.871369020424,40.6870715331874],[-111.868998473289,40.687062375459],[-111.868351020633,40.6870537340607],[-111.868305229011,40.6870542585662],[-111.866604516955,40.6870731632411],[-111.865517910296,40.6870569921255],[-111.86351927557,40.6870719589223],[-111.862697943211,40.6870699916865],[-111.861914477536,40.6870677356321],[-111.861624516633,40.6870662969886],[-111.859807776379,40.6870537163501],[-111.859818086344,40.6858302762291],[-111.859817912071,40.6849879745],[-111.859820971732,40.6842132138577],[-111.859802228384,40.6836755420011],[-111.859820291708,40.6827790526903],[-111.859815106632,40.6819151685513],[-111.859803963929,40.6804954990709],[-111.859804676293,40.6787090903531],[-111.859806575332,40.6783964785698],[-111.859809934133,40.6781973644196],[-111.859833955083,40.677856660799],[-111.859923336556,40.677169539914],[-111.859924882556,40.6761848897706],[-111.85993338511,40.6753731517027],[-111.859936726843,40.6748965729784],[-111.859936859794,40.6748030569588],[-111.859928717464,40.6747280299836],[-111.859933717487,40.6746430300137],[-111.859940171882,40.6745397662243],[-111.859944312218,40.6743030297318],[-111.859944410134,40.6742974443823],[-111.858921739268,40.6743068389153],[-111.858922717534,40.674031029893],[-111.858928717382,40.6731880299165],[-111.858931717755,40.672907030054],[-111.858685717707,40.6729060298754],[-111.857949717215,40.6729040301994],[-111.857704716993,40.6729040301994],[-111.857579717319,40.6729030300208],[-111.85720671705,40.672902029842],[-111.857082717202,40.672902029842],[-111.857079716829,40.6728000299332],[-111.857073716981,40.6724940299518],[-111.857071717331,40.6723930302865],[-111.857013716707,40.6723190300838],[-111.856963716478,40.6723110299465],[-111.856903717102,40.6723030298083],[-111.856533717206,40.6723050301836],[-111.856390717091,40.6723060296899],[-111.856389716368,40.6722360301455],[-111.856389716368,40.6720290302842],[-111.856389716368,40.6719600299605],[-111.856388716543,40.6717910298634],[-111.856385717068,40.6712860301333],[-111.856384716345,40.6711180298961],[-111.856372716649,40.6709610301596],[-111.856364716253,40.6708350297479],[-111.856358716405,40.6704910296287],[-111.856356716756,40.6703350299959],[-111.855918716189,40.6703350299959],[-111.854607715762,40.6703360302131],[-111.854170715919,40.6703370297489],[-111.854168716269,40.6702240296418],[-111.854165715896,40.6699260298461],[-111.854168716269,40.6698880302063],[-111.854178716315,40.6697770297895],[-111.854185715988,40.669593029594],[-111.854197715683,40.6693130298036],[-111.854222715798,40.6690440300778],[-111.854240716239,40.6688620297011],[-111.85426471563,40.6686090300033],[-111.854284715722,40.6678470298381],[-111.854291715395,40.6675940296964],[-111.854295715593,40.6675340298424],[-111.854300715615,40.6674790298721],[-111.854304715813,40.6673540292754],[-111.854306715463,40.6672940298869],[-111.854392715677,40.6673310293799],[-111.85447171532,40.6674790298721],[-111.854579716173,40.6677240297625],[-111.854637715899,40.6678530293208],[-111.854868715878,40.6682700298622],[-111.855034715559,40.6684340294783],[-111.855179716223,40.6684840294805],[-111.85558271573,40.6685280293423],[-111.855762716554,40.6685340294452],[-111.855856716265,40.6685380297405],[-111.856288716085,40.6684770298095],[-111.856471716383,40.6684500293195],[-111.85674371637,40.66841202952],[-111.856960716105,40.668329029488],[-111.857007715961,40.6683130296177],[-111.857183716586,40.6682540292964],[-111.857320716853,40.6682080294369],[-111.857451716375,40.6681820297689],[-111.857573716573,40.6681590294776],[-111.857767716742,40.6681750293848],[-111.858114716173,40.6683780293223],[-111.858229716699,40.668389029308],[-111.858337716654,40.6684000292919],[-111.858507716534,40.6683830291922],[-111.858885716826,40.6683450293544],[-111.85958271696,40.6682760293068],[-111.8598447169,40.6682510292324],[-111.860022717176,40.6682310290299],[-111.860075716879,40.6682240293323],[-111.86012371656,40.6682180292017],[-111.860187717032,40.6682090290046],[-111.860295716987,40.6681940293549],[-111.860334717345,40.6681840289051],[-111.860396717269,40.6681670294317],[-111.860416717361,40.6681620295457],[-111.860429716881,40.6681580292278],[-111.860825716716,40.6681190290114],[-111.861045716825,40.6680700289867],[-111.861272717504,40.6680200293555],[-111.86161871711,40.6679760291585],[-111.862029717014,40.6678500292388],[-111.862231717578,40.667729029],[-111.86239771726,40.6675860289921],[-111.862512717786,40.6674930287415],[-111.862772717178,40.6674050289857],[-111.862855717019,40.6673860287909],[-111.863233717311,40.667300028738],[-111.863503717648,40.6672940292055],[-111.863807717421,40.6672870287282],[-111.864308717737,40.6672780290869],[-111.864718717815,40.6672310289718],[-111.864841717839,40.6672170286847],[-111.86495771819,40.6671730286392],[-111.865014718092,40.6671700285267],[-111.865017717566,40.6672060285057],[-111.865028717437,40.6673150285888],[-111.865032717635,40.6673520287515],[-111.865050718077,40.6675440290269],[-111.865052717726,40.6675630284953],[-111.865124717696,40.6681200285805],[-111.865150717636,40.6683130289364],[-111.865191717643,40.6686590291929],[-111.865199841109,40.6687265496045],[-111.865316718215,40.6696980289568],[-111.865349022531,40.6699649261218],[-111.86545817233,40.6699618750335]]]},"properties":{"OBJECTID_12":1,"OBJECTID":120,"CITY":"Millcreek CITY","DIST":"District 1","COUNCILMEMBER":"Silvia Catten","WEB":"https://millcreek.us/489/Silvia-Catten","PICTURE":"https://www.millcreekut.gov/ImageRepository/Document?documentID=5986","Pop":"16,161","Shape__Area":9489015.74609375,"Shape__Length":23269.187751597681}},{"type":"Feature","id":2,"geometry":{"type":"Polygon","coordinates":[[[-111.82967643122,40.6870929704683],[-111.834036426011,40.6870939329694],[-111.834043714043,40.6870940331023],[-111.834041714393,40.6875970337418],[-111.834039714744,40.6891090338034],[-111.834039714744,40.6894480335664],[-111.834026714325,40.689613033466],[-111.834031714348,40.6898350334542],[-111.834043714942,40.6903970336895],[-111.834046714416,40.690501033749],[-111.834051714439,40.6907230335033],[-111.834043714942,40.6909340335292],[-111.834037715094,40.6910980339304],[-111.834013714804,40.6912300336113],[-111.833974714446,40.6913500342089],[-111.833902714476,40.6914550340436],[-111.833836714354,40.691518033865],[-111.833697714437,40.6916640340006],[-111.833594714505,40.6916750342312],[-111.833372714747,40.691699033799],[-111.833286714533,40.6917040339633],[-111.833134715096,40.6916900340472],[-111.833151714814,40.69185403395],[-111.833153714464,40.6918720340891],[-111.833168714532,40.6919920342116],[-111.833214714563,40.6923400339577],[-111.83323571448,40.6924970337492],[-111.833256714396,40.692685034284],[-111.833298715127,40.6930450343783],[-111.833334715112,40.6932490340679],[-111.833339715135,40.6932770339231],[-111.833360715051,40.6934380343947],[-111.833373714572,40.6936020340818],[-111.833381714968,40.6936940341448],[-111.833408714732,40.6938010341026],[-111.83341271493,40.693905034298],[-111.833407714907,40.6940920344048],[-111.833407714907,40.6941120343414],[-111.833384715341,40.694255033986],[-111.833384715341,40.6943480343664],[-111.833394715387,40.6944890344759],[-111.833393714663,40.6945010340947],[-111.833380715143,40.6948510340571],[-111.833401715059,40.6949610344245],[-111.833430715372,40.6951130342618],[-111.833449715638,40.6951590346282],[-111.83350671554,40.6952990345409],[-111.833526715631,40.6953460346207],[-111.833569715289,40.6954510342881],[-111.833579715334,40.6954750345391],[-111.83372271545,40.6957020346127],[-111.833754715237,40.6957380341693],[-111.83383171523,40.6958230344829],[-111.83387771526,40.6959200347324],[-111.8339037152,40.6959930341038],[-111.833933715337,40.6960740340871],[-111.834011715155,40.6962350346107],[-111.834049715688,40.6963870342658],[-111.834068715954,40.6965220345199],[-111.834072715254,40.6965500343618],[-111.834087715323,40.6967070344491],[-111.834087715323,40.6970010344504],[-111.834090715696,40.697886034935],[-111.834091715521,40.6981810349811],[-111.834087715323,40.6983670348674],[-111.834079715825,40.6989280348611],[-111.834077716175,40.6991150344903],[-111.834077716175,40.6992670350658],[-111.834077716175,40.6997250349449],[-111.834078675576,40.6998718193673],[-111.834066854645,40.699871677029],[-111.832633682441,40.6998704102853],[-111.832621582134,40.6998703993886],[-111.831316859134,40.699852124906],[-111.83130511456,40.699851960093],[-111.830623293259,40.6998496615655],[-111.830373405303,40.6998547408004],[-111.830136219526,40.6998595612378],[-111.829381939216,40.6998748016632],[-111.827109242869,40.6998703884919],[-111.82446610286,40.6998694765726],[-111.820779954126,40.6998525035671],[-111.817345095619,40.6998642618109],[-111.817127231704,40.699858597559],[-111.814959913131,40.699856802324],[-111.810186022267,40.6998435614434],[-111.809281689169,40.699842697197],[-111.807675446644,40.6998422354483],[-111.806723781313,40.6998425841434],[-111.804833471732,40.6998431657561],[-111.803642704518,40.6998433544056],[-111.802459049265,40.6998443814219],[-111.800667187853,40.6998622282103],[-111.800522836671,40.6998668327559],[-111.79929952529,40.6998577578303],[-111.797708279241,40.6998459532743],[-111.796704832322,40.6998453525924],[-111.795752390847,40.6998448629209],[-111.795332312569,40.6998453253506],[-111.795024741094,40.6998507498757],[-111.795024707856,40.6998520377322],[-111.795014707811,40.7002400382537],[-111.795021708382,40.7003240378233],[-111.79503670845,40.7011840377651],[-111.795065708762,40.7027940381983],[-111.795090708877,40.7032880385868],[-111.795124708314,40.7037660385023],[-111.795161709022,40.7039970384558],[-111.795341708947,40.7046930380621],[-111.795578708773,40.7053680382384],[-111.795657709315,40.7055530387973],[-111.795661708614,40.7055650384661],[-111.795675708858,40.7056030381976],[-111.795679709056,40.7056170385949],[-111.795911708859,40.7060040385401],[-111.796126708945,40.7063620388114],[-111.796340709205,40.7066690382438],[-111.796899709247,40.7073650385275],[-111.797158709713,40.707634038871],[-111.797177709081,40.7076480388414],[-111.797765709435,40.7081820389205],[-111.797966710175,40.7083570386014],[-111.798204709826,40.7085380384102],[-111.798465709942,40.708737038757],[-111.798924710425,40.7090530382673],[-111.799553709888,40.709500038942],[-111.799604709942,40.7095300387154],[-111.800053710379,40.7098720383082],[-111.800123710699,40.7098380388295],[-111.800154710661,40.7098220387083],[-111.800259710243,40.7097710387645],[-111.800295710228,40.7097540383206],[-111.800473710503,40.7098540382659],[-111.800798022084,40.7101449664005],[-111.805293473837,40.7143553817502],[-111.804024841551,40.7136668430175],[-111.803404418304,40.7133867192393],[-111.802457375704,40.7130419589035],[-111.800551532455,40.7123725900695],[-111.797975401375,40.7113197980388],[-111.796324048151,40.7113222827447],[-111.795892610676,40.7114584954205],[-111.79462057737,40.7118602129237],[-111.794114569845,40.7119783739619],[-111.793495700683,40.7120934345617],[-111.793103627384,40.712115947816],[-111.792713042593,40.7121342155292],[-111.790996628885,40.7122829200298],[-111.790642626187,40.7122812007117],[-111.789950988097,40.7123804369583],[-111.789922655233,40.710964844351],[-111.789982721085,40.7109385787733],[-111.790012273861,40.7109248634434],[-111.790041466413,40.7109107000572],[-111.790070418216,40.7108961784977],[-111.790098892116,40.7108813008074],[-111.79013465225,40.7108619568769],[-111.790243208263,40.7108014866302],[-111.790288380945,40.7107771248781],[-111.790317092,40.7107623343206],[-111.790346164177,40.7107479918144],[-111.790375476205,40.7107340081571],[-111.790405148457,40.7107203826683],[-111.790435063254,40.7107072052314],[-111.79046533648,40.7106943859633],[-111.79049585225,40.7106820154285],[-111.790526727346,40.7106700023821],[-111.790557844089,40.7106584387504],[-111.790589201581,40.7106472326074],[-111.790620802516,40.7106364772415],[-111.790652645098,40.7106261692481],[-111.790684729326,40.7106163099894],[-111.790717055202,40.710606810263],[-111.790749622724,40.7105977585907],[-111.790782312417,40.7105891563345],[-111.790815246452,40.7105810028137],[-111.790848302658,40.7105733000712],[-111.790876640014,40.7105668897437],[-111.790913483517,40.710558980676],[-111.790934743945,40.710554871229],[-111.790956244223,40.7105509401869],[-111.790977747196,40.7105473700405],[-111.790999372339,40.7105440681826],[-111.791021001975,40.7105410373371],[-111.791042752883,40.7105383660256],[-111.791064507384,40.7105359643646],[-111.791086383158,40.7105337424706],[-111.791108263423,40.7105319713562],[-111.791130264063,40.7105303800088],[-111.791152269194,40.7105291475146],[-111.79117427702,40.7105280947876],[-111.79119628844,40.7105274036375],[-111.791218304351,40.7105270740645],[-111.791240322957,40.7105269222158],[-111.791262344257,40.7105271312631],[-111.791272884191,40.7105274192991],[-111.79128437005,40.710527611323],[-111.791306398537,40.7105284509171],[-111.791328312939,40.7105294723211],[-111.791350348613,40.7105308525784],[-111.79165425586,40.7105517402864],[-111.791669894631,40.7105527140245],[-111.791685649284,40.7105535073147],[-111.791701280868,40.7105540302733],[-111.791717032827,40.710554372784],[-111.791732778497,40.7105545348467],[-111.791748522371,40.7105544272589],[-111.791764264448,40.710554139904],[-111.791780004728,40.7105536707393],[-111.791795742314,40.7105530211265],[-111.791811357728,40.710552104587],[-111.791827090822,40.7105510055567],[-111.791842700847,40.7105496368758],[-111.791858310871,40.7105480877468],[-111.791873916405,40.7105463602126],[-111.791889402462,40.7105444522305],[-111.791904884926,40.7105422739166],[-111.791920365593,40.7105399158357],[-111.791935725886,40.7105373779876],[-111.791951083484,40.7105346596913],[-111.791966320708,40.7105316731062],[-111.791981436659,40.7105285060729],[-111.791996549017,40.7105251592724],[-111.792024052736,40.7105183941725],[-111.792335642376,40.7104383323802],[-111.792324128669,40.7077491743931],[-111.79124589341,40.7077372915628],[-111.786475560773,40.7077625035895],[-111.781719546384,40.7077876025667],[-111.776963404434,40.7078122350741],[-111.77691981638,40.7041840538186],[-111.776874811683,40.7005552499393],[-111.776829579711,40.696926715579],[-111.776777384899,40.6932992170689],[-111.776737612888,40.6905346820945],[-111.77672520356,40.6896720761897],[-111.776662024148,40.6870470040414],[-111.7766582108,40.6868885793275],[-111.776635328913,40.6859378180974],[-111.77658621622,40.6838970290639],[-111.776545505469,40.6822052404765],[-111.776559982718,40.6820017758026],[-111.776593952511,40.681524375893],[-111.776620759137,40.681147636895],[-111.776648162245,40.6807625124251],[-111.776680666885,40.6803056745162],[-111.776730154176,40.6796101524675],[-111.776769230891,40.6790609356753],[-111.776814494303,40.6784247673903],[-111.776819135,40.6778042247887],[-111.776841875851,40.6747668696353],[-111.776869437062,40.6711091575008],[-111.776896791661,40.6674515274851],[-111.786387021921,40.6674639435234],[-111.78641722328,40.6638106470156],[-111.800722614804,40.6638455626355],[-111.800760909985,40.6602222050648],[-111.803960268852,40.6602241158511],[-111.803957378972,40.6607125836738],[-111.80579994579,40.6607034972832],[-111.806077973473,40.6607021234895],[-111.805898088532,40.6617575696193],[-111.805777257041,40.6625007243154],[-111.805700199556,40.6637062564262],[-111.805694640781,40.6638636766393],[-111.805592602046,40.6667393116703],[-111.805563469682,40.6675628131807],[-111.805562573163,40.6675866020285],[-111.80550988787,40.6690681672534],[-111.805502693263,40.6691485737945],[-111.805478298613,40.6694220666428],[-111.805447126174,40.6697714583693],[-111.805366671261,40.6702237121337],[-111.805284851806,40.6705133695736],[-111.805253076598,40.6706258377421],[-111.805139262747,40.6709902194602],[-111.805058877902,40.6711533852416],[-111.80504247736,40.6711865616491],[-111.804900808548,40.6714289806455],[-111.804680770711,40.6717070788085],[-111.804356647776,40.6722049016502],[-111.803212034204,40.673693075197],[-111.802630794571,40.6744487064896],[-111.802717640998,40.67448447839],[-111.803333670585,40.6747382202164],[-111.803233368294,40.6748397238985],[-111.80317234394,40.6749014967351],[-111.803055190152,40.6750086140734],[-111.802915671907,40.6751158865755],[-111.802827725942,40.6751723511682],[-111.802614956374,40.6753972436656],[-111.802019162237,40.675937396107],[-111.801814853002,40.676167634129],[-111.801587138162,40.6764097461508],[-111.801256931837,40.6768084164669],[-111.800651063992,40.6775073638966],[-111.799842677254,40.6784400426944],[-111.799534185904,40.678795947705],[-111.79883760169,40.6798088332103],[-111.798794223841,40.6798921929585],[-111.798551883531,40.6803585329742],[-111.798302044084,40.6808511396863],[-111.798094552118,40.6814120991419],[-111.798004824794,40.68172711992],[-111.797950363531,40.68218125997],[-111.79790440123,40.6825641731712],[-111.797871572298,40.6828379005091],[-111.797811735517,40.6836949435556],[-111.797807551164,40.6844256595723],[-111.798015663866,40.6858206442228],[-111.798067370894,40.686167028412],[-111.798090118932,40.6863875807865],[-111.798105778364,40.6867180885066],[-111.798167383928,40.687011343102],[-111.800284850495,40.6870159294628],[-111.803586253487,40.6870230041605],[-111.805442302221,40.6870269406783],[-111.807569140912,40.6870430552636],[-111.809600671045,40.6870584116962],[-111.810875950863,40.6870680333059],[-111.814946621658,40.6870986541973],[-111.815713254701,40.6870975929258],[-111.81759187181,40.687094761279],[-111.820171794679,40.6870908240839],[-111.822808394953,40.6870867417983],[-111.824495140003,40.6870840988366],[-111.824828922521,40.6870844639468],[-111.82765661961,40.6870877029371],[-111.828516606476,40.6870886879172],[-111.82967643122,40.6870929704683]]]},"properties":{"OBJECTID_12":2,"OBJECTID":121,"CITY":"Millcreek CITY","DIST":"District 4","COUNCILMEMBER":"Bev Uipi","WEB":"https://millcreek.us/492/Bev-Uipi","PICTURE":"https://www.millcreekut.gov/ImageRepository/Document?documentID=5988","Pop":"16,124","Shape__Area":24215256.95703125,"Shape__Length":31781.715047007212}},{"type":"Feature","id":3,"geometry":{"type":"Polygon","coordinates":[[[-111.855369155645,40.7062999131037],[-111.853171065281,40.7063012246697],[-111.853170972755,40.7063012246697],[-111.853106582413,40.7063012267126],[-111.852951146021,40.7063012287556],[-111.852870642599,40.7060780503763],[-111.852872293702,40.7060780571861],[-111.852970017829,40.7060784548793],[-111.853090717267,40.706078946548],[-111.852993017395,40.7058077655402],[-111.852946641869,40.7056790410004],[-111.852835620879,40.7056785282182],[-111.852825407933,40.7056784812302],[-111.852338739339,40.7056762339776],[-111.852338503082,40.7060754946526],[-111.851770171341,40.7060568984061],[-111.851175057229,40.7060545306325],[-111.850579942218,40.7060520716074],[-111.849984828105,40.7060496983858],[-111.849389712195,40.7060472325506],[-111.848794597184,40.7060448538811],[-111.848332664601,40.7060429341932],[-111.848076128213,40.7060419365547],[-111.847621416288,40.7060401421675],[-111.847027366679,40.7060376552215],[-111.846470845987,40.7060354318154],[-111.845896210768,40.7060330674461],[-111.845321339292,40.7060307023956],[-111.84417195297,40.7060260512884],[-111.843656210403,40.7060322318812],[-111.84364848579,40.7060321590161],[-111.843680757766,40.7082641231504],[-111.843695963549,40.7093188224826],[-111.841354679034,40.7093151644278],[-111.841256269493,40.7093150084907],[-111.8412446417,40.7084098237373],[-111.840833788222,40.7084137181341],[-111.839066522682,40.7084087403336],[-111.838806036402,40.7084052286347],[-111.838806319372,40.7083255163573],[-111.838806279846,40.7081792919278],[-111.838847711943,40.7081791713978],[-111.83884744155,40.70810666682],[-111.838846420166,40.7078333524387],[-111.838846400403,40.7078281056142],[-111.838842508901,40.7067725198772],[-111.838842489138,40.7067687465979],[-111.838709711851,40.7067685416245],[-111.838687227918,40.7067683053264],[-111.836092610408,40.7067645994633],[-111.836086648289,40.7067645906106],[-111.836086145233,40.7066581126724],[-111.836056776611,40.706659627162],[-111.8359499795,40.7066651348922],[-111.835948050817,40.7066339795742],[-111.835674273963,40.7066272229317],[-111.835470364479,40.7066229048633],[-111.835409153275,40.7066214850285],[-111.834995837515,40.7066075393204],[-111.834626813189,40.7065950726897],[-111.83462810856,40.7067840644354],[-111.834627906439,40.7069610882355],[-111.83462783098,40.7070272957526],[-111.834626687425,40.7073718822591],[-111.834212503892,40.7073741553312],[-111.834208024892,40.7074514805945],[-111.834204602311,40.7075092504449],[-111.834204744245,40.7076914932763],[-111.834204809822,40.707857970629],[-111.834204785567,40.7078940044741],[-111.834205395523,40.7079618344777],[-111.834207661074,40.7082192826554],[-111.834205380252,40.7084728906023],[-111.834205453914,40.708516671358],[-111.834205574288,40.7088298085051],[-111.834205897681,40.7091783467699],[-111.834206009971,40.7093486064771],[-111.834206145616,40.7095302184851],[-111.83420962569,40.7096046921692],[-111.834212461671,40.7096663817131],[-111.834212715894,40.7099049264716],[-111.834213254884,40.7102326537012],[-111.834094273024,40.7102322512663],[-111.833975646898,40.7102319373533],[-111.832593904142,40.7102452456246],[-111.832660164775,40.7105561030417],[-111.832669094928,40.7105981991558],[-111.83270920201,40.7107861881019],[-111.832748059536,40.7109689619439],[-111.832819977759,40.7113060834683],[-111.832821094365,40.7113119183405],[-111.832823145219,40.7113226361463],[-111.832777401208,40.7113570182292],[-111.832852544383,40.7114018804438],[-111.832895005052,40.7114556239534],[-111.832907918334,40.7115132752537],[-111.832924650355,40.7115132929577],[-111.833169587695,40.7115133501555],[-111.833974838414,40.7115144015052],[-111.833974777328,40.7115231200801],[-111.833974589581,40.7115502726732],[-111.833973613112,40.7116914277109],[-111.833366988885,40.7116926063906],[-111.833359315476,40.7116926213709],[-111.833357680542,40.7118844251577],[-111.833291144126,40.7118860028542],[-111.832908060268,40.7118950883976],[-111.832904338548,40.711895172151],[-111.832904422091,40.711921961661],[-111.83290562763,40.7120770087265],[-111.832905480306,40.7120869957819],[-111.832285417283,40.7120934120914],[-111.832285977832,40.7122032219271],[-111.831101845574,40.71220247564],[-111.831103572136,40.7121414748125],[-111.829706399917,40.7121448426403],[-111.829653924829,40.7121449692913],[-111.829596770418,40.7121451068371],[-111.82959285556,40.7120521646685],[-111.829592070432,40.7120335251501],[-111.829419101621,40.7120333338114],[-111.828983546269,40.7120328517196],[-111.828985529749,40.7123073282143],[-111.828156412589,40.7123073111914],[-111.827962393556,40.712307305744],[-111.827737041286,40.7123072996158],[-111.824816243699,40.7123071811361],[-111.824815785559,40.7123716469993],[-111.824815021092,40.7126574681722],[-111.824744214085,40.7128334672466],[-111.824862405427,40.7129805823013],[-111.825108099149,40.7131136233125],[-111.825198128306,40.7131623730154],[-111.825360333504,40.7132023484941],[-111.825396380201,40.7132112329897],[-111.825594633893,40.7132600936091],[-111.825774863787,40.7133045099088],[-111.825818107786,40.7133190207295],[-111.826041537662,40.7133939892806],[-111.826265017843,40.7134513447512],[-111.826481816356,40.7135708423056],[-111.826554831422,40.713590736301],[-111.826401052422,40.7139009652882],[-111.824994008616,40.7135172087673],[-111.823846347958,40.7132041808193],[-111.823763388542,40.7131577462381],[-111.823763252896,40.7131292706126],[-111.822954666733,40.7129570343544],[-111.822023069766,40.712706045257],[-111.822109948532,40.7125824402331],[-111.822916772201,40.7114105636253],[-111.822975017167,40.711321676038],[-111.821559782522,40.7113210107714],[-111.820367630106,40.7113213818772],[-111.819757051495,40.7113177402746],[-111.819201464153,40.7113170518565],[-111.817488331991,40.7113111795336],[-111.815200190011,40.7113146604375],[-111.814977506635,40.7113149709407],[-111.814977869555,40.7117525140662],[-111.814980620196,40.7121916612853],[-111.814715268641,40.7120539105484],[-111.814590785499,40.7119892877658],[-111.814305520091,40.7117601404088],[-111.814184095712,40.7116566787824],[-111.813660958213,40.711658115533],[-111.813659325974,40.711310126138],[-111.813684287461,40.7113085988165],[-111.813592012515,40.7107791867446],[-111.813451614819,40.7109548516798],[-111.812973959023,40.71073381341],[-111.812999962556,40.7107012000725],[-111.812642810365,40.7106540773636],[-111.812343898649,40.7105577175403],[-111.812002439128,40.7104476033359],[-111.812003065254,40.7105868704344],[-111.81079954286,40.7099904956793],[-111.810664815331,40.7098144244006],[-111.810246233646,40.7095930078251],[-111.809951296975,40.709334109091],[-111.809298334053,40.7087608231255],[-111.806860974719,40.708193182149],[-111.806572427764,40.7081931685298],[-111.806572433154,40.7081382736068],[-111.806461116619,40.7081388844283],[-111.806187975772,40.7086210210626],[-111.806190445241,40.7091699343154],[-111.805826693128,40.709395143814],[-111.805819660218,40.7090812350843],[-111.80527862738,40.7090813038603],[-111.80527854204,40.708682783018],[-111.804229643961,40.7085729605671],[-111.803699465467,40.7086003370357],[-111.80290945287,40.7085403128044],[-111.802638799458,40.7084359643353],[-111.802516006946,40.7083124760001],[-111.802515946758,40.7083124760001],[-111.802515903639,40.7083124324187],[-111.802231668599,40.7083124256092],[-111.80223232886,40.708355872801],[-111.802178710218,40.7083560382738],[-111.802180441271,40.7085810877765],[-111.802056675883,40.7086016444706],[-111.80174293927,40.7086537334764],[-111.80125469054,40.7088381052405],[-111.801312637266,40.7089039629248],[-111.801267710722,40.7089260387241],[-111.80138715162,40.7090610625945],[-111.800689083389,40.7089390517231],[-111.800671635412,40.7089301332907],[-111.799385291044,40.7088217024356],[-111.799385230857,40.7088216976689],[-111.799449360687,40.7088817652275],[-111.800798022084,40.7101449664005],[-111.800473710503,40.7098540382659],[-111.800295710228,40.7097540383206],[-111.800259710243,40.7097710387645],[-111.800154710661,40.7098220387083],[-111.800123710699,40.7098380388295],[-111.800053710379,40.7098720383082],[-111.799604709942,40.7095300387154],[-111.799553709888,40.709500038942],[-111.798924710425,40.7090530382673],[-111.798465709942,40.708737038757],[-111.798204709826,40.7085380384102],[-111.797966710175,40.7083570386014],[-111.797765709435,40.7081820389205],[-111.797177709081,40.7076480388414],[-111.797158709713,40.707634038871],[-111.796899709247,40.7073650385275],[-111.796340709205,40.7066690382438],[-111.796126708945,40.7063620388114],[-111.795911708859,40.7060040385401],[-111.795679709056,40.7056170385949],[-111.795675708858,40.7056030381976],[-111.795661708614,40.7055650384661],[-111.795657709315,40.7055530387973],[-111.795578708773,40.7053680382384],[-111.795341708947,40.7046930380621],[-111.795161709022,40.7039970384558],[-111.795124708314,40.7037660385023],[-111.795090708877,40.7032880385868],[-111.795065708762,40.7027940381983],[-111.79503670845,40.7011840377651],[-111.795021708382,40.7003240378233],[-111.795014707811,40.7002400382537],[-111.795024707856,40.6998520377322],[-111.795024741094,40.6998507498757],[-111.795332312569,40.6998453253506],[-111.795752390847,40.6998448629209],[-111.796704832322,40.6998453525924],[-111.797695986694,40.6998458620142],[-111.797708279241,40.6998459532743],[-111.800522836671,40.6998668327559],[-111.80053482379,40.6998664506896],[-111.800667187853,40.6998622282103],[-111.802458695329,40.6998443848271],[-111.803642704518,40.6998433544056],[-111.804833471732,40.6998431657561],[-111.806723781313,40.6998425841434],[-111.807675446644,40.6998422354483],[-111.809281689169,40.699842697197],[-111.810186022267,40.6998435614434],[-111.814959913131,40.699856802324],[-111.817127231704,40.699858597559],[-111.817345095619,40.6998642618109],[-111.820779954126,40.6998525035671],[-111.82446610286,40.6998694765726],[-111.824733592405,40.6998695691947],[-111.825460713949,40.6998540352376],[-111.826037714432,40.6998420352209],[-111.826938964512,40.699870329922],[-111.827109242869,40.6998703884919],[-111.829381939216,40.6998748016632],[-111.830136219526,40.6998595612378],[-111.830623293259,40.6998496615655],[-111.83130511456,40.699851960093],[-111.831316859134,40.699852124906],[-111.832621582134,40.6998703993886],[-111.832633682441,40.6998704102853],[-111.834066854645,40.699871677029],[-111.834078675576,40.6998718193673],[-111.834077716175,40.6997250349449],[-111.834077716175,40.6992670350658],[-111.834077716175,40.6991150344903],[-111.834079715825,40.6989280348611],[-111.834087715323,40.6983670348674],[-111.834091715521,40.6981810349811],[-111.834090715696,40.697886034935],[-111.834087715323,40.6970010344504],[-111.834087715323,40.6967070344491],[-111.834072715254,40.6965500343618],[-111.834068715954,40.6965220345199],[-111.834049715688,40.6963870342658],[-111.834011715155,40.6962350346107],[-111.833933715337,40.6960740340871],[-111.8339037152,40.6959930341038],[-111.83387771526,40.6959200347324],[-111.83383171523,40.6958230344829],[-111.833754715237,40.6957380341693],[-111.83372271545,40.6957020346127],[-111.833579715334,40.6954750345391],[-111.833569715289,40.6954510342881],[-111.833526715631,40.6953460346207],[-111.83350671554,40.6952990345409],[-111.833449715638,40.6951590346282],[-111.833430715372,40.6951130342618],[-111.833401715059,40.6949610344245],[-111.833380715143,40.6948510340571],[-111.833393714663,40.6945010340947],[-111.833394715387,40.6944890344759],[-111.833384715341,40.6943480343664],[-111.833384715341,40.694255033986],[-111.833407714907,40.6941120343414],[-111.833407714907,40.6940920344048],[-111.83341271493,40.693905034298],[-111.833408714732,40.6938010341026],[-111.833381714968,40.6936940341448],[-111.833373714572,40.6936020340818],[-111.833360715051,40.6934380343947],[-111.833339715135,40.6932770339231],[-111.833334715112,40.6932490340679],[-111.833298715127,40.6930450343783],[-111.833256714396,40.692685034284],[-111.83323571448,40.6924970337492],[-111.833214714563,40.6923400339577],[-111.833168714532,40.6919920342116],[-111.833153714464,40.6918720340891],[-111.833151714814,40.69185403395],[-111.833134715096,40.6916900340472],[-111.833286714533,40.6917040339633],[-111.833372714747,40.691699033799],[-111.833594714505,40.6916750342312],[-111.833697714437,40.6916640340006],[-111.833836714354,40.691518033865],[-111.833902714476,40.6914550340436],[-111.833974714446,40.6913500342089],[-111.834013714804,40.6912300336113],[-111.834037715094,40.6910980339304],[-111.834043714942,40.6909340335292],[-111.834051714439,40.6907230335033],[-111.834046714416,40.690501033749],[-111.834043714942,40.6903970336895],[-111.834031714348,40.6898350334542],[-111.834026714325,40.689613033466],[-111.834039714744,40.6894480335664],[-111.834039714744,40.6891090338034],[-111.834041714393,40.6875970337418],[-111.834043714043,40.6870940331023],[-111.834356714038,40.687096033715],[-111.835298714394,40.6871020335091],[-111.835613714937,40.6871040334404],[-111.835819714801,40.6871000335778],[-111.83613797533,40.6870959145092],[-111.836437714394,40.6870920331707],[-111.836644714982,40.687090033239],[-111.836850714846,40.6870910332049],[-111.837468715337,40.687095033068],[-111.837675715026,40.6870970329995],[-111.837850714929,40.6870970329995],[-111.838376715358,40.6870970329995],[-111.83852786499,40.6870978919619],[-111.843617778678,40.6871010321811],[-111.843720071636,40.6871010934869],[-111.843886604019,40.6870976896527],[-111.845078310871,40.6870733233174],[-111.845080406641,40.6870957987094],[-111.84508235329,40.687102032828],[-111.84509171643,40.687102032828],[-111.84572871629,40.6871050327248],[-111.845820716351,40.6871050327248],[-111.845820716351,40.687105072233],[-111.846598636726,40.6871100713797],[-111.847639636817,40.6870990703956],[-111.848277638298,40.6870930712823],[-111.84827771735,40.6870930685576],[-111.848306637712,40.6870920713165],[-111.848394638474,40.6870920719977],[-111.848424637713,40.6870920719977],[-111.848655637691,40.6870930706011],[-111.849165637329,40.6870980711111],[-111.849350638175,40.6870960704984],[-111.849582638877,40.6870950712139],[-111.84963963788,40.6870940698858],[-111.849810638483,40.6870940712481],[-111.849868637311,40.6870940712481],[-111.850017638172,40.6870920713165],[-111.850347636987,40.6870900707037],[-111.850464638061,40.6870900713849],[-111.850614637849,40.6870890714191],[-111.850814637865,40.6870870708061],[-111.851417638288,40.6870840715896],[-111.851618637231,40.6870830702613],[-111.85161871808,40.6870830791166],[-111.851645637894,40.6870860708403],[-111.851727637909,40.6870950712139],[-111.8517556366,40.6870980704299],[-111.852224638925,40.6870930699199],[-111.853634638188,40.6870800710446],[-111.85410463944,40.6870760704994],[-111.854104718492,40.6870760704994],[-111.854101718119,40.6874860321558],[-111.854100718294,40.6876540320174],[-111.854096718096,40.6885350322317],[-111.854096718096,40.6887190319187],[-111.854094718446,40.6891300317652],[-111.854092718796,40.6892350323735],[-111.854090718248,40.6895510324536],[-111.854090718248,40.6896570323258],[-111.854089718423,40.6896830317932],[-111.854087718773,40.689761032178],[-111.854087718773,40.6897880322113],[-111.854085718225,40.6898180320085],[-111.854083718575,40.6899110324517],[-111.854083718575,40.6899430320396],[-111.854078718552,40.6901480322915],[-111.854077718728,40.6901870318825],[-111.85407371853,40.690344031979],[-111.854067117709,40.6906370185968],[-111.854060719009,40.6909210319975],[-111.854055718986,40.6911660322507],[-111.854058718461,40.6912100321285],[-111.854063718484,40.6912710323754],[-111.85406971923,40.6913440320726],[-111.85407371853,40.6913890324153],[-111.854072718705,40.6914990323683],[-111.85406971923,40.6915460324043],[-111.854045718941,40.6920170321949],[-111.854037718545,40.6921750326371],[-111.854025667645,40.6921758956208],[-111.854020616418,40.6928529488402],[-111.854018230493,40.6931727507664],[-111.854017859489,40.6932225224327],[-111.854037100504,40.6944790754309],[-111.854039654414,40.6946419310345],[-111.854033728228,40.6956700323419],[-111.854031984598,40.6959042682853],[-111.85402236993,40.696912397336],[-111.8540187066,40.6978303966463],[-111.854031719595,40.6985730328318],[-111.854015719702,40.6991576152541],[-111.854014719877,40.6999160334733],[-111.854013851206,40.6999397052145],[-111.854011264956,40.7000101789581],[-111.854010743933,40.7000255821185],[-111.854016720425,40.7001590331201],[-111.854021720448,40.7002500332137],[-111.854056719709,40.7005430334788],[-111.854055719885,40.7006470333653],[-111.854069720128,40.7007440334011],[-111.854098720441,40.700882033637],[-111.854110720136,40.7009370332911],[-111.854142719923,40.7011220332183],[-111.854197720175,40.7012940331241],[-111.85420971987,40.7013290333118],[-111.854313720526,40.7016070332938],[-111.854360720381,40.7017100331347],[-111.854411720435,40.7018020335786],[-111.854486720778,40.7019600332893],[-111.854525720238,40.7020140336734],[-111.854538720657,40.7020340332749],[-111.854683720422,40.7022650337872],[-111.854732720825,40.7023430337439],[-111.854777720133,40.7024150338324],[-111.854816720491,40.7024770337705],[-111.854913720575,40.7026320333634],[-111.85495172021,40.7027090338399],[-111.854979720698,40.7027640333474],[-111.855063720363,40.7029310337779],[-111.855092720676,40.7029870335104],[-111.855184720737,40.7031850336951],[-111.85519172041,40.7032070337549],[-111.855218721072,40.7032890335425],[-111.855308720586,40.7036440335928],[-111.855328720677,40.7037620335109],[-111.855338720723,40.7039180339127],[-111.855355720441,40.7041600335512],[-111.855352720967,40.7042450333337],[-111.855347720944,40.7043880337005],[-111.855344720571,40.7044780337596],[-111.855341721096,40.7045680336972],[-111.855340721271,40.7046050336135],[-111.855339720548,40.7046330334629],[-111.855339720548,40.7046440335951],[-111.8553337207,40.7050720335513],[-111.85533172105,40.7053010336761],[-111.855330721225,40.7053320336711],[-111.8553297214,40.7054280340036],[-111.8553297214,40.7054600336296],[-111.855328720677,40.7055070340315],[-111.855354282238,40.7061652234441],[-111.855369155645,40.7062999131037]]]},"properties":{"OBJECTID_12":3,"OBJECTID":124,"CITY":"Millcreek CITY","DIST":"District 3","COUNCILMEMBER":"Nicole Handy","WEB":"https://www.millcreekut.gov/491/Nicole-Handy","PICTURE":"https://www.millcreekut.gov/ImageRepository/Document?documentID=5989","Pop":"15,753","Shape__Area":13325605.65234375,"Shape__Length":23622.568174409178}},{"type":"Feature","id":4,"geometry":{"type":"Polygon","coordinates":[[[-111.854470508882,40.6591476217029],[-111.854472302818,40.6591492987788],[-111.855386625182,40.6600038503508],[-111.85546726964,40.6600792216711],[-111.856761730286,40.6612890074791],[-111.856841754008,40.6613637940359],[-111.856874646721,40.6613945337205],[-111.857590208744,40.6620632597537],[-111.85765104535,40.662120112912],[-111.857664431146,40.6621326232988],[-111.857754276149,40.6622165850442],[-111.857937826216,40.6623845811308],[-111.858125953199,40.6625496378022],[-111.858318572657,40.6627116835308],[-111.858515603742,40.6628706488331],[-111.858733001431,40.6630385982986],[-111.858933991391,40.6631873551526],[-111.859138933039,40.663332975106],[-111.859347741936,40.6634753975332],[-111.85958972831,40.6636356195895],[-111.859803858826,40.6637671292081],[-111.860020017738,40.663896727205],[-111.860239549824,40.6640230194236],[-111.860462369744,40.6641459534142],[-111.860688388564,40.6642654808154],[-111.860896545283,40.6643711352224],[-111.86116049906,40.6644992513493],[-111.861409530921,40.6646141438799],[-111.861701538186,40.6647390337734],[-111.8619744832,40.6648557704484],[-111.862328487694,40.664993862725],[-111.862572170986,40.6650833006919],[-111.862818130609,40.6651690780601],[-111.863066268647,40.6652511628179],[-111.863316492573,40.6653295222719],[-111.863661354912,40.6654304460985],[-111.863933335136,40.665504409655],[-111.864207306026,40.6655740135612],[-111.864483149005,40.6656392278492],[-111.864781842431,40.6657049851447],[-111.864978767514,40.6657044877269],[-111.86500685424,40.6659536042909],[-111.865029559158,40.6661549920088],[-111.865048688782,40.666324667336],[-111.865062278496,40.666445201329],[-111.865079329418,40.6665964355965],[-111.865100080501,40.6667804924384],[-111.865146597962,40.6671930734487],[-111.865027897275,40.6671994579693],[-111.865017307934,40.6672011171269],[-111.865014718092,40.6671700285267],[-111.86495771819,40.6671730286392],[-111.864841717839,40.6672170286847],[-111.864718717815,40.6672310289718],[-111.864308717737,40.6672780290869],[-111.863807717421,40.6672870287282],[-111.863503717648,40.6672940292055],[-111.863233717311,40.667300028738],[-111.862855717019,40.6673860287909],[-111.862772717178,40.6674050289857],[-111.862512717786,40.6674930287415],[-111.86239771726,40.6675860289921],[-111.862231717578,40.667729029],[-111.862029717014,40.6678500292388],[-111.86161871711,40.6679760291585],[-111.861272717504,40.6680200293555],[-111.861045716825,40.6680700289867],[-111.860825716716,40.6681190290114],[-111.860429716881,40.6681580292278],[-111.860416717361,40.6681620295457],[-111.860396717269,40.6681670294317],[-111.860334717345,40.6681840289051],[-111.860295716987,40.6681940293549],[-111.860187717032,40.6682090290046],[-111.86012371656,40.6682180292017],[-111.860075716879,40.6682240293323],[-111.860022717176,40.6682310290299],[-111.8598447169,40.6682510292324],[-111.85958271696,40.6682760293068],[-111.858885716826,40.6683450293544],[-111.858507716534,40.6683830291922],[-111.858337716654,40.6684000292919],[-111.858229716699,40.668389029308],[-111.858114716173,40.6683780293223],[-111.857767716742,40.6681750293848],[-111.857573716573,40.6681590294776],[-111.857451716375,40.6681820297689],[-111.857320716853,40.6682080294369],[-111.857183716586,40.6682540292964],[-111.857007715961,40.6683130296177],[-111.856960716105,40.668329029488],[-111.85674371637,40.66841202952],[-111.856471716383,40.6684500293195],[-111.856288716085,40.6684770298095],[-111.855856716265,40.6685380297405],[-111.855762716554,40.6685340294452],[-111.85558271573,40.6685280293423],[-111.855179716223,40.6684840294805],[-111.855034715559,40.6684340294783],[-111.854868715878,40.6682700298622],[-111.854637715899,40.6678530293208],[-111.854579716173,40.6677240297625],[-111.85447171532,40.6674790298721],[-111.854392715677,40.6673310293799],[-111.854306715463,40.6672940298869],[-111.854304715813,40.6673540292754],[-111.854300715615,40.6674790298721],[-111.854295715593,40.6675340298424],[-111.854291715395,40.6675940296964],[-111.854284715722,40.6678470298381],[-111.85426471563,40.6686090300033],[-111.854240716239,40.6688620297011],[-111.854222715798,40.6690440300778],[-111.854197715683,40.6693130298036],[-111.854185715988,40.669593029594],[-111.854178716315,40.6697770297895],[-111.854168716269,40.6698880302063],[-111.854165715896,40.6699260298461],[-111.854168716269,40.6702240296418],[-111.854170715919,40.6703370297489],[-111.854607715762,40.6703360302131],[-111.855918716189,40.6703350299959],[-111.856356716756,40.6703350299959],[-111.856358716405,40.6704910296287],[-111.856364716253,40.6708350297479],[-111.856372716649,40.6709610301596],[-111.856384716345,40.6711180298961],[-111.856385717068,40.6712860301333],[-111.856388716543,40.6717910298634],[-111.856389716368,40.6719600299605],[-111.856389716368,40.6720290302842],[-111.856389716368,40.6722360301455],[-111.856390717091,40.6723060296899],[-111.856533717206,40.6723050301836],[-111.856903717102,40.6723030298083],[-111.856963716478,40.6723110299465],[-111.857013716707,40.6723190300838],[-111.857071717331,40.6723930302865],[-111.857073716981,40.6724940299518],[-111.857079716829,40.6728000299332],[-111.857082717202,40.672902029842],[-111.85720671705,40.672902029842],[-111.857579717319,40.6729030300208],[-111.857704716993,40.6729040301994],[-111.857949717215,40.6729040301994],[-111.858685717707,40.6729060298754],[-111.858931717755,40.672907030054],[-111.858928717382,40.6731880299165],[-111.858922717534,40.674031029893],[-111.858921739268,40.6743068389153],[-111.858921717709,40.6743130299452],[-111.85908771739,40.6743110303114],[-111.859585717333,40.6743060302047],[-111.859752717737,40.6743050300471],[-111.85979271792,40.6743040298894],[-111.859914718119,40.6743030297318],[-111.859955718127,40.6743030297318],[-111.859940171882,40.6745397614552],[-111.859933717487,40.6746430300137],[-111.859928717464,40.6747280299836],[-111.859948717556,40.6749030303418],[-111.859944718256,40.675379029919],[-111.85993671786,40.6761910302108],[-111.85993471821,40.6771760304399],[-111.859845718522,40.6778630306732],[-111.859821718232,40.678203030513],[-111.859818717859,40.6784020301939],[-111.85981671821,40.6787150302701],[-111.859815718385,40.6805010307641],[-111.859826719154,40.6819210305225],[-111.859832719001,40.6821720307221],[-111.859830318703,40.6825430355337],[-111.859831719176,40.6827850310741],[-111.859813718735,40.6836820312123],[-111.859832719001,40.6842190313485],[-111.859829719527,40.6849940310234],[-111.859829719527,40.6858360315905],[-111.859819719481,40.6870600315326],[-111.861636720247,40.6870720311269],[-111.861925719952,40.6870740310591],[-111.862709720124,40.6870760309912],[-111.863530720107,40.6870780309233],[-111.865529720447,40.6870630307502],[-111.866604991266,40.6870818775227],[-111.866631720637,40.6870790308893],[-111.868258721432,40.6870570309525],[-111.868362721189,40.6870600308514],[-111.869009721094,40.6870680305812],[-111.871170755054,40.6870771460759],[-111.871380721879,40.6870780302421],[-111.871629105157,40.687076863388],[-111.871625072619,40.6878659334097],[-111.871620935877,40.6886755971208],[-111.871617402803,40.6893669036014],[-111.871613932611,40.6900459136858],[-111.871608938877,40.6910230218896],[-111.871603929871,40.6920030602708],[-111.871600599816,40.6926545474155],[-111.871597373068,40.6932860021293],[-111.871594814666,40.6937865163046],[-111.871592651522,40.6942096950274],[-111.87158978949,40.6947695789762],[-111.871589151686,40.6948945635887],[-111.871586118075,40.6949498324512],[-111.871563609888,40.6998825219882],[-111.871226253871,40.6998816454835],[-111.87120250511,40.7050915759702],[-111.871192193349,40.7073535771481],[-111.871183150907,40.7093367988364],[-111.871276197506,40.7093366367708],[-111.871285140234,40.7115847397542],[-111.870751458311,40.7115853437349],[-111.869856698558,40.711586234385],[-111.869856738983,40.7116088342883],[-111.869857168377,40.7118497308037],[-111.869628680986,40.7118499623174],[-111.868309742147,40.711851291478],[-111.868309908335,40.7117992669375],[-111.868321278312,40.7082375201135],[-111.868330018021,40.7054927312525],[-111.865354539984,40.7054899712101],[-111.86535446722,40.7054805729005],[-111.865359483413,40.7023379935169],[-111.865267117737,40.7023379090704],[-111.864277559671,40.7023369999091],[-111.864277461755,40.7023939896619],[-111.864277455466,40.7023968887605],[-111.864140080602,40.7023972163307],[-111.864139693428,40.7026420708685],[-111.864139635936,40.7027128448051],[-111.864131493606,40.7027128631926],[-111.863532945234,40.7027142286295],[-111.86353278174,40.7027177882996],[-111.863532576026,40.7028902948452],[-111.862881389972,40.7028879153819],[-111.862815530885,40.7028877185688],[-111.862621190255,40.7028870198483],[-111.862616245029,40.7059205037542],[-111.862615666514,40.7062754461958],[-111.862428124334,40.7062759773598],[-111.861703123712,40.706278027789],[-111.860131949619,40.7062823588183],[-111.860132142757,40.7047241486614],[-111.861130488143,40.7047216603043],[-111.861868296045,40.7047198474945],[-111.861871368284,40.7041682362092],[-111.86182484723,40.7041683982875],[-111.861810288234,40.7041684166745],[-111.861745063358,40.7041685433407],[-111.861749583681,40.7033426828104],[-111.861750711965,40.7031435097115],[-111.861693263804,40.7031436486378],[-111.861357021698,40.7031444706188],[-111.861298402134,40.7029987837098],[-111.861291185967,40.7029807300527],[-111.86126501445,40.7029155230082],[-111.86120547591,40.7029156973477],[-111.861212265377,40.701660034898],[-111.860315051427,40.7016622203127],[-111.859622491665,40.7016639562496],[-111.859623565152,40.7013607202715],[-111.859624123006,40.7012016247217],[-111.859625024016,40.7009622880732],[-111.859626723629,40.700510829903],[-111.859631247544,40.6999866584336],[-111.858313307632,40.6999937828325],[-111.857661013056,40.6999957476436],[-111.857015584304,40.6999977478689],[-111.856857334389,40.6999982927038],[-111.856856600465,40.7002273851879],[-111.856855391333,40.7006133220229],[-111.856855274552,40.7006503472915],[-111.856875632173,40.7006502866791],[-111.856875489341,40.7006852408947],[-111.856875318661,40.700781726012],[-111.856580816775,40.7007825350823],[-111.856581548902,40.7005533750417],[-111.855749334351,40.7005556735449],[-111.855605055035,40.7003808065984],[-111.855309045776,40.7000221162885],[-111.855037522795,40.7000228674794],[-111.855037566812,40.7000078225474],[-111.854803208931,40.7000084763492],[-111.854803037353,40.7000228906349],[-111.854620680248,40.7000236084547],[-111.854214599519,40.7000252068635],[-111.854205551687,40.7000252422778],[-111.854191194813,40.7005599164114],[-111.854181489414,40.7005599886014],[-111.854163144019,40.700560034231],[-111.854168664167,40.7006123324756],[-111.854175370091,40.7006647137657],[-111.854183258197,40.7007169935401],[-111.854192328486,40.7007691772475],[-111.854202700435,40.7008212594398],[-111.854214135988,40.7008731549878],[-111.854238557588,40.7009688246355],[-111.854351977977,40.7013782356733],[-111.854366837909,40.7014296547481],[-111.854382882718,40.7014808837762],[-111.85440010432,40.7015318342245],[-111.854418508105,40.7015825973513],[-111.854438093175,40.7016330805372],[-111.854458739155,40.7016832851451],[-111.85448056642,40.7017332111756],[-111.854503571376,40.7017828593102],[-111.854527639938,40.7018322275066],[-111.854552887089,40.7018812272322],[-111.854579312829,40.7019298578068],[-111.854606802175,40.7019782104883],[-111.854646832901,40.7020447573412],[-111.854907561726,40.7024674899789],[-111.85492724561,40.7024961771932],[-111.854938408974,40.7025136194275],[-111.855080605097,40.7027887787185],[-111.855085766817,40.7027975447449],[-111.855093084493,40.7028100897221],[-111.855101770304,40.7028251707961],[-111.855110359096,40.7028402872794],[-111.855118843684,40.7028554350858],[-111.855127229457,40.7028706176206],[-111.855135514619,40.7028858307976],[-111.85514369917,40.7029010766598],[-111.855151780414,40.7029163524831],[-111.855159762843,40.7029316603105],[-111.855167615916,40.7029469633673],[-111.855170756426,40.7029534377626],[-111.855174682064,40.7029609037128],[-111.855189355146,40.7029911420624],[-111.855206711495,40.7030268026218],[-111.855231218434,40.7030804834274],[-111.855254508156,40.7031344992474],[-111.855276536644,40.703188779256],[-111.855297339829,40.7032433704421],[-111.855316873695,40.703298203342],[-111.855335175072,40.7033532990664],[-111.855353217735,40.7034123432342],[-111.8553678998,40.7034641959029],[-111.855382357286,40.7035199459384],[-111.855395567012,40.703575879799],[-111.855407449029,40.7036319893124],[-111.855418068912,40.7036882268077],[-111.855419926628,40.7037025374652],[-111.855425970493,40.703759170565],[-111.855430710903,40.7038158853371],[-111.855434152349,40.7038726402401],[-111.855436290339,40.7039294529801],[-111.855437088941,40.7039862813348],[-111.855436620021,40.7040431157699],[-111.855435551026,40.7040999092965],[-111.855435041681,40.7041243797276],[-111.855436082828,40.7045003827442],[-111.855436364001,40.7046020447195],[-111.85543638556,40.7046099619855],[-111.85543642868,40.704625967445],[-111.856768031968,40.7045793566326],[-111.857204914132,40.7045635895108],[-111.857136944902,40.7044916469058],[-111.857136846088,40.7044915413512],[-111.856955514859,40.7042988772784],[-111.856954720749,40.7042980335197],[-111.857980721669,40.7042890334269],[-111.857980674058,40.7043013779092],[-111.857982456316,40.7044355176867],[-111.857984994056,40.7046265612738],[-111.858021387504,40.7046300452511],[-111.858449230819,40.7046710037623],[-111.858945810525,40.704669724852],[-111.85909004762,40.7046693537092],[-111.859615423721,40.7046680005703],[-111.859617655136,40.7047218550689],[-111.858946702552,40.7047234424692],[-111.858943411125,40.7047234499601],[-111.858942117551,40.7054427930584],[-111.858945792558,40.7054427842055],[-111.858995386749,40.7054426663946],[-111.859068541054,40.7054425730992],[-111.859068810548,40.7052793359864],[-111.859068931821,40.7052045666821],[-111.859069103399,40.7050994332509],[-111.859071753429,40.705099427122],[-111.859617048773,40.7050981468579],[-111.859616422647,40.7055012177182],[-111.85961606422,40.7057318112343],[-111.859615403958,40.7061570441853],[-111.859615201837,40.7062872114775],[-111.859615185667,40.7062973784989],[-111.855369155645,40.7062999131037],[-111.855367845003,40.7062880463583],[-111.855354282238,40.7061652234441],[-111.855328720677,40.7055070340315],[-111.8553297214,40.7054600336296],[-111.8553297214,40.7054280340036],[-111.855330721225,40.7053320336711],[-111.85533172105,40.7053010336761],[-111.8553337207,40.7050720335513],[-111.855339720548,40.7046440335951],[-111.855339720548,40.7046330334629],[-111.855340721271,40.7046050336135],[-111.855341721096,40.7045680336972],[-111.855344720571,40.7044780337596],[-111.855347720944,40.7043880337005],[-111.855352720967,40.7042450333337],[-111.855355720441,40.7041600335512],[-111.855338720723,40.7039180339127],[-111.855328720677,40.7037620335109],[-111.855308720586,40.7036440335928],[-111.855218721072,40.7032890335425],[-111.85519172041,40.7032070337549],[-111.855184720737,40.7031850336951],[-111.855092720676,40.7029870335104],[-111.855063720363,40.7029310337779],[-111.854979720698,40.7027640333474],[-111.85495172021,40.7027090338399],[-111.854913720575,40.7026320333634],[-111.854816720491,40.7024770337705],[-111.854777720133,40.7024150338324],[-111.854732720825,40.7023430337439],[-111.854683720422,40.7022650337872],[-111.854538720657,40.7020340332749],[-111.854525720238,40.7020140336734],[-111.854486720778,40.7019600332893],[-111.854411720435,40.7018020335786],[-111.854360720381,40.7017100331347],[-111.854313720526,40.7016070332938],[-111.85420971987,40.7013290333118],[-111.854197720175,40.7012940331241],[-111.854142719923,40.7011220332183],[-111.854110720136,40.7009370332911],[-111.854098720441,40.700882033637],[-111.854069720128,40.7007440334011],[-111.854055719885,40.7006470333653],[-111.854056719709,40.7005430334788],[-111.854021720448,40.7002500332137],[-111.854016720425,40.7001590331201],[-111.854010743933,40.7000255800753],[-111.854011264956,40.7000101789581],[-111.854011463484,40.7000047748773],[-111.854013851206,40.6999397052145],[-111.854014719877,40.6999160334733],[-111.854015719702,40.6990800331392],[-111.854023720098,40.6987560329324],[-111.85403071977,40.697836033147],[-111.85402236993,40.696912397336],[-111.854031984598,40.6959042682853],[-111.854033728228,40.6956700323419],[-111.854039654414,40.6946419310345],[-111.854037100504,40.6944790754309],[-111.854017859489,40.6932225224327],[-111.854018232289,40.6931775669195],[-111.854021980061,40.6926726317971],[-111.854035718895,40.6923850322655],[-111.854037718545,40.6921750326371],[-111.854045718941,40.6920170321949],[-111.85406971923,40.6915460324043],[-111.854072718705,40.6914990323683],[-111.85407371853,40.6913890324153],[-111.85406971923,40.6913440320726],[-111.854063718484,40.6912710323754],[-111.854058718461,40.6912100321285],[-111.854055718986,40.6911660322507],[-111.854060719009,40.6909210319975],[-111.854067117709,40.6906370185968],[-111.85407371853,40.690344031979],[-111.854077718728,40.6901870318825],[-111.854078718552,40.6901480322915],[-111.854083718575,40.6899430320396],[-111.854083718575,40.6899110324517],[-111.854085718225,40.6898180320085],[-111.854087718773,40.6897880322113],[-111.854087718773,40.689761032178],[-111.854089718423,40.6896830317932],[-111.854090718248,40.6896570323258],[-111.854090718248,40.6895510324536],[-111.854092718796,40.6892350323735],[-111.854094718446,40.6891300317652],[-111.854096718096,40.6887190319187],[-111.854096718096,40.6885350322317],[-111.854100718294,40.6876540320174],[-111.854101718119,40.6874860321558],[-111.854104718492,40.6870760704994],[-111.85410463944,40.6870760704994],[-111.854104638542,40.6870760323536],[-111.853634718138,40.6870800315364],[-111.852224717977,40.6870930317741],[-111.851755717449,40.687098032284],[-111.851727717859,40.6870950317057],[-111.851645717844,40.6870860320133],[-111.85161871808,40.6870830321155],[-111.85141771734,40.6870840320815],[-111.850814717815,40.6870870319791],[-111.850614717799,40.6870890319109],[-111.850464718011,40.6870900318767],[-111.850347717835,40.6870900318767],[-111.850017717224,40.6870920324895],[-111.849868717261,40.6870940324211],[-111.849810717535,40.6870940324211],[-111.849639717831,40.6870940324211],[-111.849582717031,40.6870950323869],[-111.849350717227,40.6870960323526],[-111.849165717279,40.687098032284],[-111.848655717641,40.6870930324553],[-111.848424716764,40.6870920324895],[-111.848394717525,40.6870920324895],[-111.848306716764,40.6870920324895],[-111.84827771735,40.6870930324553],[-111.847639716767,40.6870990322497],[-111.846598716676,40.6871100325527],[-111.845820716351,40.6871050327248],[-111.84572871629,40.6871050327248],[-111.84509171643,40.687102032828],[-111.845091624802,40.687102032828],[-111.844978637401,40.6867660707688],[-111.84463963567,40.6857590715559],[-111.844527636416,40.6854240707015],[-111.844499635928,40.6853490706659],[-111.844417636811,40.6851270714009],[-111.844390637047,40.6850530717087],[-111.844304636833,40.6848090714601],[-111.844049635666,40.6840790715076],[-111.843964636176,40.6838360704327],[-111.843836635231,40.6834450717297],[-111.843807635817,40.6833530704593],[-111.843410004641,40.6820892406057],[-111.843409889657,40.6820882807572],[-111.843241547169,40.6814066588095],[-111.843118834607,40.6809652342448],[-111.842997820758,40.6804706445953],[-111.842846886722,40.6796672795178],[-111.842676349651,40.6786226259764],[-111.842671762853,40.6785872561974],[-111.842608245674,40.6781006245033],[-111.842517372998,40.6771328647178],[-111.842440769162,40.6767343428174],[-111.842261578619,40.6762230609126],[-111.842020778919,40.6754230511204],[-111.84190006421,40.6749601689201],[-111.841888128294,40.6749143119907],[-111.841677290104,40.6742661485667],[-111.840967603962,40.6725903147035],[-111.840797792728,40.671787983628],[-111.8406855662,40.6713308035075],[-111.840661871338,40.6712340434074],[-111.840456621567,40.6706238529873],[-111.840329668057,40.6702184889197],[-111.840081198541,40.6694635748491],[-111.839833907615,40.6687077494257],[-111.839515459338,40.6677114604636],[-111.839486641384,40.6676211334204],[-111.839386177396,40.6672516093273],[-111.839290999993,40.6665487290856],[-111.839269435037,40.6659232373846],[-111.839257938398,40.6659127534874],[-111.839257901567,40.6658904392568],[-111.840706294825,40.6659159362695],[-111.841453605107,40.6659321138768],[-111.841635964008,40.6659360093939],[-111.8419251838,40.6659421896173],[-111.842559952244,40.6659934118595],[-111.842973974081,40.6660738997864],[-111.843171912464,40.6661123622193],[-111.84334024507,40.6661390590745],[-111.843624560959,40.6662255375968],[-111.844317660608,40.6664364073528],[-111.845704168028,40.6669001125557],[-111.846488403559,40.6670754393987],[-111.846704183382,40.6671116935835],[-111.847742672682,40.667277939145],[-111.847893173729,40.6672975546548],[-111.848038180681,40.6673036959136],[-111.848384181185,40.6673181799607],[-111.848403357522,40.6673190310014],[-111.848710693638,40.6672978537797],[-111.848910308278,40.6672720622586],[-111.849006084857,40.6672677545858],[-111.849307080664,40.6672132913223],[-111.851222455936,40.6666514621873],[-111.852449313866,40.6662802646827],[-111.852851466262,40.6660873034157],[-111.852940662682,40.6660403399379],[-111.853156520658,40.66594343452],[-111.853272506636,40.6658913182529],[-111.853275356991,40.6658904051872],[-111.853568047873,40.665796678251],[-111.853903536292,40.6657416141597],[-111.854072684569,40.6657287998667],[-111.85416710559,40.6657216472742],[-111.854394369475,40.6657307765904],[-111.854421151847,40.6643067673665],[-111.85442432829,40.6641199051453],[-111.85446039475,40.6628394232924],[-111.854472427684,40.6626699735087],[-111.854440753985,40.6610663911144],[-111.854438714809,40.6609770288527],[-111.854439533175,40.6609640923476],[-111.854460061475,40.6604495310073],[-111.854462983695,40.6600853833566],[-111.854469623143,40.6592579488109],[-111.854470508882,40.6591476217029]]]},"properties":{"OBJECTID_12":4,"OBJECTID":127,"CITY":"Millcreek CITY","DIST":"District 2","COUNCILMEMBER":"Thom DeSirant","WEB":"https://millcreek.us/490/Thom-DeSirant","PICTURE":"https://www.millcreekut.gov/ImageRepository/Document?documentID=5987","Pop":"15,801","Shape__Area":11254537.24609375,"Shape__Length":29099.875674846688}}]}