{
 "type": "FeatureCollection",
 "name": "millcreek_council_districts_pre2022",
 "crs": {
  "type": "name",
  "properties": {
   "name": "EPSG:4326"
  }
 },
 "features": [
  {
   "type": "Feature",
   "properties": {
    "district": "1",
    "DIST": "District 1",
    "CITY": "Millcreek CITY",
    "Representative": "Silvia Catten",
    "plan": "plan_2016",
    "vintage": "2016 incorporation boundaries (in force for the 2017-2022 council terms; redrawn by Ordinance 22-23, 2022-05-09)",
    "source": "Millcreek City GIS \u2014 CityCouncilDistricts FeatureServer layer 0 'City Council District Boundaries 2017-2022' (authoritative published layer)",
    "source_url": "https://services9.arcgis.com/XRrSFvEwSsReIxuA/arcgis/rest/services/CityCouncilDistricts/FeatureServer/0",
    "fetched": "2026-07-19"
   },
   "geometry": {
    "type": "Polygon",
    "coordinates": [
     [
      [
       -111.871380722348,
       40.6870780294636
      ],
      [
       -111.859819719698,
       40.68706003082
      ],
      [
       -111.859955718322,
       40.6743030277809
      ],
      [
       -111.854134716421,
       40.6742960297948
      ],
      [
       -111.854395031721,
       40.6657310764954
      ],
      [
       -111.864978778212,
       40.6657044670089
      ],
      [
       -111.865494874997,
       40.6701951551229
      ],
      [
       -111.867573460481,
       40.6706090476305
      ],
      [
       -111.867320462726,
       40.6696954040237
      ],
      [
       -111.867980453453,
       40.6696908529917
      ],
      [
       -111.867839175026,
       40.6661969908587
      ],
      [
       -111.869603718952,
       40.6662580273523
      ],
      [
       -111.871148164849,
       40.6681234504461
      ],
      [
       -111.871803272948,
       40.670222319124
      ],
      [
       -111.871698815275,
       40.6733239154432
      ],
      [
       -111.870350604593,
       40.6736183246349
      ],
      [
       -111.871343720226,
       40.6743550282921
      ],
      [
       -111.880762721647,
       40.6743380278542
      ],
      [
       -111.88154522974,
       40.6747953633825
      ],
      [
       -111.882755443568,
       40.6754455559579
      ],
      [
       -111.881580231442,
       40.6770516303513
      ],
      [
       -111.883149234479,
       40.67780834882
      ],
      [
       -111.884077205171,
       40.6786578021048
      ],
      [
       -111.889322709583,
       40.6786498399441
      ],
      [
       -111.889340179197,
       40.6796139310258
      ],
      [
       -111.891636437945,
       40.679994635612
      ],
      [
       -111.893794153238,
       40.6805944526775
      ],
      [
       -111.894863876206,
       40.6802114193194
      ],
      [
       -111.894676958679,
       40.6795633257252
      ],
      [
       -111.896110088311,
       40.679761577992
      ],
      [
       -111.897613635583,
       40.6797312018589
      ],
      [
       -111.898114739035,
       40.6812836679916
      ],
      [
       -111.899739807371,
       40.681064475908
      ],
      [
       -111.899758988276,
       40.6823899241089
      ],
      [
       -111.900706794005,
       40.6823147893156
      ],
      [
       -111.900642093739,
       40.682839081764
      ],
      [
       -111.899759927907,
       40.6828703321169
      ],
      [
       -111.899751678776,
       40.6838307140262
      ],
      [
       -111.901007698841,
       40.6836657569557
      ],
      [
       -111.902970935958,
       40.682751367904
      ],
      [
       -111.902977142794,
       40.6838714888778
      ],
      [
       -111.908192770183,
       40.6840119952684
      ],
      [
       -111.907982588908,
       40.6826817739829
      ],
      [
       -111.910443076113,
       40.6827041371085
      ],
      [
       -111.91043003295,
       40.6822148317547
      ],
      [
       -111.912377837046,
       40.6822172002784
      ],
      [
       -111.913327020209,
       40.683285323518
      ],
      [
       -111.914638331964,
       40.6830011534845
      ],
      [
       -111.915791952403,
       40.6831447990106
      ],
      [
       -111.917316980086,
       40.6837742799463
      ],
      [
       -111.916819999125,
       40.6851797236111
      ],
      [
       -111.917481007455,
       40.6855833747689
      ],
      [
       -111.918617244026,
       40.6854935580961
      ],
      [
       -111.920313441747,
       40.6857534228805
      ],
      [
       -111.921405744664,
       40.6864139992322
      ],
      [
       -111.917617334831,
       40.6869306369765
      ],
      [
       -111.90559600052,
       40.6869334406199
      ],
      [
       -111.903455617841,
       40.686631984661
      ],
      [
       -111.898190061893,
       40.6866847499002
      ],
      [
       -111.895368968972,
       40.6869629894132
      ],
      [
       -111.871380722348,
       40.6870780294636
      ]
     ]
    ]
   }
  },
  {
   "type": "Feature",
   "properties": {
    "district": "2",
    "DIST": "District 2",
    "CITY": "Millcreek CITY",
    "Representative": "Dwight Marchant",
    "plan": "plan_2016",
    "vintage": "2016 incorporation boundaries (in force for the 2017-2022 council terms; redrawn by Ordinance 22-23, 2022-05-09)",
    "source": "Millcreek City GIS \u2014 CityCouncilDistricts FeatureServer layer 0 'City Council District Boundaries 2017-2022' (authoritative published layer)",
    "source_url": "https://services9.arcgis.com/XRrSFvEwSsReIxuA/arcgis/rest/services/CityCouncilDistricts/FeatureServer/0",
    "fetched": "2026-07-19"
   },
   "geometry": {
    "type": "Polygon",
    "coordinates": [
     [
      [
       -111.854203357919,
       40.7000213679846
      ],
      [
       -111.854201791029,
       40.7000376790728
      ],
      [
       -111.854012582931,
       40.700037252309
      ],
      [
       -111.854037667448,
       40.6921750321327
      ],
      [
       -111.853243719152,
       40.6922480313113
      ],
      [
       -111.852918684847,
       40.6923269911319
      ],
      [
       -111.852525718115,
       40.6924250312345
      ],
      [
       -111.851835718754,
       40.6925900318775
      ],
      [
       -111.851312854638,
       40.6927210434708
      ],
      [
       -111.850723717993,
       40.6928550322118
      ],
      [
       -111.850308763881,
       40.6928860380717
      ],
      [
       -111.849884666671,
       40.6928740262678
      ],
      [
       -111.848947022522,
       40.6928249315099
      ],
      [
       -111.848340718486,
       40.6928250319949
      ],
      [
       -111.848226717436,
       40.6928800316577
      ],
      [
       -111.84560171695,
       40.6885570319716
      ],
      [
       -111.845435775042,
       40.6881489943692
      ],
      [
       -111.845260716881,
       40.6876430320063
      ],
      [
       -111.845158464365,
       40.6872194007637
      ],
      [
       -111.842568574998,
       40.6777778933348
      ],
      [
       -111.841615068048,
       40.6743011750234
      ],
      [
       -111.839277541367,
       40.6658903828009
      ],
      [
       -111.839252711938,
       40.6658010293851
      ],
      [
       -111.841750790447,
       40.6659384203194
      ],
      [
       -111.842152689564,
       40.6659605188468
      ],
      [
       -111.842485501437,
       40.6659788182513
      ],
      [
       -111.842526504425,
       40.6659906674904
      ],
      [
       -111.845888045836,
       40.6669620125609
      ],
      [
       -111.848801503757,
       40.6673057461443
      ],
      [
       -111.848862699823,
       40.6673129657768
      ],
      [
       -111.848940721248,
       40.6672883137676
      ],
      [
       -111.853089474292,
       40.6659773641078
      ],
      [
       -111.853526025278,
       40.6658394080256
      ],
      [
       -111.854395031721,
       40.6657310764954
      ],
      [
       -111.854134716421,
       40.6742960297948
      ],
      [
       -111.859955718322,
       40.6743030277809
      ],
      [
       -111.859819719698,
       40.68706003082
      ],
      [
       -111.871380722348,
       40.6870780294636
      ],
      [
       -111.871390098882,
       40.6870778476406
      ],
      [
       -111.871392466971,
       40.6870778023341
      ],
      [
       -111.871629124195,
       40.6870732160954
      ],
      [
       -111.871629105063,
       40.6870768632294
      ],
      [
       -111.87162507305,
       40.6878659332504
      ],
      [
       -111.871620935676,
       40.6886755971278
      ],
      [
       -111.871617402644,
       40.6893669037408
      ],
      [
       -111.871613932558,
       40.6900459134717
      ],
      [
       -111.871608939026,
       40.6910230220036
      ],
      [
       -111.871605468108,
       40.6917021267012
      ],
      [
       -111.871600599865,
       40.6926545475562
      ],
      [
       -111.871597372697,
       40.693286002339
      ],
      [
       -111.871594814993,
       40.6937865162741
      ],
      [
       -111.871592651483,
       40.6942096949277
      ],
      [
       -111.871589789534,
       40.6947695792784
      ],
      [
       -111.871589151369,
       40.694894563831
      ],
      [
       -111.871586117817,
       40.694949832251
      ],
      [
       -111.871563653764,
       40.6998824794878
      ],
      [
       -111.871315347277,
       40.6998818919016
      ],
      [
       -111.871304533113,
       40.7019995679858
      ],
      [
       -111.871301201873,
       40.7026517888653
      ],
      [
       -111.871296982809,
       40.7049408913795
      ],
      [
       -111.87129698302,
       40.7049409301005
      ],
      [
       -111.871292067687,
       40.7076081063912
      ],
      [
       -111.871288882175,
       40.7093366311791
      ],
      [
       -111.871284750544,
       40.7115776938866
      ],
      [
       -111.871284724625,
       40.7115920326664
      ],
      [
       -111.869863974517,
       40.7115984244394
      ],
      [
       -111.869861903597,
       40.7115984336573
      ],
      [
       -111.869862330714,
       40.71184384167
      ],
      [
       -111.86986236272,
       40.7118619263535
      ],
      [
       -111.868319724317,
       40.7118490321525
      ],
      [
       -111.868319726423,
       40.7118467970999
      ],
      [
       -111.868324047065,
       40.7054867509714
      ],
      [
       -111.865354540105,
       40.7054899714503
      ],
      [
       -111.865350973243,
       40.702338667679
      ],
      [
       -111.864277586783,
       40.7023369350966
      ],
      [
       -111.864277461405,
       40.7023939897227
      ],
      [
       -111.864277455619,
       40.7023968884683
      ],
      [
       -111.864131897734,
       40.7024014899645
      ],
      [
       -111.864131652483,
       40.7025905536761
      ],
      [
       -111.864139635751,
       40.7027128446091
      ],
      [
       -111.864131493862,
       40.7027128635314
      ],
      [
       -111.863532944828,
       40.7027142283806
      ],
      [
       -111.86353278162,
       40.7027177885836
      ],
      [
       -111.863524693209,
       40.7028937741684
      ],
      [
       -111.862881389872,
       40.7028879151838
      ],
      [
       -111.862880716055,
       40.7028953599413
      ],
      [
       -111.862626369099,
       40.7028992598325
      ],
      [
       -111.86260330511,
       40.7059602178556
      ],
      [
       -111.862573776126,
       40.7062864409197
      ],
      [
       -111.862573722479,
       40.7062870327164
      ],
      [
       -111.862180536881,
       40.7062880090321
      ],
      [
       -111.860149722299,
       40.7062930328027
      ],
      [
       -111.860146595445,
       40.7047153481355
      ],
      [
       -111.861882471525,
       40.7047119108391
      ],
      [
       -111.861871367967,
       40.7041682364741
      ],
      [
       -111.861836149187,
       40.7041605249212
      ],
      [
       -111.861759728927,
       40.7041606773204
      ],
      [
       -111.861765003466,
       40.7033136406672
      ],
      [
       -111.861750711838,
       40.7031435098833
      ],
      [
       -111.861748036056,
       40.7031358602226
      ],
      [
       -111.861357021316,
       40.7031444706474
      ],
      [
       -111.861280751298,
       40.7029076372042
      ],
      [
       -111.861221243468,
       40.7029077651837
      ],
      [
       -111.861229115464,
       40.7016523767956
      ],
      [
       -111.859639523736,
       40.7016554949146
      ],
      [
       -111.859636132616,
       40.7009717466715
      ],
      [
       -111.859631247782,
       40.6999866582506
      ],
      [
       -111.856862431755,
       40.7000105024728
      ],
      [
       -111.85686041395,
       40.7004959093522
      ],
      [
       -111.856875693927,
       40.7006502655248
      ],
      [
       -111.85685988668,
       40.7006467646297
      ],
      [
       -111.85687531822,
       40.7007817261348
      ],
      [
       -111.85658081713,
       40.7007825353962
      ],
      [
       -111.856600114071,
       40.7005437463971
      ],
      [
       -111.855733504627,
       40.7005555146533
      ],
      [
       -111.855551871735,
       40.7003152869821
      ],
      [
       -111.855306945077,
       40.7000183113725
      ],
      [
       -111.855040615588,
       40.7000190496207
      ],
      [
       -111.855037660412,
       40.7000077986186
      ],
      [
       -111.854803245156,
       40.7000084390118
      ],
      [
       -111.854803166554,
       40.7000228698609
      ],
      [
       -111.854203357919,
       40.7000213679846
      ]
     ]
    ]
   }
  },
  {
   "type": "Feature",
   "properties": {
    "district": "3",
    "DIST": "District 3",
    "CITY": "Millcreek CITY",
    "Representative": "Cheri Jackson",
    "plan": "plan_2016",
    "vintage": "2016 incorporation boundaries (in force for the 2017-2022 council terms; redrawn by Ordinance 22-23, 2022-05-09)",
    "source": "Millcreek City GIS \u2014 CityCouncilDistricts FeatureServer layer 0 'City Council District Boundaries 2017-2022' (authoritative published layer)",
    "source_url": "https://services9.arcgis.com/XRrSFvEwSsReIxuA/arcgis/rest/services/CityCouncilDistricts/FeatureServer/0",
    "fetched": "2026-07-19"
   },
   "geometry": {
    "type": "Polygon",
    "coordinates": [
     [
      [
       -111.797975530695,
       40.7113320216582
      ],
      [
       -111.796324222896,
       40.7113345004937
      ],
      [
       -111.794625535791,
       40.7118461569344
      ],
      [
       -111.793495889387,
       40.7121057071749
      ],
      [
       -111.790996734343,
       40.7122951614144
      ],
      [
       -111.79078694866,
       40.7122941290123
      ],
      [
       -111.789951170219,
       40.7123927216866
      ],
      [
       -111.789982822856,
       40.7109508110576
      ],
      [
       -111.790243382036,
       40.7108137584897
      ],
      [
       -111.790620939919,
       40.7106487581705
      ],
      [
       -111.791021157082,
       40.7105533199575
      ],
      [
       -111.791501186625,
       40.7105534623253
      ],
      [
       -111.791920478553,
       40.7105521885231
      ],
      [
       -111.792390624013,
       40.7104114677134
      ],
      [
       -111.792324288232,
       40.707761443104
      ],
      [
       -111.785800707598,
       40.7078020387655
      ],
      [
       -111.777057912566,
       40.7077060836647
      ],
      [
       -111.776795562207,
       40.6943131293238
      ],
      [
       -111.776766015766,
       40.6910735788423
      ],
      [
       -111.777276702691,
       40.6906900376414
      ],
      [
       -111.778655704017,
       40.690441037084
      ],
      [
       -111.781976743903,
       40.6895880297804
      ],
      [
       -111.786357704569,
       40.6890870365775
      ],
      [
       -111.790509647724,
       40.6891440787316
      ],
      [
       -111.794028705983,
       40.6890200355252
      ],
      [
       -111.796570667172,
       40.689110074686
      ],
      [
       -111.797581707558,
       40.6892020359271
      ],
      [
       -111.795059713104,
       40.6998520600283
      ],
      [
       -111.838809716699,
       40.6999180332635
      ],
      [
       -111.838731715784,
       40.6923300323158
      ],
      [
       -111.838888716348,
       40.6919950325704
      ],
      [
       -111.839316716187,
       40.6917260329809
      ],
      [
       -111.839465716445,
       40.6916250329044
      ],
      [
       -111.83954967394,
       40.691436028351
      ],
      [
       -111.839544715463,
       40.6910220327378
      ],
      [
       -111.839774683203,
       40.6903820100265
      ],
      [
       -111.839785715387,
       40.6902410321912
      ],
      [
       -111.839734715608,
       40.6901440326908
      ],
      [
       -111.839346715928,
       40.689871032431
      ],
      [
       -111.839292685578,
       40.6895930300317
      ],
      [
       -111.839413715533,
       40.6894120319439
      ],
      [
       -111.839689657444,
       40.6891031350255
      ],
      [
       -111.839766715539,
       40.689008031809
      ],
      [
       -111.839817149039,
       40.6870955325477
      ],
      [
       -111.845094847013,
       40.6871020223262
      ],
      [
       -111.845158464365,
       40.6872194007637
      ],
      [
       -111.845260716881,
       40.6876430320063
      ],
      [
       -111.845435775042,
       40.6881489943692
      ],
      [
       -111.84560171695,
       40.6885570319716
      ],
      [
       -111.848226717436,
       40.6928800316577
      ],
      [
       -111.848340718486,
       40.6928250319949
      ],
      [
       -111.848947022522,
       40.6928249315099
      ],
      [
       -111.849884666671,
       40.6928740262678
      ],
      [
       -111.850308763881,
       40.6928860380717
      ],
      [
       -111.850723717993,
       40.6928550322118
      ],
      [
       -111.851312854638,
       40.6927210434708
      ],
      [
       -111.851835718754,
       40.6925900318775
      ],
      [
       -111.852525718115,
       40.6924250312345
      ],
      [
       -111.852918684847,
       40.6923269911319
      ],
      [
       -111.853243719152,
       40.6922480313113
      ],
      [
       -111.854037667448,
       40.6921750321327
      ],
      [
       -111.854012582931,
       40.700037252309
      ],
      [
       -111.854201791029,
       40.7000376790728
      ],
      [
       -111.854203249946,
       40.7000376827803
      ],
      [
       -111.854205525284,
       40.7000376876293
      ],
      [
       -111.854202494266,
       40.7001523663166
      ],
      [
       -111.854192002882,
       40.7005492167307
      ],
      [
       -111.854177710625,
       40.7005537344175
      ],
      [
       -111.854157945516,
       40.7005599822578
      ],
      [
       -111.854250400597,
       40.7009530130644
      ],
      [
       -111.854344002601,
       40.7013734138466
      ],
      [
       -111.854506057434,
       40.7017549709318
      ],
      [
       -111.854549793679,
       40.701892442539
      ],
      [
       -111.854718567819,
       40.7021746973681
      ],
      [
       -111.854907597198,
       40.702467414064
      ],
      [
       -111.854021519861,
       40.7024700864697
      ],
      [
       -111.854016938382,
       40.7024701002701
      ],
      [
       -111.854014459118,
       40.7019933820356
      ],
      [
       -111.854014431666,
       40.7019881033557
      ],
      [
       -111.853554679785,
       40.701967557308
      ],
      [
       -111.85157818374,
       40.701879209031
      ],
      [
       -111.85157688779,
       40.7018791507729
      ],
      [
       -111.851925536867,
       40.7028460918041
      ],
      [
       -111.854772323764,
       40.7029452171748
      ],
      [
       -111.85490803872,
       40.7029460744388
      ],
      [
       -111.855196676181,
       40.7029478967833
      ],
      [
       -111.85520023352,
       40.7029570549748
      ],
      [
       -111.855320168617,
       40.7032657601659
      ],
      [
       -111.855337696375,
       40.7033108756007
      ],
      [
       -111.855461925132,
       40.7038052904266
      ],
      [
       -111.85545349676,
       40.704564635788
      ],
      [
       -111.855453074378,
       40.7046027139944
      ],
      [
       -111.855457022295,
       40.7046028029111
      ],
      [
       -111.855458147298,
       40.7046149806319
      ],
      [
       -111.857174441223,
       40.704565395159
      ],
      [
       -111.857152022153,
       40.7045395935941
      ],
      [
       -111.856953690537,
       40.7043113337806
      ],
      [
       -111.856984446001,
       40.7043107955202
      ],
      [
       -111.857974316486,
       40.7042934793495
      ],
      [
       -111.857981101664,
       40.7046247182958
      ],
      [
       -111.858449703765,
       40.7046701973653
      ],
      [
       -111.859053565367,
       40.7046708854733
      ],
      [
       -111.859617815237,
       40.7046765147896
      ],
      [
       -111.859617752507,
       40.704716826968
      ],
      [
       -111.859617744481,
       40.7047218031806
      ],
      [
       -111.858947389982,
       40.704718248539
      ],
      [
       -111.858946114984,
       40.7052851748823
      ],
      [
       -111.858945952733,
       40.70535762725
      ],
      [
       -111.858945772884,
       40.7054375133316
      ],
      [
       -111.859003531645,
       40.705437387351
      ],
      [
       -111.859072187323,
       40.7054372370569
      ],
      [
       -111.859074288367,
       40.7051116650166
      ],
      [
       -111.859617173083,
       40.7050981032309
      ],
      [
       -111.859616049849,
       40.7058105108854
      ],
      [
       -111.859617302739,
       40.7062875292406
      ],
      [
       -111.859617303063,
       40.7062875904739
      ],
      [
       -111.859617660679,
       40.7062880864579
      ],
      [
       -111.853171065461,
       40.7063012233993
      ],
      [
       -111.853165647561,
       40.7062862706067
      ],
      [
       -111.85295125922,
       40.7063012055917
      ],
      [
       -111.852870711398,
       40.706078100919
      ],
      [
       -111.852885634409,
       40.7060776887097
      ],
      [
       -111.853088038588,
       40.7060720974499
      ],
      [
       -111.85294323629,
       40.7056724853462
      ],
      [
       -111.852941606033,
       40.7056679868217
      ],
      [
       -111.852333671906,
       40.7056651588071
      ],
      [
       -111.85233351611,
       40.7060643778192
      ],
      [
       -111.850677480035,
       40.7060605667506
      ],
      [
       -111.850524719734,
       40.706097033569
      ],
      [
       -111.843656210633,
       40.7060322319269
      ],
      [
       -111.843648485596,
       40.7060321590604
      ],
      [
       -111.843711132575,
       40.709319922084
      ],
      [
       -111.841251875092,
       40.7092924093719
      ],
      [
       -111.841212942401,
       40.7092919730914
      ],
      [
       -111.841245558022,
       40.7084605879363
      ],
      [
       -111.841247766027,
       40.7084043856773
      ],
      [
       -111.838810662507,
       40.708400721821
      ],
      [
       -111.838806319185,
       40.7083255162861
      ],
      [
       -111.838797869406,
       40.7081791801994
      ],
      [
       -111.838849014395,
       40.70814340439
      ],
      [
       -111.838890628699,
       40.7081142963418
      ],
      [
       -111.838848025694,
       40.7078323701004
      ],
      [
       -111.838848025022,
       40.707832235027
      ],
      [
       -111.838842509324,
       40.7067725195424
      ],
      [
       -111.838842489358,
       40.7067687464928
      ],
      [
       -111.838687790574,
       40.7067720316554
      ],
      [
       -111.838687227702,
       40.7067683051953
      ],
      [
       -111.836087175019,
       40.7067609868988
      ],
      [
       -111.836085105354,
       40.7067609811103
      ],
      [
       -111.836086669458,
       40.7066585975709
      ],
      [
       -111.836055970008,
       40.7066573021778
      ],
      [
       -111.835948717232,
       40.7066527766857
      ],
      [
       -111.83594862061,
       40.7066332000299
      ],
      [
       -111.834989587967,
       40.706612299091
      ],
      [
       -111.834627339092,
       40.706594370895
      ],
      [
       -111.83462730279,
       40.706958867495
      ],
      [
       -111.834627262156,
       40.7073711041898
      ],
      [
       -111.834196802631,
       40.7073706845999
      ],
      [
       -111.834167303335,
       40.7073989037723
      ],
      [
       -111.834110716818,
       40.7074530344531
      ],
      [
       -111.834176609356,
       40.7102326749121
      ],
      [
       -111.832595601102,
       40.7102321910785
      ],
      [
       -111.832820755421,
       40.7113066512194
      ],
      [
       -111.832819040639,
       40.711309549384
      ],
      [
       -111.83280607594,
       40.7113314700644
      ],
      [
       -111.832787214547,
       40.7113633597732
      ],
      [
       -111.832834759932,
       40.7113913703088
      ],
      [
       -111.832890857668,
       40.7114357997497
      ],
      [
       -111.832909780125,
       40.7115129343875
      ],
      [
       -111.832910840307,
       40.7115172582912
      ],
      [
       -111.833169587577,
       40.7115133500131
      ],
      [
       -111.833975325858,
       40.7115173399458
      ],
      [
       -111.833976349532,
       40.7115173451418
      ],
      [
       -111.83397515462,
       40.7115436998928
      ],
      [
       -111.833968715624,
       40.7116857370694
      ],
      [
       -111.833359889182,
       40.7116919254741
      ],
      [
       -111.833335675554,
       40.7118840529332
      ],
      [
       -111.833336310893,
       40.711885471221
      ],
      [
       -111.832908060073,
       40.7118950883539
      ],
      [
       -111.832904338642,
       40.7118951718342
      ],
      [
       -111.832907922998,
       40.7119212590919
      ],
      [
       -111.832905628053,
       40.7120770089728
      ],
      [
       -111.832905480455,
       40.7120869959421
      ],
      [
       -111.832285417278,
       40.7120934123056
      ],
      [
       -111.832286010574,
       40.7121933616845
      ],
      [
       -111.829654982283,
       40.7121929570679
      ],
      [
       -111.829601703787,
       40.712197406364
      ],
      [
       -111.829601696868,
       40.7121930452599
      ],
      [
       -111.829601458908,
       40.7120420058892
      ],
      [
       -111.829592551095,
       40.7120419579262
      ],
      [
       -111.828984792532,
       40.7120386726139
      ],
      [
       -111.828983101884,
       40.7122013329344
      ],
      [
       -111.828186912043,
       40.7121953721404
      ],
      [
       -111.82818681027,
       40.7121953724246
      ],
      [
       -111.828186669441,
       40.7121953719173
      ],
      [
       -111.824547717431,
       40.7121900598552
      ],
      [
       -111.824535932858,
       40.7121900428647
      ],
      [
       -111.824550883158,
       40.7113155184474
      ],
      [
       -111.814975948007,
       40.7113109064679
      ],
      [
       -111.814977169221,
       40.7122020614589
      ],
      [
       -111.814976318699,
       40.7122016269956
      ],
      [
       -111.814590916416,
       40.7120046292568
      ],
      [
       -111.814181601954,
       40.7116727803447
      ],
      [
       -111.813663049336,
       40.7116709576419
      ],
      [
       -111.813659519768,
       40.7113223555531
      ],
      [
       -111.813713613929,
       40.71131892797
      ],
      [
       -111.813621560935,
       40.7107904862966
      ],
      [
       -111.813481228774,
       40.7109661232199
      ],
      [
       -111.813003512574,
       40.7107451077794
      ],
      [
       -111.813024417249,
       40.7107147502727
      ],
      [
       -111.812642909215,
       40.7106663614796
      ],
      [
       -111.811997808448,
       40.7104478662854
      ],
      [
       -111.811998479798,
       40.7106012917676
      ],
      [
       -111.810804285233,
       40.7099912218704
      ],
      [
       -111.810669574121,
       40.709815227554
      ],
      [
       -111.810246233879,
       40.7095930080252
      ],
      [
       -111.809952014702,
       40.7093319888502
      ],
      [
       -111.809302987458,
       40.7087561883718
      ],
      [
       -111.806860974745,
       40.708193182469
      ],
      [
       -111.806572428008,
       40.7081931682036
      ],
      [
       -111.80657243281,
       40.708138273639
      ],
      [
       -111.806461116813,
       40.708138884507
      ],
      [
       -111.806187976183,
       40.7086210213452
      ],
      [
       -111.806190445485,
       40.7091699341348
      ],
      [
       -111.805826693086,
       40.7093951436387
      ],
      [
       -111.80581966046,
       40.7090812347744
      ],
      [
       -111.805278627688,
       40.7090813039605
      ],
      [
       -111.805278541933,
       40.7086827830276
      ],
      [
       -111.804229643582,
       40.7085729606862
      ],
      [
       -111.803699465028,
       40.7086003373291
      ],
      [
       -111.802909453271,
       40.7085403124919
      ],
      [
       -111.802638799772,
       40.7084359644456
      ],
      [
       -111.802516006989,
       40.7083124760732
      ],
      [
       -111.802231709164,
       40.7083124519212
      ],
      [
       -111.802235632698,
       40.708571915771
      ],
      [
       -111.801743009579,
       40.7086537510595
      ],
      [
       -111.801254803476,
       40.7088381480973
      ],
      [
       -111.801462506402,
       40.7090742347353
      ],
      [
       -111.800671635783,
       40.7089301335257
      ],
      [
       -111.799385290844,
       40.7088217026938
      ],
      [
       -111.805492058966,
       40.7143535328852
      ],
      [
       -111.797975530695,
       40.7113320216582
      ]
     ]
    ]
   }
  },
  {
   "type": "Feature",
   "properties": {
    "district": "4",
    "DIST": "District 4",
    "CITY": "Millcreek CITY",
    "Representative": "Bev Uipi",
    "plan": "plan_2016",
    "vintage": "2016 incorporation boundaries (in force for the 2017-2022 council terms; redrawn by Ordinance 22-23, 2022-05-09)",
    "source": "Millcreek City GIS \u2014 CityCouncilDistricts FeatureServer layer 0 'City Council District Boundaries 2017-2022' (authoritative published layer)",
    "source_url": "https://services9.arcgis.com/XRrSFvEwSsReIxuA/arcgis/rest/services/CityCouncilDistricts/FeatureServer/0",
    "fetched": "2026-07-19"
   },
   "geometry": {
    "type": "Polygon",
    "coordinates": [
     [
      [
       -111.798356921465,
       40.6870087458973
      ],
      [
       -111.798317782881,
       40.6870088209571
      ],
      [
       -111.798148202911,
       40.6870080780097
      ],
      [
       -111.798139923259,
       40.6870091652212
      ],
      [
       -111.798317782881,
       40.6870088209571
      ],
      [
       -111.81494514741,
       40.6870805377178
      ],
      [
       -111.814957777852,
       40.6870679498562
      ],
      [
       -111.814979429523,
       40.6870463714347
      ],
      [
       -111.814979294748,
       40.6870699156244
      ],
      [
       -111.815702900108,
       40.6870800900225
      ],
      [
       -111.822808897026,
       40.6870851549961
      ],
      [
       -111.827676655157,
       40.6870883765027
      ],
      [
       -111.827676995856,
       40.6870883764531
      ],
      [
       -111.839817149039,
       40.6870955325477
      ],
      [
       -111.839766715539,
       40.689008031809
      ],
      [
       -111.839689657444,
       40.6891031350255
      ],
      [
       -111.839413715533,
       40.6894120319439
      ],
      [
       -111.839292685578,
       40.6895930300317
      ],
      [
       -111.839346715928,
       40.689871032431
      ],
      [
       -111.839734715608,
       40.6901440326908
      ],
      [
       -111.839785715387,
       40.6902410321912
      ],
      [
       -111.839774683203,
       40.6903820100265
      ],
      [
       -111.839544715463,
       40.6910220327378
      ],
      [
       -111.83954967394,
       40.691436028351
      ],
      [
       -111.839465716445,
       40.6916250329044
      ],
      [
       -111.839316716187,
       40.6917260329809
      ],
      [
       -111.838888716348,
       40.6919950325704
      ],
      [
       -111.838731715784,
       40.6923300323158
      ],
      [
       -111.838809716699,
       40.6999180332635
      ],
      [
       -111.795059713104,
       40.6998520600283
      ],
      [
       -111.797581707558,
       40.6892020359271
      ],
      [
       -111.796570667172,
       40.689110074686
      ],
      [
       -111.794028705983,
       40.6890200355252
      ],
      [
       -111.790509647724,
       40.6891440787316
      ],
      [
       -111.786357704569,
       40.6890870365775
      ],
      [
       -111.781976743903,
       40.6895880297804
      ],
      [
       -111.778655704017,
       40.690441037084
      ],
      [
       -111.777276702691,
       40.6906900376414
      ],
      [
       -111.776766015766,
       40.6910735788423
      ],
      [
       -111.77676112419,
       40.6905372969924
      ],
      [
       -111.776805293996,
       40.6675533625068
      ],
      [
       -111.786370525482,
       40.667451512621
      ],
      [
       -111.786387067383,
       40.6638743787635
      ],
      [
       -111.800734473444,
       40.6638561379797
      ],
      [
       -111.80075501469,
       40.6602119687082
      ],
      [
       -111.803772871393,
       40.6601447635087
      ],
      [
       -111.803944858583,
       40.6607031135628
      ],
      [
       -111.806008331549,
       40.6606929594734
      ],
      [
       -111.806065500581,
       40.6606926772378
      ],
      [
       -111.805729544494,
       40.6630300853035
      ],
      [
       -111.805709236639,
       40.6631713791229
      ],
      [
       -111.805580890581,
       40.6653871285711
      ],
      [
       -111.805422939133,
       40.6697555746111
      ],
      [
       -111.805130176879,
       40.6709149041168
      ],
      [
       -111.805115084887,
       40.6709746673193
      ],
      [
       -111.805090131859,
       40.6710133930673
      ],
      [
       -111.804428531013,
       40.6720401580978
      ],
      [
       -111.804328988127,
       40.6721946409544
      ],
      [
       -111.80424191186,
       40.6723078136163
      ],
      [
       -111.802614027095,
       40.6744234866008
      ],
      [
       -111.802620661896,
       40.6744265690801
      ],
      [
       -111.802907916811,
       40.6745600153009
      ],
      [
       -111.801908027038,
       40.6758929886442
      ],
      [
       -111.800693937998,
       40.6774326527983
      ],
      [
       -111.799239851074,
       40.6794430470244
      ],
      [
       -111.798713973027,
       40.680324805052
      ],
      [
       -111.798334972983,
       40.6817876629997
      ],
      [
       -111.798121968327,
       40.6827331675743
      ],
      [
       -111.798001288106,
       40.6832688462928
      ],
      [
       -111.798099921856,
       40.6853893184861
      ],
      [
       -111.798188288949,
       40.6858251400041
      ],
      [
       -111.798351733167,
       40.6858247251024
      ],
      [
       -111.798356921465,
       40.6870087458973
      ]
     ]
    ]
   }
  }
 ]
}
