{"type":"FeatureCollection","crs":{"type":"name","properties":{"name":"EPSG:4326"}},"features":[{"type":"Feature","geometry":{"type":"Polygon","coordinates":[[[-111.866579582418,41.6917555881764],[-111.867034184749,41.6912998259216],[-111.867356910803,41.6909657516525],[-111.866681304946,41.6907395491883],[-111.866729309118,41.6906722639192],[-111.866910176816,41.6904230259346],[-111.866783026575,41.6903413003246],[-111.866897813302,41.6901018382558],[-111.866933683032,41.6901153485635],[-111.86693168428,41.6898143484321],[-111.866931697755,41.6898122776023],[-111.868274093403,41.6900510075425],[-111.868505723101,41.6901153733838],[-111.871845845278,41.6867232901374],[-111.871825110365,41.6855418735404],[-111.866951322351,41.6855222560368],[-111.866947839582,41.6842246376736],[-111.866925341276,41.6828797849588],[-111.866925052917,41.6818647308982],[-111.866925091544,41.6818646946694],[-111.871754815398,41.6819097587122],[-111.871774204635,41.6829014709659],[-111.871799962927,41.6846494528799],[-111.872831431892,41.6846542335462],[-111.873332024373,41.6849319905856],[-111.873609036959,41.6846429205544],[-111.874392426277,41.6838608259293],[-111.87468732971,41.6840862797236],[-111.876595310051,41.6854721569764],[-111.876613933923,41.6854721059904],[-111.877695988819,41.6843974134509],[-111.878444113872,41.6836943711461],[-111.878681870979,41.6834717920792],[-111.878580402674,41.6834142921828],[-111.876516314001,41.6822458075083],[-111.876377014945,41.6821716600881],[-111.876172731761,41.6820631515961],[-111.876290891662,41.681943087258],[-111.876349910078,41.6818830117316],[-111.876572606929,41.6816661338108],[-111.876797160597,41.6814446500331],[-111.877187965475,41.6810525623341],[-111.877365336929,41.6808781841502],[-111.878030681331,41.6802131554641],[-111.878345488736,41.6799057721088],[-111.878592031365,41.679667541937],[-111.878759205145,41.6797513596397],[-111.879560682041,41.6789582015408],[-111.879407521082,41.6788712179962],[-111.881094549101,41.6772027898676],[-111.881089298448,41.6771966144048],[-111.880867859239,41.677107070127],[-111.88007182254,41.6771079457236],[-111.880077772082,41.6767156430622],[-111.881313321212,41.6767182443713],[-111.881316080836,41.6753883310029],[-111.881952901931,41.6753865079689],[-111.882892893655,41.6753894696442],[-111.883203880525,41.6755705529553],[-111.882101011664,41.6766520340774],[-111.882680563363,41.6769861585175],[-111.882671296342,41.6769937054354],[-111.882874384767,41.6771381507776],[-111.882882932236,41.6771306092443],[-111.883371922975,41.677422011705],[-111.883433754016,41.6782271268362],[-111.881341818468,41.678225715171],[-111.881363225321,41.6836685084652],[-111.881272073269,41.6836629924337],[-111.879637981173,41.6825852103818],[-111.879666461361,41.6854612097515],[-111.879664196708,41.6855066228103],[-111.87724052141,41.6855145216053],[-111.877267862534,41.6855459275911],[-111.878358843091,41.6875575116394],[-111.877423489369,41.6879353874878],[-111.876648222618,41.6886706036478],[-111.876482213953,41.6887631103367],[-111.876340005254,41.688847420658],[-111.876247978243,41.688910631189],[-111.876143469141,41.6889926705531],[-111.876094702299,41.6890295206466],[-111.876053319609,41.6890791949847],[-111.876011927037,41.689110494581],[-111.875945047464,41.6891673883236],[-111.875466269673,41.6891636511326],[-111.875473988896,41.688572011005],[-111.875458753469,41.6879357799305],[-111.871912542493,41.6879594975559],[-111.871839124084,41.6879595129852],[-111.871886233534,41.6909054470832],[-111.871902736484,41.6928482295897],[-111.871916354943,41.6967660916109],[-111.871958424845,41.698973033251],[-111.871935070444,41.700153400343],[-111.870829173362,41.7001553910247],[-111.870270291,41.7001531401056],[-111.869510344117,41.7001508764428],[-111.869513500797,41.7007420733769],[-111.869529785457,41.701317499339],[-111.869547124738,41.7037016142769],[-111.869548066173,41.7046456320721],[-111.869876210865,41.7048880492712],[-111.870210940207,41.705092676369],[-111.870638398146,41.7053016446763],[-111.871162926237,41.7054267389629],[-111.871884643516,41.7055216044047],[-111.871869751245,41.7036897801646],[-111.871964937631,41.7036895092106],[-111.871968680012,41.7054965566312],[-111.876887327197,41.7054867797613],[-111.876894099596,41.7072942555072],[-111.875842012498,41.7072936324823],[-111.875900722792,41.7073419118676],[-111.876653468779,41.7079225278196],[-111.877679585582,41.7089115911377],[-111.877242442008,41.7089131268656],[-111.877113411594,41.7089089777177],[-111.877034640124,41.7089148932879],[-111.87704757766,41.7090000007189],[-111.877049182052,41.7091180704279],[-111.876893743863,41.709284625068],[-111.876744537288,41.7094322175525],[-111.876689477747,41.7095554931368],[-111.876710850464,41.7097395242115],[-111.876914131128,41.7098560548451],[-111.877066797116,41.7099541461044],[-111.877057387263,41.7101903823922],[-111.876967099391,41.7102864546077],[-111.876945533536,41.7103093170124],[-111.876996718642,41.71036089755],[-111.877023470471,41.7103657373308],[-111.877148303957,41.7103881115045],[-111.877327303158,41.7105662556258],[-111.877348869912,41.7107645153711],[-111.877351439992,41.7109534625228],[-111.877113697259,41.7110875003461],[-111.876680909616,41.7112514868539],[-111.876619917601,41.7113983157062],[-111.876603045444,41.7115543562005],[-111.876505156027,41.7117724423568],[-111.876576818231,41.7119419467596],[-111.876756077046,41.7121390039178],[-111.876909068223,41.7122606025341],[-111.876901299593,41.712370005618],[-111.876593393046,41.7126486897614],[-111.876451382874,41.7127692057627],[-111.876286665987,41.7128286482501],[-111.876156635748,41.7128310797828],[-111.876065800802,41.712789889901],[-111.876030159244,41.7127145927655],[-111.875989468257,41.7126393344357],[-111.8759320713,41.7125995104128],[-111.875812799285,41.7125532239328],[-111.875682187836,41.7125837623913],[-111.875607227019,41.7126669276469],[-111.875591025903,41.7129257311127],[-111.875493457185,41.7129995212057],[-111.875311615713,41.7130195521243],[-111.874968337104,41.7130219863321],[-111.874730603354,41.7130068620542],[-111.874540140751,41.7130028177812],[-111.872593823008,41.7129816770457],[-111.872426265648,41.7129824978369],[-111.87229652826,41.7129711442278],[-111.872182338913,41.712953815737],[-111.872076122113,41.7129483169696],[-111.871934604218,41.712945788207],[-111.871824498612,41.7129549999837],[-111.871726076495,41.7129570077043],[-111.87158868546,41.7129485027206],[-111.871501788728,41.7129583488669],[-111.871376427932,41.7129683975272],[-111.871288570002,41.7129782510468],[-111.870694236525,41.7129760005766],[-111.870690965759,41.7129029776023],[-111.870682835108,41.7114668212376],[-111.868251815184,41.711473575489],[-111.865603255638,41.7114760969329],[-111.863141088429,41.7114771584877],[-111.860375955407,41.711474614914],[-111.860386626494,41.7123013749786],[-111.860374996904,41.7133583440151],[-111.860373856044,41.713425995155],[-111.860368820987,41.7135081775982],[-111.860204431086,41.7166405113743],[-111.860203137512,41.7167147377488],[-111.860166750353,41.7181780163477],[-111.862665455639,41.7182050399157],[-111.862604891222,41.7196003174968],[-111.862589706999,41.7201188739815],[-111.862582162947,41.7207143836817],[-111.862948348596,41.7207227119667],[-111.864965565872,41.7207423126993],[-111.86497506915,41.7203303507486],[-111.864987004167,41.7198129003001],[-111.864990380036,41.719670203586],[-111.865010999066,41.7187783556894],[-111.865016995321,41.718517379155],[-111.865073493962,41.7182929499134],[-111.865074402159,41.7180469610682],[-111.865087507681,41.7179037421133],[-111.865109831714,41.7169149653402],[-111.865114932348,41.7166320182774],[-111.865118040519,41.7164604106738],[-111.865124632356,41.7160914356421],[-111.865131937456,41.7156859757329],[-111.865445073096,41.7156937045247],[-111.865865351699,41.715703958617],[-111.867871265474,41.7157527768449],[-111.867883660428,41.7154767079135],[-111.867894269531,41.7152020043933],[-111.868743167593,41.7151995528335],[-111.868956893867,41.7151988373482],[-111.869271111977,41.7151979019199],[-111.870135393689,41.7151951445855],[-111.870118845823,41.7157062358139],[-111.870106432004,41.7160870562889],[-111.87009037911,41.7165813915909],[-111.870329111787,41.716589490415],[-111.870320188821,41.7168547239947],[-111.870783896475,41.7168488688333],[-111.871003369272,41.7168460357986],[-111.871296762637,41.7168423692817],[-111.871582821258,41.7168386685669],[-111.871868297771,41.7168362338331],[-111.872439682885,41.7168278426842],[-111.872725242043,41.7168227921696],[-111.873010923371,41.7168177396429],[-111.873296603801,41.7168126877864],[-111.873582284231,41.7168076339179],[-111.873867848778,41.7168028496065],[-111.874155581859,41.7167985004761],[-111.87479067729,41.7167899732023],[-111.875010388141,41.7167870395839],[-111.875536475707,41.7167804199991],[-111.87553592504,41.7167841173645],[-111.875520465932,41.7172393583826],[-111.875505968022,41.7176237980257],[-111.875490979631,41.7180163467534],[-111.875474447037,41.718436918988],[-111.875463696898,41.7187254046559],[-111.875461217547,41.7187907234407],[-111.875585403347,41.7187907683656],[-111.875825747601,41.7187929904704],[-111.876256060385,41.7187968251766],[-111.876644344591,41.7187953942861],[-111.87724984772,41.7188017622183],[-111.877469635825,41.7188040460105],[-111.877854025834,41.718807956485],[-111.879653864286,41.7188297698473],[-111.881001120718,41.7188191769706],[-111.881214245121,41.7188175429128],[-111.881519163871,41.719111263611],[-111.882038019101,41.7194096463919],[-111.882380057137,41.7196304838257],[-111.882638669531,41.719807647526],[-111.882906465402,41.7198740433896],[-111.883253180966,41.7199092068922],[-111.883471032303,41.7199014075334],[-111.883926422457,41.7198925011633],[-111.884286888533,41.7198958523671],[-111.88448479278,41.7199501736259],[-111.884768747546,41.7199935628785],[-111.885145363534,41.7200086761252],[-111.885333422245,41.720028753136],[-111.88548840948,41.7200217054308],[-111.885667979112,41.7199662785645],[-111.885873334884,41.7199940583839],[-111.886079723719,41.7201231591891],[-111.886145443567,41.720242714422],[-111.886194679329,41.7203437534599],[-111.886225687376,41.7205443700347],[-111.886237703241,41.7206926232581],[-111.885689374287,41.7207539545916],[-111.885334579276,41.7208311773696],[-111.884654831287,41.7209790832841],[-111.884311638915,41.7210697224317],[-111.88383544378,41.7210963538843],[-111.883122609042,41.7211199385913],[-111.880196666805,41.7210864694255],[-111.880131754542,41.7228668966315],[-111.872512539848,41.7228214449159],[-111.872574331363,41.7209889080852],[-111.872339976177,41.7209842447747],[-111.871358309811,41.7209713383654],[-111.871304865441,41.7228263709207],[-111.870766320937,41.7228222568653],[-111.87038188242,41.7228164337601],[-111.870066510873,41.7228149493207],[-111.870023154584,41.724547139311],[-111.870020260212,41.7246266927413],[-111.870021575346,41.7246885607098],[-111.872571733435,41.7247140783716],[-111.872575594395,41.7245995713048],[-111.872714832365,41.7246005843696],[-111.874890854716,41.7246097964873],[-111.874896486254,41.7255122531127],[-111.874887401592,41.7264200465102],[-111.878101108351,41.7264572298201],[-111.879732347397,41.7264786175381],[-111.879934888748,41.7264837316561],[-111.879886753422,41.7282517191409],[-111.879883144889,41.7284278339998],[-111.879883894084,41.7285179873131],[-111.879746211995,41.7336280653919],[-111.879751352155,41.7355026444887],[-111.879764092063,41.7357841054301],[-111.879757174137,41.7360702186396],[-111.882122536196,41.7361086478883],[-111.884476401617,41.7361152312946],[-111.888327740649,41.7361917109736],[-111.888699783314,41.7362344095353],[-111.889407536282,41.7363970930942],[-111.892123181115,41.7370420147999],[-111.896969565124,41.7382343626176],[-111.897084196442,41.7382623792044],[-111.901805684982,41.7394367629833],[-111.901815609569,41.7433174194918],[-111.901911467895,41.7476059516364],[-111.901898928311,41.7483168779235],[-111.901957622436,41.749597113434],[-111.892214339455,41.7496035654389],[-111.888903185251,41.7496313016136],[-111.885551459535,41.7496389901314],[-111.87914577267,41.7496608030787],[-111.879261466695,41.7440893933351],[-111.87914498844,41.7440761430341],[-111.874309805525,41.7435227238625],[-111.874169258709,41.7435080310396],[-111.874127632575,41.7451560781716],[-111.871731319961,41.7451210544933],[-111.871212427002,41.7451165236323],[-111.869345761978,41.7451074237055],[-111.869162092435,41.7451058419254],[-111.8691023374,41.746899486551],[-111.864046071009,41.7468289095867],[-111.864037814593,41.7477647935173],[-111.864006574781,41.7504758488245],[-111.863997316743,41.7506555170691],[-111.86398696366,41.7524934602944],[-111.861561623784,41.7524575425923],[-111.861533898181,41.7536581955736],[-111.861517149991,41.754276736366],[-111.861508209059,41.755919668706],[-111.861503686939,41.7560852502996],[-111.861502272991,41.7569058837105],[-111.86149766643,41.7573888701055],[-111.861477660949,41.7579167363187],[-111.861473153203,41.7580833983388],[-111.863783844693,41.7581117138451],[-111.863976502778,41.758117109571],[-111.863932448498,41.7589759824615],[-111.863904801049,41.7597577209061],[-111.863863019507,41.7607324044473],[-111.865422051971,41.7615557036265],[-111.865811188677,41.761553673302],[-111.866282619148,41.7615525509278],[-111.866174022712,41.765329432489],[-111.866148418031,41.7655187699391],[-111.866056844669,41.7674225330791],[-111.863654380392,41.7674118865745],[-111.863467213708,41.7674144634443],[-111.863481127713,41.767070384765],[-111.8634938254,41.7661960776305],[-111.863515226863,41.7656388396868],[-111.863515337356,41.7655752496507],[-111.858379441603,41.7655070048338],[-111.856200565305,41.7654774195276],[-111.856200708137,41.7654972337444],[-111.856163861041,41.7672952888084],[-111.858364217854,41.7673251660723],[-111.85835269157,41.768238464142],[-111.858340469092,41.7691265473522],[-111.858337551364,41.7709518350552],[-111.858236419928,41.7763755461991],[-111.858617490661,41.7763755810349],[-111.860920877949,41.7763575307265],[-111.862372286852,41.7763340353056],[-111.868123794476,41.7762954016923],[-111.868122856635,41.7763417943156],[-111.873134801049,41.7763179512005],[-111.873134450706,41.7762477911197],[-111.876945097853,41.7762178650877],[-111.879342580074,41.7762007097495],[-111.882792304801,41.7761749733841],[-111.882790799224,41.7766180330835],[-111.882786513362,41.7779022694437],[-111.882789710466,41.778521379754],[-111.88279592052,41.7797111424468],[-111.882769730138,41.7838814442607],[-111.886451610077,41.7838885794056],[-111.887643491203,41.7838915354131],[-111.888716288959,41.7838982820492],[-111.892282102971,41.7839011737516],[-111.892451998645,41.7838995848894],[-111.892456482137,41.7841794839183],[-111.892449580381,41.7850788748361],[-111.892452552007,41.7854232748864],[-111.892454867864,41.7856769812422],[-111.892277146067,41.7856787214401],[-111.882762613684,41.7856785526449],[-111.882755631978,41.7875118677728],[-111.879814387837,41.7875217306208],[-111.879373442593,41.7875307823361],[-111.872522735727,41.7834567844882],[-111.872125057838,41.7834598041509],[-111.867023465153,41.7834985098105],[-111.867229614137,41.7838652454962],[-111.867832421422,41.7838761860094],[-111.867821068514,41.7840427183025],[-111.865957854817,41.7840430887236],[-111.862270357712,41.7853776350182],[-111.862337064808,41.7876434484224],[-111.866316805435,41.7894494686446],[-111.867388514433,41.7899311752432],[-111.867397699707,41.7912551178408],[-111.867293959563,41.7912554507135],[-111.86729690963,41.7918403354098],[-111.867299109605,41.7920838635528],[-111.864257569461,41.7920885940336],[-111.86425793238,41.7919185402953],[-111.863416772406,41.7912367408573],[-111.862493074325,41.791237644369],[-111.862499826961,41.79062809792],[-111.857676456892,41.78836025068],[-111.856682229384,41.7878876013568],[-111.855228412098,41.7879399568478],[-111.853505470332,41.7885709133073],[-111.85273196877,41.788841550194],[-111.850707417648,41.7895754003998],[-111.850530274366,41.7927536192761],[-111.850521618199,41.7928909483196],[-111.85045778122,41.7940434911106],[-111.850448845678,41.7947514088639],[-111.850434625347,41.7973448640947],[-111.846298946171,41.7973575736644],[-111.846451006694,41.7947537348269],[-111.846450942914,41.794739775699],[-111.846668381925,41.7914070676581],[-111.846732655485,41.7904563665464],[-111.846893744975,41.7876995215084],[-111.846899348666,41.7876040982362],[-111.847465608892,41.7780567523224],[-111.847479565118,41.7777732921498],[-111.847217701721,41.7777710814643],[-111.84697894479,41.7777690590218],[-111.847075126509,41.7761811527388],[-111.847168359059,41.7745248151509],[-111.84727074634,41.7727050229468],[-111.847590777448,41.7727128400121],[-111.847593702363,41.7726243707145],[-111.847710689064,41.7707905106711],[-111.846333795414,41.7707622932164],[-111.841496509543,41.7706499331278],[-111.839038469194,41.7705936943864],[-111.838837677762,41.7706039872837],[-111.838907712218,41.7687765121874],[-111.8376572798,41.768755101706],[-111.836496850489,41.7687252773679],[-111.834354712591,41.7686881640907],[-111.834369469216,41.7679979462182],[-111.834372590862,41.7676816915043],[-111.834391228209,41.7668917380176],[-111.83439809044,41.7664371095171],[-111.834418708572,41.7659858018031],[-111.83443291453,41.7650673532495],[-111.834395637141,41.7648272281414],[-111.834469897272,41.7622580017535],[-111.834476177394,41.7618421971833],[-111.834486181931,41.7614258230348],[-111.834485889081,41.7613940306274],[-111.834503161887,41.7612601533684],[-111.834508623644,41.7609111849387],[-111.834510095084,41.7608203842331],[-111.834515479586,41.760474749097],[-111.834521767793,41.7600779467643],[-111.834523988429,41.7599429168835],[-111.834527960779,41.7595903562844],[-111.834529268726,41.7595335141438],[-111.834156678089,41.7595303653664],[-111.833054382353,41.759499183147],[-111.832880019356,41.7594947719078],[-111.831536938294,41.7594668516982],[-111.831560977211,41.7585241913892],[-111.831144985369,41.7585133309845],[-111.830588642544,41.7585045653292],[-111.830183491571,41.7584946129149],[-111.830180812795,41.7587720469421],[-111.829765170397,41.7587696452924],[-111.829763851671,41.7589193501886],[-111.829018539242,41.7589117606173],[-111.829006675192,41.7593919161702],[-111.82891320369,41.7593915998846],[-111.828445356599,41.7593804722581],[-111.828118997758,41.7593708456467],[-111.828028991058,41.7593687924698],[-111.827690228279,41.7593582632359],[-111.827368932343,41.7593494990363],[-111.827272904236,41.7593467690605],[-111.826928134423,41.7593368214675],[-111.826685687213,41.7593324403715],[-111.826290002686,41.7593200650133],[-111.826199895375,41.7593195423373],[-111.825817316371,41.7593066208471],[-111.825745126856,41.7592961512418],[-111.825415004074,41.7592838428864],[-111.825330386367,41.7592799476077],[-111.825016746772,41.7592771553099],[-111.825042526624,41.7591861800769],[-111.825049067258,41.7588045992049],[-111.825050306933,41.7587324451737],[-111.824857722509,41.7587327467203],[-111.82413201132,41.7587055297882],[-111.824091829678,41.7593915161225],[-111.823857312795,41.7593865339535],[-111.821634278012,41.7593670562486],[-111.821536547598,41.759362981389],[-111.820982789226,41.7593593729166],[-111.81912671444,41.7593354236446],[-111.818903273784,41.7593310706926],[-111.813979179216,41.7591601648247],[-111.813717039138,41.7591490519002],[-111.811323706235,41.7591126567911],[-111.808595699686,41.7590746045041],[-111.808584511169,41.7590745931124],[-111.808627233247,41.7589801699227],[-111.808657418437,41.7588836732986],[-111.808678142571,41.7588096705428],[-111.808705632815,41.7586998613795],[-111.808760409386,41.7586170632872],[-111.808848584421,41.7585213293675],[-111.808987155842,41.7583868698231],[-111.808875657847,41.7583878347774],[-111.804438701691,41.7584561856719],[-111.80420289842,41.7584441458681],[-111.801636411654,41.7584588392934],[-111.801639527909,41.7585449251276],[-111.800591926998,41.7585469146709],[-111.800409279738,41.7585531412909],[-111.799963369506,41.7585540861396],[-111.799967877252,41.7588395738716],[-111.799966762442,41.7591178962997],[-111.799976042039,41.7594775692111],[-111.799982682386,41.759721612272],[-111.799461840082,41.7597242470786],[-111.79949458637,41.760288484525],[-111.798991077958,41.7602923462381],[-111.798113263127,41.760300610424],[-111.797502503955,41.7603088136309],[-111.797084126188,41.7603097363409],[-111.796904262807,41.7603078306131],[-111.796472505532,41.7603065922921],[-111.795622065961,41.7603106825038],[-111.79562161321,41.760322665],[-111.795212623736,41.760323875177],[-111.795184607977,41.7603248796374],[-111.794776359613,41.7603277945155],[-111.79455907601,41.7603253346264],[-111.794563975422,41.7609857809722],[-111.794562511168,41.7616667160446],[-111.794570122593,41.7619326386255],[-111.794568480473,41.7621797104362],[-111.792481048179,41.7621892642589],[-111.791883677498,41.7621920309675],[-111.791756050253,41.762192910766],[-111.791117652615,41.7622051455261],[-111.790745548864,41.7622035628271],[-111.789809553746,41.7622078405367],[-111.789073961089,41.762210822336],[-111.787855205065,41.7622201784843],[-111.786264352477,41.7622189160778],[-111.785609439312,41.7622185334695],[-111.785340719973,41.7622209101976],[-111.785099573523,41.7622153526605],[-111.784508836901,41.7622196591823],[-111.784197039751,41.7622211574524],[-111.784136886763,41.7622209363303],[-111.783769406641,41.7622236239695],[-111.783710105256,41.7622241198191],[-111.780282990226,41.7622512293884],[-111.780264929597,41.7585758860058],[-111.78494419642,41.7585376162862],[-111.784945073176,41.7549077184444],[-111.784947769918,41.7548921181719],[-111.784956193421,41.7548430616264],[-111.7849585506,41.7548291748972],[-111.784960247518,41.7539220725234],[-111.784952153697,41.7537612635577],[-111.784952114171,41.7532149927108],[-111.78494812655,41.75302596275],[-111.784932090723,41.7512655728111],[-111.784930019208,41.7511941615785],[-111.784899057874,41.7475765443983],[-111.784865871412,41.7458492340879],[-111.784866175941,41.7458347308045],[-111.784833660521,41.7440930944911],[-111.784251934001,41.7440929235757],[-111.781574478347,41.7440936950409],[-111.781572840718,41.7440281345477],[-111.781571158174,41.7436613828983],[-111.781568732723,41.7430944093687],[-111.781568009579,41.7428660872581],[-111.780211821198,41.7426987677357],[-111.780206861599,41.7424976767481],[-111.780203254863,41.7423288193256],[-111.780198432707,41.7403410114847],[-111.784941474525,41.7403258205743],[-111.784947464491,41.7416865540848],[-111.78971816364,41.7416826865602],[-111.789709023282,41.7412605914416],[-111.78971271446,41.7409140674038],[-111.789719073634,41.7404025184474],[-111.789681722582,41.7367453092948],[-111.788648793855,41.7367479001322],[-111.788800369288,41.7362810194905],[-111.790477529313,41.7315265936127],[-111.788832416685,41.7317458709796],[-111.784873005832,41.731719932427],[-111.784961514142,41.7293110377775],[-111.785011148757,41.7259806306915],[-111.794445169632,41.7259365093319],[-111.794474547237,41.724222272934],[-111.794446734497,41.7219644095554],[-111.794431702988,41.7207831555299],[-111.794345173666,41.7189850386382],[-111.800634722738,41.718951662233],[-111.80063214098,41.7186058063688],[-111.803166571366,41.718620260148],[-111.803168716543,41.7186577973136],[-111.803174408268,41.7187574334318],[-111.803173091338,41.7188003152353],[-111.803151291921,41.7188824619744],[-111.8031240559,41.7189444782942],[-111.803003347479,41.7191893218149],[-111.802952302509,41.7193506344266],[-111.802939520381,41.7194314615616],[-111.802919902972,41.7196389061227],[-111.802918575262,41.7196502263693],[-111.800286301274,41.719633225548],[-111.800307147578,41.7207416629847],[-111.800312385655,41.7209894102878],[-111.800332235728,41.7224146295099],[-111.800771486749,41.7224009409345],[-111.801874959277,41.7223662246666],[-111.802570878738,41.7223516383038],[-111.803234932261,41.7223365504159],[-111.80360839067,41.7223301560147],[-111.80405826427,41.7223200746234],[-111.80405212698,41.7228209970364],[-111.80405093761,41.7229183712137],[-111.804036417242,41.7229399082852],[-111.80402514608,41.7229518763017],[-111.8040116983,41.7229629592864],[-111.803995257334,41.7229749635044],[-111.803971027974,41.7229891836455],[-111.803943026588,41.7229998288026],[-111.803913058791,41.723006882886],[-111.803881843233,41.7230102547121],[-111.803859237129,41.7230099623844],[-111.80382456126,41.7230059717085],[-111.80381950644,41.7230055566835],[-111.803750036126,41.7234123475637],[-111.80381486215,41.7234335110167],[-111.804059160788,41.7234333340121],[-111.804078877911,41.7234332850676],[-111.804080433793,41.7234520998509],[-111.804090004444,41.7238724796216],[-111.80410570969,41.7243896405935],[-111.8041070374,41.7244671814942],[-111.804114129599,41.7249009992935],[-111.804161386373,41.7255475509723],[-111.804200603225,41.7261469632987],[-111.80422200379,41.7267735193919],[-111.804236924807,41.7271023505528],[-111.804565732455,41.7270034936805],[-111.805508894333,41.7279604550931],[-111.805389331264,41.728177910357],[-111.805613553454,41.7284075491014],[-111.805711787823,41.7285039554425],[-111.805942309898,41.7287370610871],[-111.806014924316,41.7288132914412],[-111.80614156072,41.7289404812767],[-111.806287552225,41.7290867213199],[-111.806328368078,41.7291296686349],[-111.806436642019,41.7292305086649],[-111.806456632229,41.7292522541297],[-111.806496819262,41.7293986060921],[-111.805593797704,41.7294150284479],[-111.804908106461,41.7294074052199],[-111.804908938301,41.729377675225],[-111.804895525556,41.7291026965901],[-111.804810620388,41.7291014000116],[-111.804291772345,41.7290993586044],[-111.804033967536,41.729098010404],[-111.803775197937,41.7290965770611],[-111.803527664466,41.7290993894433],[-111.803527761484,41.7292711530217],[-111.803522757868,41.7294581719734],[-111.803518899604,41.729592403166],[-111.804126926999,41.7295910321821],[-111.804308840335,41.7295904804365],[-111.804316425709,41.7294563122583],[-111.80450413318,41.7294577000053],[-111.804911265836,41.7294582725347],[-111.805029586535,41.7294587947835],[-111.805265984491,41.7294595691061],[-111.805628869729,41.7294601778375],[-111.806508914179,41.7294427465272],[-111.806967122347,41.7294412407879],[-111.807265331581,41.7294429288786],[-111.807767816811,41.7294438097964],[-111.808047386002,41.7294449977617],[-111.808118811949,41.7294453061499],[-111.808492779704,41.7294475379424],[-111.808697672843,41.7294289830224],[-111.80908131725,41.7288225445206],[-111.809306111667,41.7286750481843],[-111.809449812468,41.7285807237488],[-111.809878288197,41.7282994772868],[-111.809918924387,41.7282129942283],[-111.810193173755,41.7282123217948],[-111.81027143139,41.7282015018507],[-111.810545008818,41.728147512052],[-111.81082907767,41.7281054275856],[-111.810846651412,41.7280495491222],[-111.811176282816,41.728026326306],[-111.811266391025,41.7280111901393],[-111.811691755889,41.727942163891],[-111.812026063922,41.7278893625388],[-111.812148493515,41.7278821025004],[-111.812280734508,41.7278807174011],[-111.81241093902,41.7279086191684],[-111.812819753323,41.7279956175227],[-111.813078909198,41.7281234847635],[-111.814082953496,41.7280535079749],[-111.814083848218,41.7282291379917],[-111.814085076215,41.7283264047507],[-111.814488090994,41.7283442647628],[-111.814918610391,41.7283502180991],[-111.81534443609,41.7283652113863],[-111.815760630052,41.728379370667],[-111.816036082265,41.7283882242385],[-111.816356053186,41.7283994618229],[-111.816434386278,41.7283187431794],[-111.816607428752,41.728121161077],[-111.81679673702,41.7279739011312],[-111.816934862876,41.7278675375025],[-111.817181587864,41.7277919268411],[-111.817295367579,41.7277568910106],[-111.817563697948,41.7276784215153],[-111.817781496285,41.7276921847247],[-111.818002365962,41.7276635903113],[-111.818448154922,41.7276415023903],[-111.818553323387,41.7275912148986],[-111.818920117196,41.7271713964755],[-111.818925199864,41.7274390488706],[-111.818935301419,41.728272303767],[-111.819388734144,41.7280186767665],[-111.82005892855,41.7272815364587],[-111.82030633985,41.7269201210397],[-111.820333812128,41.7268207590483],[-111.820388298544,41.7266239265825],[-111.820613133384,41.7266239433435],[-111.82072159148,41.7265962367863],[-111.820892006381,41.7265525965546],[-111.821669995028,41.7262007181121],[-111.821768335399,41.7261339023834],[-111.822143417064,41.725734551264],[-111.822341191056,41.7255173284215],[-111.822473989004,41.7254091947567],[-111.822900682476,41.7252297830497],[-111.823089917082,41.725229239312],[-111.823310364551,41.7251779402286],[-111.823560955888,41.7251521860807],[-111.823765940656,41.7251516182061],[-111.824037071971,41.7251808372595],[-111.824210226734,41.7252203082031],[-111.824319182496,41.7252319553182],[-111.824497357943,41.7252314873419],[-111.824664130176,41.7252137176461],[-111.824754540219,41.7252040617748],[-111.825683610225,41.7251049787203],[-111.82571547257,41.7252083292115],[-111.825870269362,41.725184970607],[-111.825838445644,41.7250752239389],[-111.827590503605,41.7248090702259],[-111.82841883923,41.7246184581562],[-111.828532292857,41.7245590956304],[-111.828970795582,41.724439742862],[-111.829329401246,41.7243714040232],[-111.829687230767,41.7243363944868],[-111.829932646909,41.7243481329451],[-111.830259660622,41.724347571768],[-111.830485680341,41.7243468402934],[-111.830524149794,41.7243465620514],[-111.830793756669,41.7242761600981],[-111.830976540473,41.7241856689527],[-111.831164375504,41.7239276101246],[-111.831368496991,41.7234406575776],[-111.831570048398,41.7231275571407],[-111.831749469808,41.7229632308296],[-111.832027495694,41.722707220771],[-111.83250376,41.7224504956287],[-111.83250482091,41.7217224523392],[-111.831845323642,41.7217168705106],[-111.831837633165,41.7226212276812],[-111.829705892368,41.7226096189807],[-111.829627741634,41.7226092837404],[-111.828124778417,41.7225695061239],[-111.827973300002,41.7225699660739],[-111.827994813755,41.7218483507712],[-111.827999098719,41.7216670088365],[-111.827793276721,41.7215453663308],[-111.827824547974,41.7215182100691],[-111.828180768612,41.7211998576618],[-111.828292494778,41.7210813320809],[-111.828408572385,41.7209457494854],[-111.828436326734,41.720897633191],[-111.829288297034,41.7209037360679],[-111.829105144921,41.7206844773455],[-111.828504783748,41.7206863748625],[-111.828507068164,41.7205272956946],[-111.828485194187,41.7203311908907],[-111.828498299708,41.720265794552],[-111.828519838614,41.7202017807297],[-111.828549574647,41.7201395973261],[-111.828587278736,41.7200798793166],[-111.828632472978,41.7200230793009],[-111.828684807029,41.7199699207649],[-111.828958697071,41.7197196222608],[-111.829128407693,41.719651025619],[-111.829521401765,41.7196413441029],[-111.830289655369,41.7195239293691],[-111.83089275281,41.719389958086],[-111.831256139309,41.7193498619938],[-111.831250621856,41.7192015553838],[-111.831255392809,41.7190213820685],[-111.830961129875,41.7190145924023],[-111.830998159329,41.7189307407022],[-111.831001442671,41.7186443835225],[-111.831050157411,41.7185251384504],[-111.831142199693,41.7184936701165],[-111.831411305308,41.7184143531639],[-111.831518044926,41.7183852986647],[-111.831686522161,41.7183521036603],[-111.831836795037,41.7183336333747],[-111.831973488979,41.7184087529439],[-111.832068936774,41.71844562105],[-111.832207060834,41.7184731728782],[-111.832284962736,41.7184360392603],[-111.832364692709,41.7182797304987],[-111.832377614076,41.7182561286566],[-111.832376090533,41.7181753469802],[-111.832370335027,41.718148637877],[-111.832356305139,41.718086231883],[-111.832375115861,41.7179414433065],[-111.832407939403,41.7178673470906],[-111.832438076983,41.7177992158316],[-111.832500800949,41.7177131960579],[-111.832590220151,41.717627701196],[-111.832596968295,41.7173308724898],[-111.832598267259,41.7171614413053],[-111.832599228456,41.7170310129182],[-111.832607897199,41.7165756450327],[-111.83260826461,41.7163060638197],[-111.832616667451,41.7146007954505],[-111.83261486543,41.7145822543481],[-111.832602491137,41.7144151749693],[-111.832607589975,41.7143724437996],[-111.832602629478,41.7140159823647],[-111.832602735479,41.7137447803695],[-111.832602794768,41.713637687742],[-111.832632493071,41.7121293380347],[-111.832637997049,41.7112983120915],[-111.832640059581,41.7109924177949],[-111.83264225147,41.7107152561202],[-111.832643131819,41.7102991257673],[-111.833073790455,41.7103063636504],[-111.833155794962,41.7103084700332],[-111.833443747231,41.7103137678438],[-111.833833930475,41.7103143599915],[-111.83433696817,41.7103229592089],[-111.834446634499,41.7103262150146],[-111.834801306442,41.7103320164508],[-111.83482774925,41.7103319145183],[-111.834836619215,41.7100792031729],[-111.834862046928,41.7094432123354],[-111.835548080429,41.7094470529645],[-111.836267264459,41.7094489380715],[-111.836269636011,41.709279407647],[-111.836551382719,41.7092792487101],[-111.836555708107,41.7091215040093],[-111.837755069504,41.7091312320418],[-111.837761045995,41.7089713128183],[-111.837797989211,41.7064842073284],[-111.837840183979,41.7064847103151],[-111.837894756632,41.7064850322265],[-111.839787589581,41.706512917129],[-111.83978779799,41.706482743302],[-111.839812294149,41.7054557631043],[-111.839825556876,41.704895609683],[-111.839849633522,41.7039842835918],[-111.839883334719,41.7028796872429],[-111.839888880019,41.7027331917164],[-111.842258898945,41.7028000606149],[-111.84255002047,41.702765231144],[-111.844241596659,41.7026128480469],[-111.844201409627,41.7001561160675],[-111.844427987199,41.7001586849054],[-111.84495054259,41.7001585366774],[-111.844951402278,41.7002058180318],[-111.846334576948,41.7002047368403],[-111.846869241629,41.7002024181807],[-111.847094279489,41.700499612377],[-111.847364817917,41.7008569992187],[-111.848294256232,41.7008517623339],[-111.848247657924,41.700177660096],[-111.848447573498,41.700172312488],[-111.848861460587,41.7001705156433],[-111.849102131829,41.7001740241518],[-111.849151779918,41.7006090676698],[-111.849189989758,41.7009433601359],[-111.84940788691,41.7009422756032],[-111.849694038956,41.7009402856165],[-111.850374113931,41.7016519853078],[-111.850625386191,41.7018252407781],[-111.852475053294,41.7018117765253],[-111.852454408212,41.7001395058118],[-111.852455019965,41.6983294505123],[-111.852448220616,41.6965042254971],[-111.850118880101,41.6965161669107],[-111.847974972522,41.6965300689323],[-111.848018936072,41.6929039193116],[-111.850614692646,41.6928927513197],[-111.852490760337,41.692882092456],[-111.852588370377,41.6928805456125],[-111.853779655021,41.6928823594307],[-111.854780734879,41.6928746305795],[-111.854929374618,41.6928739752169],[-111.857336227165,41.6928630688282],[-111.85738008651,41.6928628327098],[-111.858018383537,41.6928595988267],[-111.860270929773,41.6928481631814],[-111.862184928827,41.692843636683],[-111.862205799386,41.6928542003008],[-111.865367805406,41.6928355717608],[-111.866577082407,41.6917547657726],[-111.866579582418,41.6917555881764]]]},"properties":{"NAME":"Logan","COUNTYNBR":"03","FIPS":"45860","ENTITYNBR":3070}}]}