{"type": "FeatureCollection", "crs": {"type": "name", "properties": {"name": "urn:ogc:def:crs:OGC:1.3:CRS84"}}, "features": [{"type": "Feature", "properties": {"District": "1", "population": 6174, "Representative": "David Sundwall", "source_label": "Proposed District 1 - 6,174", "plan": "Holladay Council Districts as amended 2022"}, "geometry": {"type": "Polygon", "coordinates": [[[-111.8198953, 40.6698241], [-111.8194937, 40.669974], [-111.8183915, 40.6703242], [-111.8177905, 40.6705749], [-111.8176396, 40.6704244], [-111.816788, 40.6698738], [-111.8165373, 40.6696742], [-111.816187, 40.6691734], [-111.8158358, 40.6686733], [-111.8157352, 40.668473], [-111.8154351, 40.6677725], [-111.8153848, 40.6676723], [-111.8150839, 40.6669719], [-111.8146329, 40.6662714], [-111.814182, 40.6659212], [-111.8132298, 40.6651703], [-111.8129288, 40.6647696], [-111.8128291, 40.6646701], [-111.8127788, 40.6644194], [-111.8127285, 40.6640691], [-111.8126782, 40.6632187], [-111.8125785, 40.6626681], [-111.8124779, 40.6620678], [-111.8124285, 40.6613169], [-111.8123781, 40.6611172], [-111.8122775, 40.6605162], [-111.8121778, 40.6595158], [-111.8121275, 40.6592657], [-111.8126288, 40.6592657], [-111.8134804, 40.6592657], [-111.8149842, 40.6593155], [-111.8166874, 40.6593155], [-111.8180905, 40.6593652], [-111.8184418, 40.6593155], [-111.8191434, 40.6593155], [-111.8191434, 40.6618675], [-111.8191434, 40.6626184], [-111.8191937, 40.6629182], [-111.8191937, 40.6632685], [-111.8191937, 40.6633189], [-111.8205465, 40.6624181], [-111.8211978, 40.6619676], [-111.8216488, 40.6616174], [-111.8218491, 40.6613169], [-111.8220997, 40.6610668], [-111.82215, 40.6608664], [-111.8223, 40.6605162], [-111.8223, 40.6598156], [-111.8223, 40.659616], [-111.822451, 40.6593155], [-111.8227519, 40.6586647], [-111.8228516, 40.658465], [-111.8230016, 40.6582149], [-111.8235029, 40.6572138], [-111.8239044, 40.6563633], [-111.8240545, 40.6561629], [-111.824756, 40.6562631], [-111.8252573, 40.6561132], [-111.8254576, 40.6561132], [-111.8259589, 40.6561629], [-111.8263092, 40.6562631], [-111.8265599, 40.6564131], [-111.8270611, 40.6567633], [-111.8271114, 40.6569637], [-111.8271114, 40.6570639], [-111.8270108, 40.6572138], [-111.8269614, 40.6573637], [-111.8270611, 40.6576138], [-111.8272614, 40.6577644], [-111.8280133, 40.6579144], [-111.828264, 40.6582646], [-111.8290662, 40.6585652], [-111.8292665, 40.6586647], [-111.8295665, 40.6586647], [-111.8297174, 40.6586647], [-111.8299681, 40.6588153], [-111.8301181, 40.6590149], [-111.8302187, 40.6591151], [-111.830419, 40.6595655], [-111.8306193, 40.6597659], [-111.8308197, 40.6598661], [-111.8311206, 40.6599158], [-111.8313712, 40.6599662], [-111.8322731, 40.6599158], [-111.8325238, 40.6599158], [-111.8327744, 40.660016], [-111.8329747, 40.6602163], [-111.8330744, 40.6603165], [-111.8332757, 40.6603165], [-111.833776, 40.6603165], [-111.8348288, 40.6603663], [-111.8352295, 40.6603165], [-111.8353804, 40.6605162], [-111.836382, 40.6614675], [-111.8371842, 40.6622177], [-111.8385371, 40.6634191], [-111.8386377, 40.6635192], [-111.838838, 40.6638695], [-111.8389377, 40.663969], [-111.8390384, 40.6642695], [-111.8391884, 40.66497], [-111.8392387, 40.66522], [-111.839289, 40.6659212], [-111.839289, 40.6665712], [-111.8393896, 40.6672717], [-111.8394893, 40.6676226], [-111.8398405, 40.668723], [-111.8400912, 40.6694739], [-111.8403409, 40.6702247], [-111.8404918, 40.6706247], [-111.8405421, 40.6708747], [-111.8406921, 40.6712249], [-111.8406921, 40.6713755], [-111.8407928, 40.6717755], [-111.8409931, 40.672576], [-111.8415941, 40.6742779], [-111.841745, 40.6746779], [-111.8419453, 40.6752284], [-111.842045, 40.6754287], [-111.8421456, 40.6758293], [-111.8422956, 40.6762292], [-111.8423459, 40.6764295], [-111.8424466, 40.6767299], [-111.8406418, 40.6767299], [-111.8384868, 40.6767299], [-111.8371339, 40.6767299], [-111.836833, 40.6767797], [-111.8364826, 40.6769799], [-111.8355807, 40.6759294], [-111.8352798, 40.6755288], [-111.8349789, 40.6751282], [-111.8344282, 40.674528], [-111.8342773, 40.6742779], [-111.8327241, 40.6742779], [-111.8319722, 40.6742779], [-111.8304693, 40.6742275], [-111.8300678, 40.6742275], [-111.8296671, 40.6742275], [-111.8287652, 40.6742275], [-111.8264098, 40.6742275], [-111.8245054, 40.6742275], [-111.8243554, 40.6741778], [-111.8239044, 40.6742275], [-111.8231525, 40.6743781], [-111.8229522, 40.6744278], [-111.8227016, 40.6728765], [-111.822601, 40.6726264], [-111.8223, 40.6722762], [-111.82215, 40.6721761], [-111.8217997, 40.6718259], [-111.8209472, 40.6709749], [-111.8208475, 40.6708747], [-111.8198953, 40.6698241]]]}}, {"type": "Feature", "properties": {"District": "2", "population": 6675, "Representative": "Matt Durham", "source_label": "Proposed District 2 - 6,675", "plan": "Holladay Council Districts as amended 2022"}, "geometry": {"type": "Polygon", "coordinates": [[[-111.8149842, 40.6790319], [-111.8150336, 40.6761794], [-111.8150336, 40.6760289], [-111.8150336, 40.6752788], [-111.8169883, 40.6753789], [-111.8179908, 40.6753789], [-111.8187427, 40.6752788], [-111.8197443, 40.6751282], [-111.8211978, 40.6749286], [-111.8212984, 40.6749286], [-111.8215491, 40.6748782], [-111.8217997, 40.6748284], [-111.8224007, 40.6746281], [-111.8229522, 40.6744278], [-111.8231525, 40.6743781], [-111.8239044, 40.6742275], [-111.8243554, 40.6741778], [-111.8245054, 40.6742275], [-111.8264098, 40.6742275], [-111.8287652, 40.6742275], [-111.8296671, 40.6742275], [-111.8300678, 40.6742275], [-111.8304693, 40.6742275], [-111.8319722, 40.6742779], [-111.8327241, 40.6742779], [-111.8342773, 40.6742779], [-111.8344282, 40.674528], [-111.8349789, 40.6751282], [-111.8352798, 40.6755288], [-111.8355807, 40.6759294], [-111.8364826, 40.6769799], [-111.836833, 40.6767797], [-111.8371339, 40.6767299], [-111.8384868, 40.6767299], [-111.8406418, 40.6767299], [-111.8424466, 40.6767299], [-111.8424466, 40.6769302], [-111.8425966, 40.6781306], [-111.8426469, 40.6783309], [-111.8426963, 40.6788316], [-111.8428472, 40.6796321], [-111.8429972, 40.680483], [-111.8431481, 40.680983], [-111.8432479, 40.6814333], [-111.8433979, 40.6820839], [-111.8438497, 40.6834354], [-111.8439997, 40.6838353], [-111.8444004, 40.6850363], [-111.8445513, 40.6854368], [-111.845102, 40.687088], [-111.8448513, 40.687088], [-111.8436988, 40.687088], [-111.8431481, 40.687088], [-111.8403912, 40.687088], [-111.8398405, 40.687088], [-111.8385874, 40.687088], [-111.8376855, 40.687088], [-111.8366327, 40.687088], [-111.835631, 40.687088], [-111.834077, 40.687088], [-111.8329747, 40.687088], [-111.8324232, 40.687088], [-111.8309203, 40.687088], [-111.8296671, 40.687088], [-111.8295665, 40.687088], [-111.8285146, 40.687088], [-111.8271617, 40.687088], [-111.8261089, 40.687088], [-111.8245054, 40.687088], [-111.822601, 40.687088], [-111.8223503, 40.687088], [-111.8198953, 40.687088], [-111.8195943, 40.687088], [-111.8185918, 40.687088], [-111.8182415, 40.687088], [-111.8154854, 40.687088], [-111.8149842, 40.687088], [-111.8149842, 40.6857372], [-111.8149842, 40.6856868], [-111.8149842, 40.6849361], [-111.8149842, 40.6841357], [-111.8149339, 40.6833353], [-111.8149842, 40.6825342], [-111.8149842, 40.682184], [-111.8149842, 40.6817842], [-111.8149842, 40.680983], [-111.8149842, 40.6805327], [-111.8149842, 40.6799823], [-111.8149842, 40.6790319]]]}}, {"type": "Feature", "properties": {"District": "3", "population": 6540, "Representative": "Natalie Bradley", "source_label": "Proposed District 3 - 6,540", "plan": "Holladay Council Districts as amended 2022"}, "geometry": {"type": "Polygon", "coordinates": [[[-111.8484599, 40.6494077], [-111.8487608, 40.6500081], [-111.8500131, 40.6527602], [-111.850765, 40.6543617], [-111.8508656, 40.6545117], [-111.8511162, 40.6549117], [-111.8512159, 40.6552123], [-111.8514665, 40.6555121], [-111.8516166, 40.6557629], [-111.8523181, 40.6568138], [-111.8526191, 40.657164], [-111.8529703, 40.6576643], [-111.853221, 40.6579641], [-111.8536719, 40.658465], [-111.8540726, 40.6588153], [-111.8544732, 40.6592153], [-111.8544732, 40.6604664], [-111.8544732, 40.6609666], [-111.8544732, 40.662168], [-111.8544732, 40.6626681], [-111.8544732, 40.6628685], [-111.8544732, 40.6643199], [-111.8544229, 40.6657209], [-111.8541723, 40.6657209], [-111.8539225, 40.6657706], [-111.8532704, 40.6659212], [-111.85292, 40.6660711], [-111.8524691, 40.6662714], [-111.8510659, 40.6667218], [-111.8493115, 40.667222], [-111.8491112, 40.6672717], [-111.8487105, 40.6673221], [-111.8484096, 40.6673221], [-111.8480089, 40.6673221], [-111.8477583, 40.6672717], [-111.8465051, 40.6670721], [-111.8457039, 40.6669215], [-111.8443501, 40.6664213], [-111.8433485, 40.6661208], [-111.8425966, 40.6660207], [-111.8419453, 40.6659709], [-111.8407425, 40.6659212], [-111.839289, 40.6659212], [-111.8392387, 40.66522], [-111.8391884, 40.66497], [-111.8390384, 40.6642695], [-111.8389377, 40.663969], [-111.838838, 40.6638695], [-111.8386377, 40.6635192], [-111.8385371, 40.6634191], [-111.8371842, 40.6622177], [-111.836382, 40.6614675], [-111.8353804, 40.6605162], [-111.8352295, 40.6603165], [-111.8351298, 40.6601659], [-111.8348288, 40.6595655], [-111.8347785, 40.6593155], [-111.8347282, 40.6590654], [-111.8347785, 40.6582149], [-111.8347785, 40.6580643], [-111.8347785, 40.6574142], [-111.8348288, 40.6572635], [-111.8348288, 40.6562127], [-111.8348288, 40.6559128], [-111.8348792, 40.6551618], [-111.8348792, 40.6544612], [-111.8349295, 40.6534103], [-111.8349295, 40.6529605], [-111.8349789, 40.6520596], [-111.8349789, 40.6515593], [-111.8349789, 40.6510086], [-111.8349789, 40.650308], [-111.8349789, 40.6499577], [-111.8349789, 40.6495576], [-111.8349295, 40.6493075], [-111.8349789, 40.6484569], [-111.8349789, 40.6470556], [-111.8349789, 40.6465048], [-111.8349789, 40.6458041], [-111.8349789, 40.645554], [-111.8349789, 40.6447034], [-111.8349789, 40.6439031], [-111.8350292, 40.6429523], [-111.8350292, 40.6427519], [-111.835631, 40.6427519], [-111.8373846, 40.6427021], [-111.8395899, 40.6426517], [-111.8421456, 40.6439529], [-111.8439997, 40.6449535], [-111.8443007, 40.6451041], [-111.844952, 40.6454545], [-111.8453526, 40.6457544], [-111.8458539, 40.6461047], [-111.8462042, 40.6463549], [-111.8464548, 40.646605], [-111.8468061, 40.6469056], [-111.8470567, 40.6472055], [-111.8475077, 40.6477562], [-111.847858, 40.6482565], [-111.8481086, 40.6486566], [-111.8484599, 40.6494077]]]}}, {"type": "Feature", "properties": {"District": "4", "population": 6183, "Representative": "Drew Quinn", "source_label": "Proposed District 4 - 6,183", "plan": "Holladay Council Districts as amended 2022"}, "geometry": {"type": "Polygon", "coordinates": [[[-111.7982459, 40.680483], [-111.7994487, 40.6786313], [-111.7998997, 40.677931], [-111.8016532, 40.6755288], [-111.8025057, 40.6744278], [-111.8034579, 40.6731769], [-111.8043095, 40.6720262], [-111.8049114, 40.671075], [-111.8051117, 40.6706751], [-111.8053623, 40.6696238], [-111.8053623, 40.668723], [-111.8057127, 40.668723], [-111.8061133, 40.668723], [-111.8072164, 40.6687734], [-111.8076674, 40.668723], [-111.807918, 40.668723], [-111.8081183, 40.6686229], [-111.8083187, 40.6684232], [-111.8085693, 40.6682726], [-111.8088702, 40.668073], [-111.8093715, 40.6677725], [-111.8097218, 40.6675722], [-111.8101225, 40.6673719], [-111.8102231, 40.6673221], [-111.8103237, 40.6671722], [-111.810524, 40.6667218], [-111.8105734, 40.6666714], [-111.8109247, 40.6664711], [-111.8112256, 40.6668213], [-111.8113756, 40.6669215], [-111.811576, 40.6670216], [-111.8117269, 40.6667716], [-111.8119272, 40.6665712], [-111.8123278, 40.6663212], [-111.8126782, 40.6661713], [-111.8128794, 40.6660711], [-111.81313, 40.6660711], [-111.8135307, 40.6660207], [-111.814182, 40.6659212], [-111.8146329, 40.6662714], [-111.8150839, 40.6669719], [-111.8153848, 40.6676723], [-111.8154351, 40.6677725], [-111.8157352, 40.668473], [-111.8158358, 40.6686733], [-111.816187, 40.6691734], [-111.8165373, 40.6696742], [-111.816788, 40.6698738], [-111.8176396, 40.6704244], [-111.8177905, 40.6705749], [-111.8183915, 40.6703242], [-111.8194937, 40.669974], [-111.8198953, 40.6698241], [-111.8208475, 40.6708747], [-111.8209472, 40.6709749], [-111.8217997, 40.6718259], [-111.82215, 40.6721761], [-111.8223, 40.6722762], [-111.822601, 40.6726264], [-111.8227016, 40.6728765], [-111.8229522, 40.6744278], [-111.8224007, 40.6746281], [-111.8217997, 40.6748284], [-111.8215491, 40.6748782], [-111.8212984, 40.6749286], [-111.8211978, 40.6749286], [-111.8197443, 40.6751282], [-111.8187427, 40.6752788], [-111.8179908, 40.6753789], [-111.8169883, 40.6753789], [-111.8150336, 40.6752788], [-111.8150336, 40.6760289], [-111.8150336, 40.6761794], [-111.8149842, 40.6790319], [-111.8149842, 40.6799823], [-111.8149842, 40.6805327], [-111.8149842, 40.680983], [-111.8149842, 40.6817842], [-111.8149842, 40.682184], [-111.8149842, 40.6825342], [-111.8149339, 40.6833353], [-111.8149842, 40.6841357], [-111.8149842, 40.6849361], [-111.8149842, 40.6856868], [-111.8149842, 40.6857372], [-111.8149842, 40.687088], [-111.8146832, 40.687088], [-111.8120772, 40.6870383], [-111.8116263, 40.6870383], [-111.8113756, 40.6870383], [-111.811125, 40.6870383], [-111.8102231, 40.6870383], [-111.8092709, 40.6869879], [-111.8082181, 40.6869879], [-111.8059633, 40.6870383], [-111.805462, 40.6870383], [-111.8049608, 40.6870383], [-111.8019038, 40.6870383], [-111.8001, 40.6870383], [-111.799649, 40.6870383], [-111.7981452, 40.6869879], [-111.7974437, 40.6870383], [-111.797494, 40.6858373], [-111.7974437, 40.6850867], [-111.7974437, 40.6835853], [-111.7976943, 40.6821343], [-111.7978955, 40.6814837], [-111.7980958, 40.6808332], [-111.7982459, 40.680483]]]}}, {"type": "Feature", "properties": {"District": "5", "population": 6393, "Representative": "Emily Gray", "source_label": "Proposed District 5 - 6,393", "plan": "Holladay Council Districts as amended 2022"}, "geometry": {"type": "Polygon", "coordinates": [[[-111.8072164, 40.6687734], [-111.8061133, 40.668723], [-111.8057127, 40.668723], [-111.8053623, 40.668723], [-111.8054117, 40.6674223], [-111.8054117, 40.6643696], [-111.8055123, 40.6630184], [-111.8056129, 40.6624181], [-111.8056623, 40.6618675], [-111.805763, 40.661167], [-111.8058133, 40.6608167], [-111.8060136, 40.6599662], [-111.8062139, 40.6591655], [-111.805312, 40.6591655], [-111.8056623, 40.6582149], [-111.8057127, 40.6579144], [-111.805763, 40.6572635], [-111.8056623, 40.6564635], [-111.8056129, 40.6562631], [-111.8056623, 40.6556627], [-111.805763, 40.6553124], [-111.8061636, 40.6543113], [-111.8064142, 40.6535105], [-111.8065148, 40.6529605], [-111.8065652, 40.6522095], [-111.8065148, 40.6518094], [-111.8064645, 40.6513092], [-111.8063639, 40.6508587], [-111.8061133, 40.6501581], [-111.805913, 40.6496578], [-111.8056129, 40.6491568], [-111.8052617, 40.648707], [-111.8039591, 40.6472559], [-111.8035082, 40.646755], [-111.8031066, 40.6463549], [-111.802856, 40.646055], [-111.802706, 40.6458546], [-111.802255, 40.6450537], [-111.8007018, 40.6428016], [-111.8000497, 40.6419012], [-111.7982962, 40.641951], [-111.7934848, 40.6420014], [-111.7911294, 40.641951], [-111.7911294, 40.6385488], [-111.7911294, 40.6383484], [-111.7895762, 40.6383484], [-111.7895259, 40.638148], [-111.7864186, 40.6381985], [-111.7864689, 40.6346952], [-111.7894756, 40.6346952], [-111.79108, 40.6347457], [-111.79108, 40.6346952], [-111.79123, 40.6340946], [-111.79123, 40.6311427], [-111.7972936, 40.6311427], [-111.7974437, 40.6311427], [-111.7988468, 40.6311925], [-111.7991478, 40.6311925], [-111.8001503, 40.6311925], [-111.8002006, 40.6307419], [-111.8002006, 40.6304419], [-111.8007018, 40.6305421], [-111.8009516, 40.6306423], [-111.8011025, 40.6307419], [-111.8012022, 40.6308421], [-111.8012525, 40.6310425], [-111.8012525, 40.6311925], [-111.8046607, 40.6311925], [-111.8051117, 40.6311925], [-111.8058133, 40.6311925], [-111.8062642, 40.6315429], [-111.8068149, 40.6318933], [-111.8063639, 40.6332943], [-111.8060136, 40.6344955], [-111.8055626, 40.6358964], [-111.8064142, 40.6362966], [-111.8077671, 40.6368971], [-111.808519, 40.6374479], [-111.8086196, 40.6374977], [-111.8088199, 40.6375979], [-111.8089196, 40.6373477], [-111.8092709, 40.6368971], [-111.8094209, 40.6366967], [-111.8096221, 40.6363968], [-111.8099222, 40.6361466], [-111.8104737, 40.635696], [-111.8110253, 40.6353456], [-111.8113253, 40.6351956], [-111.811576, 40.6350456], [-111.8120772, 40.6348452], [-111.8127285, 40.634595], [-111.8134301, 40.634445], [-111.8143823, 40.6342951], [-111.8153345, 40.6342951], [-111.8158861, 40.6343448], [-111.8185415, 40.6344955], [-111.8196949, 40.6344955], [-111.8196949, 40.6343448], [-111.8205465, 40.6343953], [-111.8223503, 40.6343953], [-111.8245054, 40.6343448], [-111.824756, 40.6343448], [-111.8268608, 40.6343953], [-111.8276127, 40.6343953], [-111.8281633, 40.6343448], [-111.8294668, 40.6341451], [-111.8309203, 40.6337947], [-111.8319219, 40.633494], [-111.8326738, 40.6333441], [-111.8332757, 40.6331941], [-111.8338766, 40.6329937], [-111.8341273, 40.6329439], [-111.8342279, 40.6337442], [-111.8342773, 40.6346952], [-111.8342773, 40.6356462], [-111.8342773, 40.6371971], [-111.8342773, 40.6375474], [-111.8342773, 40.6377976], [-111.8343276, 40.638148], [-111.8344776, 40.6384984], [-111.8349295, 40.6392993], [-111.8353804, 40.6398999], [-111.8362823, 40.6407506], [-111.8371339, 40.6414009], [-111.8395899, 40.6426517], [-111.8373846, 40.6427021], [-111.835631, 40.6427519], [-111.8350292, 40.6427519], [-111.8350292, 40.6429523], [-111.8349789, 40.6439031], [-111.8349789, 40.6447034], [-111.8349789, 40.645554], [-111.8349789, 40.6458041], [-111.8349789, 40.6465048], [-111.8349789, 40.6470556], [-111.8349789, 40.6484569], [-111.8349295, 40.6493075], [-111.8349789, 40.6495576], [-111.8349789, 40.6499577], [-111.8349789, 40.650308], [-111.8349789, 40.6510086], [-111.8349789, 40.6515593], [-111.8349789, 40.6520596], [-111.8349295, 40.6529605], [-111.8349295, 40.6534103], [-111.8348792, 40.6544612], [-111.8348792, 40.6551618], [-111.8348288, 40.6559128], [-111.8348288, 40.6562127], [-111.8348288, 40.6572635], [-111.8347785, 40.6574142], [-111.8347785, 40.6580643], [-111.8347785, 40.6582149], [-111.8347282, 40.6590654], [-111.8347785, 40.6593155], [-111.8348288, 40.6595655], [-111.8351298, 40.6601659], [-111.8352295, 40.6603165], [-111.8348288, 40.6603663], [-111.833776, 40.6603165], [-111.8332757, 40.6603165], [-111.8330744, 40.6603165], [-111.8329747, 40.6602163], [-111.8327744, 40.660016], [-111.8325238, 40.6599158], [-111.8322731, 40.6599158], [-111.8313712, 40.6599662], [-111.8311206, 40.6599158], [-111.8308197, 40.6598661], [-111.8306193, 40.6597659], [-111.830419, 40.6595655], [-111.8302187, 40.6591151], [-111.8301181, 40.6590149], [-111.8299681, 40.6588153], [-111.8297174, 40.6586647], [-111.8295665, 40.6586647], [-111.8292665, 40.6586647], [-111.8290662, 40.6585652], [-111.828264, 40.6582646], [-111.8280133, 40.6579144], [-111.8272614, 40.6577644], [-111.8270611, 40.6576138], [-111.8269614, 40.6573637], [-111.8270108, 40.6572138], [-111.8271114, 40.6570639], [-111.8271114, 40.6569637], [-111.8270611, 40.6567633], [-111.8265599, 40.6564131], [-111.8263092, 40.6562631], [-111.8259589, 40.6561629], [-111.8254576, 40.6561132], [-111.8252573, 40.6561132], [-111.824756, 40.6562631], [-111.8240545, 40.6561629], [-111.8239044, 40.6563633], [-111.8235029, 40.6572138], [-111.8230016, 40.6582149], [-111.8228516, 40.658465], [-111.8227519, 40.6586647], [-111.822451, 40.6593155], [-111.8223, 40.659616], [-111.8223, 40.6598156], [-111.8223, 40.6605162], [-111.82215, 40.6608664], [-111.8220997, 40.6610668], [-111.8218491, 40.6613169], [-111.8216488, 40.6616174], [-111.8211978, 40.6619676], [-111.8205465, 40.6624181], [-111.8191937, 40.6633189], [-111.8191937, 40.6632685], [-111.8191937, 40.6629182], [-111.8191434, 40.6626184], [-111.8191434, 40.6618675], [-111.8191434, 40.6593155], [-111.8184418, 40.6593155], [-111.8180905, 40.6593652], [-111.8166874, 40.6593155], [-111.8149842, 40.6593155], [-111.8134804, 40.6592657], [-111.8126288, 40.6592657], [-111.8121275, 40.6592657], [-111.8121778, 40.6595158], [-111.8122775, 40.6605162], [-111.8123781, 40.6611172], [-111.8124285, 40.6613169], [-111.8124779, 40.6620678], [-111.8125785, 40.6626681], [-111.8126782, 40.6632187], [-111.8127285, 40.6640691], [-111.8127788, 40.6644194], [-111.8128291, 40.6646701], [-111.8129288, 40.6647696], [-111.8132298, 40.6651703], [-111.814182, 40.6659212], [-111.8135307, 40.6660207], [-111.81313, 40.6660711], [-111.8128794, 40.6660711], [-111.8126782, 40.6661713], [-111.8123278, 40.6663212], [-111.8119272, 40.6665712], [-111.8117269, 40.6667716], [-111.811576, 40.6670216], [-111.8113756, 40.6669215], [-111.8112256, 40.6668213], [-111.8109247, 40.6664711], [-111.8105734, 40.6666714], [-111.810524, 40.6667218], [-111.8103237, 40.6671722], [-111.8102231, 40.6673221], [-111.8101225, 40.6673719], [-111.8097218, 40.6675722], [-111.8093715, 40.6677725], [-111.8088702, 40.668073], [-111.8085693, 40.6682726], [-111.8083187, 40.6684232], [-111.8081183, 40.6686229], [-111.807918, 40.668723], [-111.8076674, 40.668723], [-111.8072164, 40.6687734]]]}}]}