{"type":"FeatureCollection","crs":{"type":"name","properties":{"name":"EPSG:4326"}},"features":[{"type":"Feature","id":1,"geometry":{"type":"Polygon","coordinates":[[[-112.046379030454,40.5369216530306],[-112.041369532153,40.5369222565446],[-112.039419811592,40.5369286671743],[-112.032983530803,40.536935048447],[-112.031586412483,40.5369345289061],[-112.029108909235,40.5369403018854],[-112.028343363153,40.536940845321],[-112.026146458566,40.5369423807313],[-112.024348831766,40.5369442131195],[-112.022742653919,40.5369385575664],[-112.021666895316,40.5369287456858],[-112.019307614851,40.5369402684327],[-112.016277651296,40.536952040366],[-112.014542651445,40.5369550408672],[-112.012464650563,40.5369500413973],[-112.012289651559,40.5369350409372],[-112.011827650704,40.5369500407146],[-112.011575650808,40.5369500413973],[-112.010874650477,40.5369490419128],[-112.010003651164,40.5369480417457],[-112.009144650648,40.5369480417457],[-112.007101649926,40.5369470422613],[-112.005401650235,40.5369470422613],[-112.000543559382,40.5369308033681],[-111.99994308592,40.5369322670942],[-111.999940948828,40.5368376088666],[-111.999942143587,40.5358009583358],[-111.999943225159,40.534862866326],[-111.999944366918,40.5338725200409],[-111.999944975077,40.5333454685069],[-111.999945575152,40.5328243725519],[-111.999934948082,40.5297331637913],[-111.999932718463,40.5296441945777],[-111.999759301393,40.5296431376306],[-111.999084955872,40.5296390204528],[-111.999084360289,40.5287003983587],[-111.99908364523,40.5275784736709],[-111.999082737033,40.5261391536997],[-111.999082207027,40.5252988752462],[-111.999081589884,40.5243194290816],[-111.99908100059,40.5233822702543],[-111.998309342371,40.5226147918488],[-111.99833030366,40.5225394409188],[-111.998358987765,40.5224363372849],[-111.998302137882,40.5223454060973],[-111.999939991224,40.5223655920217],[-112.004716912105,40.5224158290737],[-112.006005185155,40.5224375589139],[-112.008542998596,40.5224478222355],[-112.008982649368,40.5223480398756],[-112.009179649011,40.522344039701],[-112.00938077282,40.5223232508074],[-112.009595648938,40.5223010401987],[-112.010118649893,40.522221040702],[-112.010236648995,40.5221790394598],[-112.010636649029,40.522041039778],[-112.010711649372,40.5220150392025],[-112.011072543045,40.5218557974074],[-112.011077342744,40.5215334278634],[-112.011073268884,40.5213396823969],[-112.01113428156,40.5209812828098],[-112.011243632581,40.5206984453987],[-112.01139716185,40.520436145664],[-112.011624650314,40.5201685184478],[-112.011898851173,40.5199340249369],[-112.01250289993,40.5195575200156],[-112.013178858825,40.5191699679329],[-112.014220997081,40.5185724544093],[-112.015161807169,40.5180165419882],[-112.01608376162,40.5174717542834],[-112.018248445435,40.5161925689984],[-112.018619015761,40.5159727744456],[-112.018947493728,40.515811911379],[-112.019321423753,40.5156790826712],[-112.019604678732,40.5156070579869],[-112.019893675742,40.51555666354],[-112.020245420075,40.5155453303842],[-112.021194650072,40.5155420379979],[-112.021625845002,40.5155430371187],[-112.02190582113,40.5155324975207],[-112.022158704069,40.5154949884761],[-112.022280571317,40.5154587059472],[-112.02275781838,40.5151815859437],[-112.023086898218,40.5150102031526],[-112.023399833534,40.5148341944168],[-112.024475640646,40.5144285383631],[-112.024847099406,40.5143298702322],[-112.02530347591,40.5142391855169],[-112.02593913189,40.5141694075245],[-112.027064961689,40.5141695441125],[-112.028872793351,40.5141620030886],[-112.031004924017,40.5141578514957],[-112.033038673887,40.514156799085],[-112.03303082351,40.5157216951054],[-112.033022973133,40.5172865901131],[-112.035067546804,40.5172133700163],[-112.035070441176,40.5173007570433],[-112.035071243372,40.5172768388654],[-112.035215111259,40.5172773995332],[-112.035217167503,40.5169707784486],[-112.035681141957,40.5169725861153],[-112.035773166273,40.5169030684254],[-112.036575413924,40.516906188651],[-112.03663103581,40.5173573776134],[-112.038556037429,40.5165712419528],[-112.039118020776,40.5189669378771],[-112.041180654178,40.517809037474],[-112.041180680229,40.5178127674897],[-112.041476021142,40.5176834638],[-112.042171766329,40.5173314762915],[-112.042492264561,40.5172338764044],[-112.042787547982,40.51708249994],[-112.042975322825,40.5169666202006],[-112.043241225946,40.5167373630002],[-112.043622688345,40.5164764497946],[-112.043877203523,40.5163353659259],[-112.04411317927,40.5161483704406],[-112.044458954298,40.5160647031466],[-112.044789324116,40.5160232423354],[-112.045140644444,40.5160007011542],[-112.045454961369,40.515892766714],[-112.045872423753,40.5156925301386],[-112.046013278691,40.5156685369483],[-112.046007180927,40.5156485771042],[-112.046065623523,40.5156389021059],[-112.046352903852,40.5154956085734],[-112.046948939636,40.5153606396258],[-112.047951969737,40.5151279793561],[-112.048322086413,40.5150776357688],[-112.048373435912,40.5187606197585],[-112.053128758598,40.5187679526657],[-112.057914411103,40.5187751360185],[-112.057896261541,40.51618403592],[-112.057888913322,40.5151349452441],[-112.062669713128,40.5151400815617],[-112.06744865971,40.5151570346168],[-112.077026582609,40.5151543500191],[-112.081812073418,40.5151587159902],[-112.081812051858,40.5151341612403],[-112.086465625067,40.5151099315563],[-112.091191364435,40.5150938178111],[-112.091166495474,40.5134465942728],[-112.091500626539,40.513515150543],[-112.091860521286,40.5137458235777],[-112.092615785251,40.5146529484731],[-112.092877346814,40.5150410279389],[-112.092919730228,40.5153247340007],[-112.092740216291,40.5156963470034],[-112.092531825112,40.5163099736662],[-112.092446765434,40.5167743543842],[-112.092461478042,40.5173582756367],[-112.09249426116,40.5195329689253],[-112.089244280429,40.5204153848595],[-112.084347840497,40.5217349983798],[-112.081816610808,40.5224335464532],[-112.062735611741,40.5224230215956],[-112.062708259837,40.5260575753267],[-112.053992737577,40.5260499994505],[-112.05400865752,40.5260500363228],[-112.053311658285,40.526676036376],[-112.052325657547,40.5270950375562],[-112.05029065812,40.5278910378091],[-112.049207657299,40.5281110377279],[-112.048492656723,40.5281660377655],[-112.048516603113,40.5311507000517],[-112.048516658809,40.5311560386067],[-112.049349334195,40.5311520874342],[-112.049359657635,40.531152038275],[-112.049361617758,40.5314343495439],[-112.049361657284,40.5314400383343],[-112.051557658167,40.5314300378883],[-112.051956597289,40.5316017077934],[-112.051966659319,40.5316060378726],[-112.051971617121,40.532278353338],[-112.051971659342,40.532284038643],[-112.053138658032,40.5322780372222],[-112.053782659361,40.5319910382746],[-112.054131658442,40.5319900380335],[-112.054427658718,40.5321160375748],[-112.054568659184,40.5321160368921],[-112.055710658658,40.5316070374366],[-112.056148659225,40.5316050383084],[-112.056150422617,40.5316050007565],[-112.056887272017,40.532160342356],[-112.056812054282,40.5323725537338],[-112.056912400591,40.5324034504188],[-112.057132660312,40.5324510376902],[-112.05737678827,40.5324581110188],[-112.057612659813,40.5323510367204],[-112.057742659509,40.5323000376499],[-112.057872660104,40.5322650375558],[-112.057962658719,40.5322580372616],[-112.058176658979,40.5323240371771],[-112.058293940328,40.5323696759233],[-112.058390964667,40.5324074322415],[-112.058397660709,40.5324100376315],[-112.058597659827,40.5324620375352],[-112.058842659151,40.532495037742],[-112.059044660614,40.5324660371059],[-112.059237660059,40.5324120374185],[-112.059330659946,40.5323960370729],[-112.059576415651,40.5324465219567],[-112.059588660587,40.5324490372217],[-112.059575724847,40.5341445173551],[-112.059575660168,40.5341530379062],[-112.059612659978,40.534140037238],[-112.059650659613,40.5341320376134],[-112.059690659796,40.5341300378778],[-112.059730660877,40.5341320376134],[-112.059769660337,40.5341390383945],[-112.05980085703,40.534150302864],[-112.059805660322,40.5341520370146],[-112.059839660657,40.5341680376237],[-112.05986866097,40.5341890372225],[-112.059892659462,40.5342130381214],[-112.059911660627,40.5342400369034],[-112.059923660323,40.5342690374544],[-112.059929661069,40.5342990375168],[-112.059928661244,40.5343300377719],[-112.059921660673,40.534360037807],[-112.059907660429,40.5343880374179],[-112.059886660513,40.534415037495],[-112.059861660399,40.5344380367428],[-112.059830661335,40.5344580367355],[-112.059819660566,40.5344670378908],[-112.059812660893,40.5344780374048],[-112.059809661418,40.5344910373247],[-112.059782399346,40.5369562902225],[-112.055566739567,40.5369465056529],[-112.046379030454,40.5369216530306]]]},"properties":{"FID":1,"OBJECTID":1,"District":1,"Shape_Leng":31282.7484684,"Label":"District 1","Shape__Area":134725465.046875,"Shape__Length":78258.155845467365}},{"type":"Feature","id":2,"geometry":{"type":"Polygon","coordinates":[[[-112.010705729474,40.5163184206809],[-112.010706400515,40.5159551311629],[-112.009984759593,40.5159574046096],[-112.009223740122,40.5159574681213],[-112.009062310171,40.515957479731],[-112.009063044992,40.5155524102775],[-112.00906324891,40.5154794197989],[-112.009063291131,40.5154163221265],[-112.009065972602,40.5151431083079],[-112.009074029592,40.5151431137714],[-112.009075737289,40.5147906608239],[-112.009077719871,40.5143816683557],[-112.00908091428,40.5136865289601],[-112.009081640119,40.5135366961409],[-112.009083637972,40.5131244643013],[-112.009086678769,40.5124971677855],[-112.009087831308,40.5122593760669],[-112.009090837071,40.511676370657],[-112.005368515876,40.5116747595416],[-112.005245115203,40.5101381626483],[-112.00541591099,40.5088740135777],[-112.005399676636,40.5082225106955],[-112.005386965475,40.5079560654973],[-112.005387414633,40.5078654828087],[-112.01016357464,40.5078974419339],[-112.012660473414,40.5078854470187],[-112.014776250249,40.5078752381571],[-112.016906842101,40.5078649206963],[-112.02061851287,40.5078482369503],[-112.021206102694,40.5078541128367],[-112.022024095117,40.5078647683863],[-112.024435764431,40.5078981488429],[-112.024458357959,40.5064676612052],[-112.024461617945,40.5053658621319],[-112.024465787026,40.5042649718454],[-112.024468457717,40.5036785841585],[-112.024325077615,40.5036817548619],[-112.022750291396,40.5036804372645],[-112.021175225801,40.5036793805911],[-112.020654553279,40.5036774168314],[-112.020101474034,40.5036739032383],[-112.019767109407,40.5036780998783],[-112.019364051508,40.5036755391356],[-112.01842869599,40.5036768662956],[-112.018758729839,40.5025062667653],[-112.019022294645,40.5015714020968],[-112.01967377355,40.5009572518937],[-112.019782479581,40.500444377749],[-112.018369961442,40.5004506723288],[-112.016826365628,40.5004575379627],[-112.016610617246,40.5004584942742],[-112.016313678231,40.5004598098855],[-112.016026016117,40.500461083829],[-112.014867458895,40.5004662089751],[-112.014864091111,40.4999903194235],[-112.014859206073,40.4992766358774],[-112.014858077789,40.4991117434943],[-112.014854904939,40.4986480458332],[-112.014847334836,40.4979547858329],[-112.014848029234,40.4976433991529],[-112.014846905442,40.4974790553914],[-112.014857028556,40.4972319624475],[-112.014843896984,40.4970395123065],[-112.014842086878,40.4967749511239],[-112.015777034561,40.4967726442373],[-112.017107435904,40.4967717247616],[-112.017323236388,40.4967715362213],[-112.018212660147,40.4967709173171],[-112.019065805444,40.4967703168571],[-112.019479068204,40.4967700237998],[-112.019640572716,40.496769908353],[-112.019639292616,40.4964371645602],[-112.019638592829,40.4962552711636],[-112.019636727926,40.4957703126004],[-112.019633881165,40.4950303722809],[-112.019631908465,40.4945177151515],[-112.019631373967,40.4943784439136],[-112.019623811949,40.4934043494218],[-112.019621214021,40.4931368056005],[-112.01926376898,40.4931376329002],[-112.017790325301,40.4931410343248],[-112.0177515612,40.4931411238179],[-112.016562681346,40.4931438550682],[-112.016387560171,40.4931503832885],[-112.015767706456,40.4931421232725],[-112.01548007219,40.4931432190516],[-112.013927292,40.4931487997374],[-112.01211535414,40.4931526554588],[-112.011350230266,40.4931539493525],[-112.01110573849,40.4931544931431],[-112.009382149938,40.4931583078749],[-112.008207790452,40.4931608929294],[-112.006481963297,40.4931645621491],[-112.006158371267,40.4931652077295],[-112.005942642649,40.4931656374333],[-112.005403323796,40.4931670174042],[-112.005274291586,40.4931658656068],[-112.00531064371,40.4953680374985],[-112.005303545223,40.4959478646828],[-112.005348938891,40.4999340619349],[-112.005364645934,40.5003630386091],[-112.005354394359,40.5005144630636],[-112.005299745349,40.5005140627793],[-112.005088110353,40.5005138250677],[-112.00507857833,40.4999353919014],[-112.005048753364,40.4978316847115],[-112.005048056271,40.4973894866355],[-112.004975391548,40.49641266307],[-112.004831556,40.4954976342432],[-112.004656380926,40.4948479347093],[-112.004297449173,40.4937921078005],[-112.00401817912,40.4930762029659],[-112.003237155066,40.4917389018283],[-112.002823445844,40.491158881142],[-112.001722415834,40.4898145083741],[-112.000956047794,40.4890837050199],[-112.00035867352,40.4885648864448],[-112.001143131833,40.4880183817122],[-112.00145144891,40.487823458576],[-112.001961419802,40.4876113876604],[-112.002441356421,40.4875201270818],[-112.002995295354,40.4875175752873],[-112.003462501947,40.4876063360023],[-112.00373468519,40.4876969043724],[-112.004040643291,40.4878490365224],[-112.004737520356,40.4882535395381],[-112.005372413666,40.4886475106399],[-112.005926156766,40.4889380674062],[-112.00645685269,40.4891550456166],[-112.006952023838,40.4892841139551],[-112.007597793051,40.4893874400458],[-112.008359674007,40.4894353714376],[-112.008932173032,40.4894559853825],[-112.009500864997,40.4894344600596],[-112.009974092099,40.4893775590341],[-112.010271834209,40.489326303184],[-112.011035964545,40.4892177840412],[-112.011767644141,40.4891470358412],[-112.012141455589,40.4891331663022],[-112.012657160427,40.4891291238376],[-112.013171026414,40.4891399791218],[-112.013462866592,40.4891603055325],[-112.013702747315,40.4891699358438],[-112.014288719273,40.4892236588268],[-112.015087326053,40.4893421505263],[-112.017439515217,40.4898104078796],[-112.019639647451,40.4902660353709],[-112.020567942211,40.4904511798682],[-112.021250740879,40.4906046953628],[-112.021915512155,40.490836919443],[-112.022417647043,40.4910800359477],[-112.022793509344,40.4913048029183],[-112.023091747324,40.4915154227222],[-112.02344312155,40.4918589842821],[-112.023693049931,40.4921260741118],[-112.023852411062,40.4923333814163],[-112.024128528926,40.4928085902036],[-112.024276950374,40.4931760712418],[-112.024380967199,40.4936745673867],[-112.024422350787,40.4943268113732],[-112.026739789523,40.4943179517031],[-112.028572294312,40.4943142552208],[-112.030848565055,40.4943102226323],[-112.031188488457,40.494318893073],[-112.031492423552,40.4943603365616],[-112.03173872184,40.4944157666581],[-112.031184319375,40.4957402017056],[-112.031131386147,40.4960374592726],[-112.031172089711,40.496334649943],[-112.031282825036,40.4966065037897],[-112.03146039412,40.4970435406323],[-112.03165864871,40.4974500355074],[-112.031943650014,40.4977390356124],[-112.032244674567,40.4979372833111],[-112.032449650352,40.4980150349949],[-112.032725650537,40.4980880356019],[-112.03302931434,40.4981226184045],[-112.033719952605,40.4981246608837],[-112.033734412787,40.4986312771397],[-112.036930520651,40.4986393896139],[-112.038163318241,40.4986545277504],[-112.039329389871,40.4986565217134],[-112.040303651424,40.4986640357908],[-112.040522357958,40.4986585457327],[-112.043522941213,40.4986640596992],[-112.043538516203,40.4990980126336],[-112.04354565242,40.4995450350351],[-112.043534652549,40.5008680354669],[-112.043531652176,40.5013100343824],[-112.043531652176,40.5024850352459],[-112.043531652176,40.5026210348865],[-112.043532652899,40.5039370349249],[-112.043534652549,40.5064790355104],[-112.043534653447,40.5065560355369],[-112.04353765382,40.5078680358784],[-112.043536653097,40.5082160358498],[-112.043534653447,40.5092600351743],[-112.043534654346,40.5096090353277],[-112.04353432646,40.5097429251253],[-112.043534325562,40.5097431361677],[-112.043532652899,40.510427036378],[-112.043530653249,40.5125160365198],[-112.043537654719,40.5128810363465],[-112.043541663001,40.5136948882053],[-112.043298706446,40.5137078723513],[-112.042433654879,40.513791036525],[-112.040841116153,40.5139328291783],[-112.040262644229,40.513975624385],[-112.038355653832,40.514143037157],[-112.037943198657,40.5141561291207],[-112.037988653411,40.5145240361583],[-112.038176647443,40.5153638930942],[-112.038283617929,40.5154108375371],[-112.038556037429,40.5165712419528],[-112.03663103581,40.5173573776134],[-112.036575413924,40.516906188651],[-112.035773166273,40.5169030684254],[-112.035681141957,40.5169725861153],[-112.035217167503,40.5169707784486],[-112.035215111259,40.5172773995332],[-112.035070431294,40.51727684228],[-112.035067546804,40.5172133700163],[-112.03403644525,40.5172499343198],[-112.033022973133,40.5172865901131],[-112.03303082351,40.5157216951054],[-112.033038673887,40.514156799085],[-112.031004924017,40.5141578514957],[-112.028872793351,40.5141620030886],[-112.027451650487,40.5141740378576],[-112.027064961689,40.5141695441125],[-112.02593913189,40.5141694075245],[-112.02530347591,40.5142391855169],[-112.024847099406,40.5143298702322],[-112.024477953808,40.5144268235075],[-112.023389902658,40.5148345440787],[-112.023086898218,40.5150102031526],[-112.02275781838,40.5151815859437],[-112.022280571317,40.5154587059472],[-112.022158704069,40.5154949884761],[-112.02190582113,40.5155324975207],[-112.021625845002,40.5155430371187],[-112.021194650072,40.5155420379979],[-112.020245420075,40.5155453303842],[-112.019893675742,40.51555666354],[-112.019604678732,40.5156070579869],[-112.019321423753,40.5156790826712],[-112.018947493728,40.515811911379],[-112.018619015761,40.5159727744456],[-112.018248445435,40.5161925689984],[-112.01608376162,40.5174717542834],[-112.015161807169,40.5180165419882],[-112.014220997081,40.5185724544093],[-112.013178858825,40.5191699679329],[-112.01250289993,40.5195575200156],[-112.011898851173,40.5199340249369],[-112.011624650314,40.5201685184478],[-112.01139716185,40.520436145664],[-112.011243632581,40.5206984453987],[-112.01113428156,40.5209812828098],[-112.011073268884,40.5213396823969],[-112.011077342744,40.5215334278634],[-112.011072543045,40.5218557974074],[-112.010850957411,40.5219554616823],[-112.010737648413,40.5220060404717],[-112.010711649372,40.5220150392025],[-112.0106974506,40.5219131051859],[-112.010699740406,40.5204258977405],[-112.010702632981,40.5189786453617],[-112.010702840492,40.5188781428498],[-112.01070357711,40.5174990336555],[-112.010705729474,40.5163184206809]]]},"properties":{"FID":2,"OBJECTID":2,"District":2,"Shape_Leng":26421.2720842,"Label":"District 2","Shape__Area":65773693.91796875,"Shape__Length":66332.198633994631}},{"type":"Feature","id":3,"geometry":{"type":"Polygon","coordinates":[[[-112.048352700998,40.5172180390649],[-112.048322086413,40.5150776357688],[-112.047951969737,40.5151279793561],[-112.047531793542,40.5152254423083],[-112.046948939636,40.5153606396258],[-112.046352903852,40.5154956085734],[-112.046065623523,40.5156389021059],[-112.046007180927,40.5156485771042],[-112.046013278691,40.5156685369483],[-112.045872423753,40.5156925301386],[-112.045454961369,40.515892766714],[-112.045140644444,40.5160007011542],[-112.044789324116,40.5160232423354],[-112.044458954298,40.5160647031466],[-112.04411317927,40.5161483704406],[-112.043877203523,40.5163353659259],[-112.043622688345,40.5164764497946],[-112.043241225946,40.5167373630002],[-112.042975322825,40.5169666202006],[-112.042787547982,40.51708249994],[-112.042492264561,40.5172338764044],[-112.042171766329,40.5173314762915],[-112.042088343382,40.5173736813457],[-112.041811676647,40.5175136519416],[-112.041476021142,40.5176834638],[-112.041174026408,40.5178156800705],[-112.040501654485,40.5181920370246],[-112.039117788112,40.5189670676264],[-112.038837955715,40.5177730327732],[-112.038556037429,40.5165712419528],[-112.038283617929,40.5154108375371],[-112.038176647443,40.5153638930942],[-112.037988653411,40.5145240361583],[-112.037943198657,40.5141561291207],[-112.038355653832,40.514143037157],[-112.03907565443,40.514086036889],[-112.039570654,40.5140480373664],[-112.040044653653,40.513998036488],[-112.040264120161,40.5139800682882],[-112.040841116153,40.5139328291783],[-112.04089965397,40.5139280369712],[-112.042433654879,40.513791036525],[-112.043298706446,40.5137078723513],[-112.043541663001,40.5136948882053],[-112.043537654719,40.5128810363465],[-112.043530653249,40.5125160365198],[-112.043532652899,40.510427036378],[-112.043534325562,40.5097431361677],[-112.04353432646,40.5097429251253],[-112.043534654346,40.5096090353277],[-112.043534653447,40.5092600351743],[-112.043536653097,40.5082160358498],[-112.04353765382,40.5078680358784],[-112.043534653447,40.5065560355369],[-112.043534652549,40.5064790355104],[-112.043532652899,40.5039370349249],[-112.043531652176,40.5026210348865],[-112.043531652176,40.5024850352459],[-112.043531652176,40.5013100343824],[-112.043534652549,40.5008680354669],[-112.04354565242,40.4995450350351],[-112.043538588068,40.4990980119505],[-112.043522941213,40.4986640596992],[-112.040522357958,40.4986585457327],[-112.039329389871,40.4986565196641],[-112.038163318241,40.4986545277504],[-112.036930520651,40.4986393896139],[-112.033734412787,40.4986312771397],[-112.033719952605,40.4981246608837],[-112.03302931434,40.4981226184045],[-112.032725650537,40.4980880356019],[-112.032449650352,40.4980150349949],[-112.032244674567,40.4979372833111],[-112.031943650014,40.4977390356124],[-112.03165864871,40.4974500355074],[-112.03146039412,40.4970435406323],[-112.031282825036,40.4966065037897],[-112.031172089711,40.496334649943],[-112.031131386147,40.4960374592726],[-112.031184319375,40.4957402017056],[-112.03173872184,40.4944157666581],[-112.031492423552,40.4943603365616],[-112.031188488457,40.494318893073],[-112.030848565055,40.4943102226323],[-112.028572294312,40.4943142552208],[-112.026739789523,40.4943179517031],[-112.024422350787,40.4943268113732],[-112.024380967199,40.4936745673867],[-112.024276950374,40.4931760712418],[-112.024128528926,40.4928085902036],[-112.023852411062,40.4923333814163],[-112.023693049931,40.4921260741118],[-112.02344312155,40.4918589842821],[-112.023091747324,40.4915154227222],[-112.022793509344,40.4913048029183],[-112.022417647043,40.4910800359477],[-112.021915512155,40.490836919443],[-112.021250740879,40.4906046953628],[-112.020567942211,40.4904511798682],[-112.019639647451,40.4902660353709],[-112.017439515217,40.4898104078796],[-112.017481645305,40.4896950357656],[-112.017643766959,40.4892926231284],[-112.017750765293,40.4889346234103],[-112.017863192146,40.4885666818963],[-112.017981154417,40.4882569897177],[-112.018145867711,40.4879382880248],[-112.018343990249,40.4876397975938],[-112.018745007175,40.487153461574],[-112.018922576259,40.4869431881355],[-112.019600745908,40.4862209894737],[-112.020185646176,40.4864810344953],[-112.02092536749,40.4867417098039],[-112.02120282025,40.4862669957518],[-112.021475805688,40.4857651438989],[-112.021796896809,40.4852039254522],[-112.021982575883,40.4849974002936],[-112.022265591011,40.4847866739451],[-112.021995559234,40.4844912304226],[-112.021742127424,40.4841606702034],[-112.021151338699,40.4833559947887],[-112.020893628214,40.4830141784662],[-112.020463241768,40.4826377737372],[-112.020095196606,40.4824310616679],[-112.019942268311,40.4823653672491],[-112.019486761376,40.4822203641589],[-112.01930000073,40.4821678292354],[-112.019060681454,40.4820776455995],[-112.018875645573,40.4819550353172],[-112.018643644871,40.481717034883],[-112.018356836157,40.4814111442632],[-112.017685782962,40.4807058423742],[-112.017247600936,40.4809855735031],[-112.016838032049,40.4812846128159],[-112.016381015046,40.4816702711551],[-112.016024934546,40.4820172728047],[-112.015814170017,40.4822800753709],[-112.015388645253,40.4821270355191],[-112.014894728154,40.4820217652875],[-112.013697643088,40.4817980358604],[-112.01346741027,40.4817772876923],[-112.013101210248,40.4817763762104],[-112.012833320054,40.481794340055],[-112.012612160221,40.4818232526038],[-112.011528280847,40.4819760560542],[-112.011487266466,40.481981396475],[-112.011456998631,40.481981529029],[-112.011430588161,40.4819785144517],[-112.011383644001,40.4819670355521],[-112.011364643735,40.4819580348637],[-112.011343643818,40.4819420354588],[-112.011307070708,40.4819022487432],[-112.011288153087,40.4818626922656],[-112.011208000905,40.4816917538723],[-112.011181643437,40.481648034783],[-112.011124642637,40.4815900352879],[-112.01105523251,40.4815402363764],[-112.010930846386,40.4816361957431],[-112.010742232515,40.4817290310608],[-112.010531564107,40.4818629184276],[-112.009909463704,40.4807818668775],[-112.009548988645,40.4801475785202],[-112.009360611032,40.4798935547025],[-112.009025713704,40.4795497392007],[-112.008727987765,40.4793194220892],[-112.00841964284,40.4791320350523],[-112.007980644245,40.4789269972025],[-112.007656778229,40.4788138523873],[-112.00709964309,40.4786800347858],[-112.006455556421,40.4786060297931],[-112.005582083148,40.4786098029872],[-112.004987140613,40.4786123694696],[-112.004668520759,40.4786028339891],[-112.004668641133,40.4784410353665],[-112.004674641879,40.47727103555],[-112.004689209858,40.474604005569],[-112.004692641422,40.473761034717],[-112.004699641993,40.4725920351096],[-112.004708641316,40.4708520349771],[-112.004712641514,40.4700900348602],[-112.004735640182,40.465633033888],[-112.004744269398,40.463965647179],[-112.004744640403,40.4638940337696],[-112.004751639177,40.4624850338748],[-112.004773638918,40.4582620324186],[-112.004804310995,40.4566344756645],[-112.004993356955,40.4566342077224],[-112.004914747181,40.4564495099457],[-112.009704012711,40.4564618284781],[-112.014493264765,40.4564739508359],[-112.014607550232,40.4597563211941],[-112.01462103125,40.4601435330482],[-112.024305769226,40.4601439137521],[-112.029004760358,40.4601369858974],[-112.032016645317,40.4601360310618],[-112.033382172584,40.460132784484],[-112.033382310924,40.4603212654945],[-112.033338849533,40.4606810636355],[-112.033354021179,40.4618764585077],[-112.033434926149,40.4620545171691],[-112.033543653739,40.4622859781653],[-112.033587797851,40.4624161657401],[-112.033606987662,40.4625148999719],[-112.033717775089,40.4626159742421],[-112.033767159972,40.4626610289111],[-112.033805591696,40.4627500678546],[-112.033885448332,40.4627936242827],[-112.033941419662,40.4629093057649],[-112.035216076948,40.4639113100623],[-112.035423970461,40.4639835173722],[-112.035693110212,40.4640642226233],[-112.03606772116,40.464161848612],[-112.0365102681,40.4642479317031],[-112.036960318667,40.4643071210258],[-112.037187284312,40.4643265097481],[-112.037871709829,40.4643435207521],[-112.038327388341,40.4643205042955],[-112.038553982084,40.4642987262383],[-112.038795783405,40.4642675350452],[-112.039002920537,40.4642348012948],[-112.039134963002,40.4640559139201],[-112.039198914067,40.4639695038934],[-112.039303767224,40.4638283007092],[-112.03991214047,40.4634316640424],[-112.040062863402,40.4632895999374],[-112.040514567768,40.4625216505637],[-112.040564840186,40.4623457358115],[-112.040638607142,40.4622438293533],[-112.040660698512,40.4621583246429],[-112.040909760916,40.4614259277507],[-112.041311681547,40.4605976812085],[-112.041703667709,40.46019339499],[-112.043582744756,40.4596750639714],[-112.043534973247,40.4597924773287],[-112.043319957891,40.4640142309652],[-112.043560762981,40.464016839696],[-112.04526488594,40.4640024072689],[-112.052979666109,40.4639918377029],[-112.055830096862,40.4639818340326],[-112.062644319552,40.4639730441697],[-112.062641466502,40.4644128400358],[-112.062663525533,40.4662493738164],[-112.062627870501,40.4685138225502],[-112.062627176103,40.4694607839401],[-112.062640064232,40.4710983475926],[-112.062638801201,40.4725477839043],[-112.062638410434,40.4729773436183],[-112.06263787414,40.473566083845],[-112.062620911252,40.4759431323184],[-112.062662569725,40.4801341334923],[-112.062663788739,40.4811637509551],[-112.062644310569,40.4819874905397],[-112.060424146802,40.4819913482689],[-112.060284154246,40.4819915901457],[-112.060310653649,40.4821280317213],[-112.06031822465,40.4821983807773],[-112.060239017497,40.4822645563779],[-112.057956477411,40.4822647668235],[-112.057957449389,40.4826004902206],[-112.057959122052,40.4831544223317],[-112.057959982638,40.4834398149396],[-112.057962592243,40.4843044734251],[-112.057965243172,40.4851829685836],[-112.057968572328,40.486285890312],[-112.057971434361,40.4872330916122],[-112.057974050255,40.488098961063],[-112.057976586199,40.4889372434707],[-112.057979921644,40.49003821518],[-112.057981466746,40.4905479777386],[-112.057984255117,40.4914686077513],[-112.058481640611,40.491467732609],[-112.060256193285,40.4914658969281],[-112.060384907492,40.4914769581519],[-112.060438654594,40.4915460328609],[-112.060764303766,40.4919153332546],[-112.061182654583,40.4917320325696],[-112.061554245396,40.4915671599015],[-112.06217616344,40.4913519390944],[-112.06317970019,40.4910026143995],[-112.065084615479,40.4903749620448],[-112.066163488542,40.4900094858477],[-112.066624615337,40.4898497806782],[-112.066829866006,40.4897918757181],[-112.067153667344,40.489786116441],[-112.067239891238,40.4897762805785],[-112.06732963563,40.4897494196551],[-112.067367071123,40.4898546654697],[-112.067367152869,40.4898821077433],[-112.067367810436,40.4901066614734],[-112.067368906381,40.4904807629879],[-112.06737035716,40.4909750646422],[-112.067371393816,40.4913285240412],[-112.067374619666,40.4924276584389],[-112.067375883596,40.4928585474451],[-112.067376810657,40.4931738871992],[-112.06737282034,40.4950086649828],[-112.067375111943,40.4953157246368],[-112.067413525701,40.4953159965234],[-112.06740662125,40.4968263392741],[-112.067648136907,40.4968273687308],[-112.068259391949,40.4968299741375],[-112.069176272715,40.49683387405],[-112.069541758577,40.4968349144365],[-112.069721560872,40.4968298177039],[-112.069766248464,40.4968264191988],[-112.0700718679,40.4968266323311],[-112.070898730288,40.4968270893361],[-112.071294395052,40.4968273509698],[-112.07163418191,40.4968274998892],[-112.072172468598,40.4968278291515],[-112.072172721024,40.4969639782504],[-112.072170053028,40.4977336254022],[-112.072167447914,40.4985703228901],[-112.072166222612,40.4994136495809],[-112.072162484722,40.5004410613966],[-112.072133875177,40.5006144534684],[-112.072158534829,40.5021887550195],[-112.072157000507,40.5027427891123],[-112.072155467981,40.5032962195935],[-112.072152333759,40.5044277881004],[-112.072150940472,40.5049307803894],[-112.072147770317,40.5060749749958],[-112.072145925178,40.5067408181647],[-112.072142773888,40.5078783553877],[-112.071542724431,40.5078780890161],[-112.071556394095,40.509467138596],[-112.071565520079,40.5095306475611],[-112.069770041151,40.509538347559],[-112.069750340199,40.5096040269878],[-112.06739090702,40.5096039020013],[-112.0669966589,40.5096710340768],[-112.066794659234,40.5097800344267],[-112.066659821211,40.5099110430592],[-112.067116262394,40.5100681584191],[-112.067487366319,40.5102240228742],[-112.067787659644,40.5103530336092],[-112.068051658336,40.5104580340156],[-112.068359914327,40.5105523893815],[-112.068677436441,40.5106146816212],[-112.069025659378,40.5106550338923],[-112.069380660103,40.5106970341587],[-112.069647660067,40.5107350348973],[-112.070367856498,40.5108532092711],[-112.070616659289,40.5108940340162],[-112.071234659781,40.510988034306],[-112.071406411375,40.5110225175737],[-112.071493660247,40.5110400344386],[-112.071718660378,40.5111030337837],[-112.072034950003,40.5112047650034],[-112.072402659194,40.5113230348481],[-112.07293865967,40.5114610340547],[-112.073194232165,40.5115109022804],[-112.073424984209,40.5115102514128],[-112.076438161844,40.5115100417418],[-112.077032477354,40.5115099905193],[-112.077733918759,40.5115099270034],[-112.081744671025,40.5115094830748],[-112.086458296611,40.5115229744054],[-112.091210431177,40.5115420080087],[-112.091207573636,40.511955703604],[-112.090159454396,40.5120058077668],[-112.089413231076,40.5119862518289],[-112.089409707884,40.512494392931],[-112.091204445702,40.5124086080055],[-112.091198527601,40.5132653964823],[-112.091167895049,40.513444165029],[-112.091166888936,40.5134726651004],[-112.091191364435,40.5150938178111],[-112.086465625067,40.5151098919463],[-112.081812051858,40.5151341612403],[-112.081812073418,40.5151587159902],[-112.077026582609,40.5151543500191],[-112.06744865971,40.5151570346168],[-112.062669713128,40.5151400815617],[-112.057888913322,40.5151349452441],[-112.057914411103,40.5187751360185],[-112.053996423365,40.5187692686008],[-112.053128758598,40.5187679526657],[-112.048373435912,40.5187606197585],[-112.048362708231,40.518037808882],[-112.048354434747,40.5173600662203],[-112.048352700998,40.5172180390649]]]},"properties":{"FID":3,"OBJECTID":3,"District":3,"Shape_Leng":43312.722653,"Label":"District 3","Shape__Area":245636324.92480469,"Shape__Length":108122.77175859243}},{"type":"Feature","id":4,"geometry":{"type":"Polygon","coordinates":[[[-111.98546763972,40.4926900383583],[-111.985172639269,40.4925700380046],[-111.984639639166,40.4926140382731],[-111.984136639201,40.492603038721],[-111.983136639118,40.492510038772],[-111.982934307974,40.4924165427188],[-111.982859640007,40.4923820389545],[-111.982792639162,40.4923600390894],[-111.982653639245,40.4922720381905],[-111.982531639046,40.4921650390691],[-111.982157829395,40.4917378285707],[-111.982048638274,40.4916130388611],[-111.981902492259,40.4914328594443],[-111.981895532112,40.4914242781262],[-111.981756638196,40.4912530388929],[-111.981621638477,40.4909810390177],[-111.981255638779,40.4898520392965],[-111.981199013475,40.489744748694],[-111.981179638611,40.4897080389048],[-111.981134238655,40.4896413104271],[-111.981030638648,40.4894890375033],[-111.980765903337,40.4891010909753],[-111.980726309193,40.4890430685427],[-111.980495637997,40.4887050380951],[-111.979741637063,40.4876630390323],[-111.978928636579,40.4866640379747],[-111.978866637553,40.4865350383851],[-111.978862637355,40.4864040380716],[-111.979024636838,40.4861210377419],[-111.979097636633,40.4859630382192],[-111.979118650024,40.4858993627795],[-111.979130638042,40.4858630375941],[-111.979084637112,40.4857840379172],[-111.978984636655,40.4857270381445],[-111.97885963788,40.4856990387058],[-111.978670637734,40.4856780382652],[-111.978245637587,40.485573038013],[-111.977905637828,40.4854480380192],[-111.976788207276,40.4850960999606],[-111.976708637203,40.4850710388581],[-111.97602063729,40.4848320382787],[-111.974857637001,40.4843220389452],[-111.974552636504,40.4841480383583],[-111.9741416366,40.4838260389256],[-111.973459636535,40.4832700379958],[-111.973241636077,40.4830280383376],[-111.972742636309,40.4822930382675],[-111.972695635556,40.4822220388422],[-111.971955636662,40.4811290384723],[-111.971881635246,40.4809920379948],[-111.97123663499,40.479434037867],[-111.971052634867,40.4791530382242],[-111.970884828674,40.4790477872443],[-111.970883634813,40.4790470383501],[-111.970762310147,40.4790014063538],[-111.969896211144,40.4786756541408],[-111.969761634531,40.4786250378882],[-111.969736456551,40.4786155994383],[-111.96883222047,40.4782766295438],[-111.968806634654,40.4782670379845],[-111.968650634121,40.478186038213],[-111.968368585579,40.4780076977467],[-111.968359634766,40.4780020379048],[-111.967594695047,40.4774883801507],[-111.967394633945,40.4773540378547],[-111.967386383817,40.4773484469725],[-111.967273634469,40.4772720386574],[-111.967096634019,40.4771720387508],[-111.966487769394,40.4767286365028],[-111.966441632819,40.4766950375908],[-111.966024633966,40.4763380380337],[-111.96578063267,40.4760800385503],[-111.965506633034,40.4757450383085],[-111.964917633753,40.4749060376355],[-111.96471563229,40.4746190377428],[-111.964441632654,40.4744220379612],[-111.964189633657,40.4741800371574],[-111.964010633557,40.474049038016],[-111.963729632451,40.4739330374622],[-111.963580062957,40.4738909239765],[-111.962875837673,40.4736926380401],[-111.962248632145,40.4735160377576],[-111.962054498127,40.4734337851318],[-111.961809632652,40.4733300381357],[-111.961097632449,40.4730110380109],[-111.96007663245,40.4725610384264],[-111.959378632491,40.4723420377973],[-111.959161632756,40.4723070378396],[-111.958623630834,40.4722210388815],[-111.958494631861,40.4721720380273],[-111.958350631023,40.4721610392253],[-111.957928507281,40.4721202476289],[-111.957667631133,40.4720950381747],[-111.956797631645,40.4720020385103],[-111.95634463101,40.4719470388759],[-111.956149030043,40.4719110068233],[-111.956078630871,40.4718980385052],[-111.956048084558,40.4718870485421],[-111.955725631592,40.4717710387864],[-111.955600630122,40.4717090378141],[-111.955577630555,40.4717050380359],[-111.955404630303,40.4716610384108],[-111.95525363069,40.471595038919],[-111.955181436684,40.4715527784083],[-111.955136112187,40.4715262470956],[-111.955130630667,40.4715230379706],[-111.955111709452,40.471509939053],[-111.955091630309,40.4714960385346],[-111.955090615212,40.4714958424061],[-111.954781664823,40.4714360956341],[-111.954710416743,40.4714223174246],[-111.954698630847,40.4714200383683],[-111.95321763054,40.471416038573],[-111.95317948448,40.471416093243],[-111.949743629741,40.4714210388296],[-111.948960630291,40.4714160392563],[-111.948446629557,40.4714220392909],[-111.948425837151,40.4714221233461],[-111.947034784256,40.4714376509958],[-111.946773628731,40.4714260384025],[-111.946720629028,40.4712130389088],[-111.946669628974,40.4710330398109],[-111.946656629454,40.4709900395298],[-111.946615628548,40.4708780389862],[-111.946495627999,40.4705490388719],[-111.946438628996,40.4704180387972],[-111.946374629422,40.4702680389457],[-111.946257628347,40.4700190396142],[-111.945908628368,40.4692750389271],[-111.945792628017,40.4690270391444],[-111.945526627878,40.4684610377093],[-111.944947627745,40.4672280387777],[-111.944730628908,40.4667660384961],[-111.944466628419,40.4662010383647],[-111.944344627322,40.4659400393094],[-111.944119627191,40.4654600380375],[-111.944019627632,40.4652440384647],[-111.943980627274,40.4651590392176],[-111.943863627098,40.4648970389719],[-111.943852628126,40.4648830386692],[-111.943780627258,40.4647520391609],[-111.943649626838,40.4645100383644],[-111.943562627698,40.464304038677],[-111.943498627225,40.464151038497],[-111.943382626874,40.4638740387004],[-111.943183626683,40.4634230381372],[-111.942943626483,40.462947038315],[-111.942817626985,40.4626600385712],[-111.942695626786,40.4623780378477],[-111.942576627859,40.4621260382209],[-111.939724625952,40.4560920377553],[-111.939512625342,40.4556430382874],[-111.938779625223,40.4540790376407],[-111.938667625968,40.453841037516],[-111.938333625159,40.4531280382863],[-111.938222624831,40.4528910375812],[-111.938068623947,40.4525620382251],[-111.938042624906,40.4525080370861],[-111.93750462478,40.4513610370113],[-111.937325623782,40.4509790381318],[-111.937154624976,40.4506150372937],[-111.936642623892,40.4495250368292],[-111.936472624012,40.4491620371116],[-111.936432623829,40.4490750378033],[-111.936312624179,40.4488170381785],[-111.936273623821,40.4487310364884],[-111.93579562397,40.4477120366699],[-111.934914622814,40.4458330373137],[-111.934369622118,40.4446520362781],[-111.933899623561,40.4436300369379],[-111.933791622708,40.4433970370164],[-111.933470622318,40.4426980371915],[-111.93339062285,40.4425240367683],[-111.933363623086,40.4424660362993],[-111.933348622119,40.4424340371271],[-111.933318938189,40.4423784936929],[-111.933480652008,40.4423747799937],[-111.938651239799,40.4422220156489],[-111.940993678649,40.4422194204289],[-111.943336135465,40.4422167780354],[-111.943353379525,40.4431442866364],[-111.943417918987,40.4459269803938],[-111.943419624888,40.4460840370539],[-111.943474096032,40.4496368480747],[-111.944120855188,40.4496547391692],[-111.946305301041,40.4497152818813],[-111.948226835163,40.4497685141688],[-111.948262627637,40.4508620366127],[-111.948366029116,40.4568989941102],[-111.957760630121,40.4568500367589],[-111.957824156283,40.4568494598651],[-111.959847655478,40.4568310826501],[-111.960733629706,40.456823036209],[-111.967510883129,40.4567620556098],[-111.971994307338,40.4567550973313],[-111.986094485922,40.4566594653583],[-111.990819406026,40.4566534530685],[-111.995544365655,40.4566472425557],[-111.999078481714,40.4566424735978],[-112.002612599568,40.4566375775039],[-112.004804310995,40.4566344756645],[-112.004773638918,40.4582620324186],[-112.004751639177,40.4624850338748],[-112.004744640403,40.4638940337696],[-112.004744269398,40.463965647179],[-112.004735640182,40.465633033888],[-112.004712641514,40.4700900348602],[-112.004708641316,40.4708520349771],[-112.004699641993,40.4725920351096],[-112.004692641422,40.473761034717],[-112.004689641049,40.4745250343255],[-112.004689209858,40.474604005569],[-112.004674641879,40.47727103555],[-112.004668641133,40.4784410353665],[-112.004668520759,40.4786028339891],[-112.004987140613,40.4786123694696],[-112.006455556421,40.4786060297931],[-112.00709964309,40.4786800347858],[-112.007656778229,40.4788138523873],[-112.007980644245,40.4789269972025],[-112.00841964284,40.4791320350523],[-112.008727987765,40.4793194220892],[-112.009025713704,40.4795497392007],[-112.009360611032,40.4798935547025],[-112.009548988645,40.4801475785202],[-112.009904696345,40.4807734939645],[-112.010531564107,40.4818629184276],[-112.010742232515,40.4817290310608],[-112.010930846386,40.4816361957431],[-112.01105523251,40.4815402363764],[-112.011124642637,40.4815900352879],[-112.011149564598,40.4816172896248],[-112.011181643437,40.481648034783],[-112.011231126236,40.4817363960311],[-112.011307070708,40.4819022487432],[-112.011343643818,40.4819420354588],[-112.011364643735,40.4819580348637],[-112.011383644001,40.4819670355521],[-112.011430588161,40.4819785144517],[-112.011456998631,40.481981529029],[-112.011487266466,40.481981396475],[-112.012612160221,40.4818232526038],[-112.012791653496,40.4817990245515],[-112.013026105701,40.4817785626738],[-112.013241751674,40.4817719083089],[-112.01346741027,40.4817772876923],[-112.013697643088,40.4817980358604],[-112.014032189174,40.4818581656087],[-112.014894728154,40.4820217652875],[-112.015388645253,40.4821270355191],[-112.015814170017,40.4822800753709],[-112.016024934546,40.4820172728047],[-112.016381015046,40.4816702711551],[-112.016838032049,40.4812846128159],[-112.017247600936,40.4809855735031],[-112.017685782962,40.4807058423742],[-112.018356836157,40.4814111442632],[-112.018875645573,40.4819550353172],[-112.019060681454,40.4820776455995],[-112.01930000073,40.4821678292354],[-112.019942268311,40.4823653672491],[-112.020095196606,40.4824310616679],[-112.020463241768,40.4826377737372],[-112.020893628214,40.4830141784662],[-112.021151338699,40.4833559947887],[-112.021806726174,40.484252013923],[-112.021995559234,40.4844912304226],[-112.022265591011,40.4847866739451],[-112.021982575883,40.4849974002936],[-112.021796896809,40.4852039254522],[-112.021475805688,40.4857651438989],[-112.02120282025,40.4862669957518],[-112.02092536749,40.4867417098039],[-112.020185646176,40.4864810344953],[-112.019896645572,40.4863530347929],[-112.019600745908,40.4862209894737],[-112.018922576259,40.4869431881355],[-112.018343990249,40.4876397975938],[-112.018145867711,40.4879382880248],[-112.017975101569,40.4882712987377],[-112.017868419442,40.4885497303182],[-112.017750765293,40.4889346234103],[-112.017628907028,40.4892884112414],[-112.017439515217,40.4898104078796],[-112.016115063416,40.4895496980329],[-112.015087326053,40.4893421505263],[-112.014288719273,40.4892236588268],[-112.013702747315,40.4891699358438],[-112.013462866592,40.4891603055325],[-112.013171026414,40.4891399791218],[-112.012141455589,40.4891331663022],[-112.011767644141,40.4891470358412],[-112.011035964545,40.4892177840412],[-112.010271834209,40.489326303184],[-112.009974092099,40.4893775590341],[-112.009500864997,40.4894344600596],[-112.008932173032,40.4894559853825],[-112.008359674007,40.4894353714376],[-112.007597793051,40.4893874400458],[-112.006952023838,40.4892841139551],[-112.00645685269,40.4891550456166],[-112.005926156766,40.4889380674062],[-112.005372413666,40.4886475106399],[-112.004737520356,40.4882535395381],[-112.004040643291,40.4878490365224],[-112.00373468519,40.4876969043724],[-112.003462501947,40.4876063360023],[-112.002995295354,40.4875175752873],[-112.002441356421,40.4875201270818],[-112.001961419802,40.4876113876604],[-112.00145144891,40.487823458576],[-112.001143131833,40.4880183817122],[-112.00035867352,40.4885648864448],[-112.000956047794,40.4890837050199],[-112.001716389935,40.4898117968008],[-112.002823445844,40.491158881142],[-112.003240239881,40.4917339249462],[-112.00401817912,40.4930762029659],[-112.004297449173,40.4937921078005],[-112.004831556,40.4954976342432],[-112.004986643845,40.4964440374359],[-112.005048056271,40.4973894866355],[-112.005048753364,40.4978316847115],[-112.005085581596,40.5005180143916],[-112.003651708705,40.5005119691419],[-112.00190264483,40.5005270371818],[-111.998819505502,40.5005129541419],[-111.998488690119,40.500511443171],[-111.998405961569,40.5005110654283],[-111.998298003835,40.5005105722451],[-111.99424064248,40.5004920389403],[-111.99175630485,40.5004807128017],[-111.991608642478,40.5004800399684],[-111.991571642668,40.5004300385368],[-111.991449641571,40.5002380388406],[-111.991420642157,40.5001660392397],[-111.991341642514,40.5000070392783],[-111.991414641411,40.499774038843],[-111.991428642553,40.4997330386065],[-111.991514641869,40.4995140391844],[-111.991541653311,40.4994668636581],[-111.991873640995,40.4988870381958],[-111.991974641278,40.4986900379075],[-111.991960641932,40.4986570381355],[-111.991780641109,40.4985250395683],[-111.99157164177,40.4982560386157],[-111.991563976446,40.4982467142719],[-111.991377641601,40.4980200387352],[-111.991241642057,40.4978240387013],[-111.991175641935,40.497729038336],[-111.990774642077,40.497190038455],[-111.990528484824,40.4968587244588],[-111.990008641448,40.4961590382716],[-111.989548642038,40.4957360387254],[-111.98923864062,40.4955440385747],[-111.989130640665,40.4954840392688],[-111.988878641668,40.4953140379839],[-111.988569640974,40.4951270385323],[-111.988403640394,40.4949680382416],[-111.988288640766,40.4948200381308],[-111.988101641169,40.4946280387746],[-111.988065641184,40.4944900384069],[-111.987949640833,40.494254038259],[-111.987755639765,40.4940290379674],[-111.987663962199,40.4939638453992],[-111.987418677211,40.4937894202982],[-111.987317106498,40.4937171917535],[-111.987215640889,40.4936450382774],[-111.987121052781,40.4936016856276],[-111.98699964008,40.4935460383],[-111.986456541117,40.4932282744177],[-111.986417184128,40.4932052466839],[-111.986343480054,40.4931621226065],[-111.986227480601,40.4930942519132],[-111.98600663967,40.4929650385589],[-111.985933639875,40.4929270386828],[-111.985557113719,40.4927355435459],[-111.98546763972,40.4926900383583]]]},"properties":{"FID":4,"OBJECTID":4,"District":4,"Shape_Leng":34314.1687032,"Label":"District 4","Shape__Area":197699972.80664063,"Shape__Length":85582.714205191412}}]}