{"type": "FeatureCollection", "crs": {"type": "name", "properties": {"name": "EPSG:4326"}}, "features": [{"type": "Feature", "geometry": {"type": "Polygon", "coordinates": [[[-111.491638774635, 40.6975113880469], [-111.472631191283, 40.697420625992], [-111.47259079135, 40.6974475915923], [-111.472001566592, 40.6974499406019], [-111.465636909379, 40.689192230023], [-111.465440530785, 40.6889425953438], [-111.465238200919, 40.6886957073974], [-111.465029986627, 40.6884516477793], [-111.464815956695, 40.6882104971513], [-111.464596181833, 40.6879723352147], [-111.464370734649, 40.6877372406836], [-111.464139689623, 40.6875052912594], [-111.463903123086, 40.6872765636048], [-111.463661113193, 40.6870511333182], [-111.463413739898, 40.6868290749092], [-111.463161084923, 40.6866104617735], [-111.462903231741, 40.6863953661688], [-111.462640265538, 40.6861838591909], [-111.46237227319, 40.6859760107501], [-111.462099343235, 40.685771889548], [-111.46182156584, 40.6855715630549], [-111.461544785918, 40.6853790649682], [-111.46136547314, 40.68525796013], [-111.461184348478, 40.6851384155607], [-111.461001435548, 40.6850204468555], [-111.460816758199, 40.6849040694037], [-111.460630340509, 40.6847892983876], [-111.460442206785, 40.6846761487796], [-111.460252381555, 40.6845646353408], [-111.460060889569, 40.6844547726189], [-111.459867755796, 40.6843465749465], [-111.459673005416, 40.6842400564387], [-111.459476663821, 40.6841352309918], [-111.459278756611, 40.6840321122815], [-111.459079309591, 40.6839307137605], [-111.458878348763, 40.6838310486575], [-111.458675900331, 40.6837331299747], [-111.45847199069, 40.6836369704871], [-111.458197504502, 40.6835113564452], [-111.457920522124, 40.683388933633], [-111.457971986607, 40.6828119698992], [-111.457249410538, 40.6828105917924], [-111.457170657034, 40.6836933849463], [-111.455218084322, 40.6829886043957], [-111.454845658077, 40.6831554909071], [-111.453539693605, 40.6828031617323], [-111.443878741221, 40.6827379397065], [-111.437116455527, 40.6827345887847], [-111.436971018283, 40.6810866757493], [-111.436501278441, 40.679812581448], [-111.435894687452, 40.6781672231381], [-111.436782339734, 40.6770003465939], [-111.436707834362, 40.6765856059616], [-111.436498283458, 40.6754191023352], [-111.443973876402, 40.6754389934185], [-111.443986756447, 40.6747018618509], [-111.444100798471, 40.6681747377589], [-111.444121490265, 40.6681748828905], [-111.448881875856, 40.6682080246673], [-111.448826238699, 40.6645512971566], [-111.451512835609, 40.6645740826865], [-111.451653602512, 40.6581656207636], [-111.454706429089, 40.6581638182723], [-111.455031211387, 40.6538562966306], [-111.461243386767, 40.6535876891363], [-111.463007933106, 40.6513562795733], [-111.463784341616, 40.6517498184422], [-111.463933785347, 40.6518256127802], [-111.466634802912, 40.6531533379283], [-111.4672284375, 40.6524014999977], [-111.467207219293, 40.6523950097865], [-111.467588329552, 40.6519034816252], [-111.464863869551, 40.6510110851071], [-111.464701573624, 40.6509579566652], [-111.463118575007, 40.6504393767411], [-111.463502708995, 40.6495786715411], [-111.46448012094, 40.647388411983], [-111.463646282235, 40.6471151941177], [-111.464077823915, 40.6461357410886], [-111.464527693921, 40.6451063945622], [-111.464968408297, 40.6453501093322], [-111.46549072833, 40.6456272761122], [-111.465775951517, 40.6458243186697], [-111.465906548593, 40.6458958618048], [-111.466055577302, 40.6459475111241], [-111.466060675241, 40.6459492921344], [-111.466315612627, 40.6460428547477], [-111.466365361328, 40.6460534644549], [-111.466382422132, 40.6460578096223], [-111.466706592677, 40.6461403718385], [-111.467037966812, 40.6461705623572], [-111.467185597742, 40.6461572630994], [-111.467292090324, 40.6461470126087], [-111.467350010999, 40.6461422734859], [-111.467441321154, 40.6461258688794], [-111.467452780064, 40.6461238404551], [-111.467770515977, 40.6460639971402], [-111.468148349182, 40.6459723784675], [-111.468225098545, 40.6459540496741], [-111.468573299922, 40.6458535407821], [-111.46959443377, 40.6455791306496], [-111.470343922466, 40.645359870555], [-111.470621409362, 40.6452956786118], [-111.471170216221, 40.6451312833488], [-111.471672029511, 40.6450121210847], [-111.472031499355, 40.644867232719], [-111.47206711576, 40.6448528535357], [-111.472702963081, 40.6444538674526], [-111.473020088139, 40.6441417671588], [-111.473330916007, 40.6437756390082], [-111.473669650938, 40.6431751681888], [-111.47375109849, 40.6429856497806], [-111.473861697271, 40.6427374555737], [-111.4740119414, 40.6422422586138], [-111.474166387849, 40.6415056094623], [-111.474171732825, 40.6414254095377], [-111.474221826478, 40.6409837748413], [-111.474255551929, 40.6407358956108], [-111.474382863866, 40.6403434915009], [-111.47456284852, 40.6398742970354], [-111.474626799585, 40.6397199844801], [-111.474782624947, 40.6391797193564], [-111.474846108888, 40.6389596440971], [-111.475031513977, 40.6384219597682], [-111.475069724716, 40.6383070309918], [-111.475072041471, 40.6383001747142], [-111.475251600323, 40.6377724239612], [-111.475446657809, 40.6370959634081], [-111.475591853406, 40.6365593445503], [-111.475735960246, 40.6360362428446], [-111.475895596262, 40.6352022745039], [-111.475994541199, 40.6349811519817], [-111.47613979339, 40.6346202023134], [-111.47613841807, 40.6344265195697], [-111.476089678177, 40.6342240237258], [-111.47596404609, 40.6340173394754], [-111.475785299315, 40.6338243878316], [-111.47564244293, 40.6336898448428], [-111.475446056836, 40.6335104783115], [-111.475076776491, 40.6331291254725], [-111.47484479106, 40.632931886596], [-111.474506769392, 40.632789135821], [-111.474303928004, 40.6327328535027], [-111.474186867641, 40.6327003621987], [-111.474115155132, 40.6325925510849], [-111.474181672684, 40.6324340842547], [-111.474196556869, 40.6323985284095], [-111.474296205187, 40.6322765005776], [-111.474665998471, 40.6318966132482], [-111.474808282628, 40.6317843197557], [-111.475011721396, 40.6316249286101], [-111.475077586771, 40.6315751095955], [-111.475306820662, 40.6313849821799], [-111.475502626444, 40.6312666114261], [-111.479941509487, 40.6312692402383], [-111.479941831982, 40.6312150959591], [-111.479963385261, 40.6284616555893], [-111.47996639282, 40.628089040222], [-111.478731204813, 40.6275865226974], [-111.478761715193, 40.6275374785854], [-111.479214745473, 40.6269493084633], [-111.479056301521, 40.6268825802815], [-111.479083783681, 40.6267407581292], [-111.478449734787, 40.6265014111731], [-111.479919194437, 40.6254268731857], [-111.479670658446, 40.6251950282261], [-111.479656582743, 40.6248637437716], [-111.47996010641, 40.6245848326091], [-111.480301165282, 40.6239177559857], [-111.480322035841, 40.6238768589906], [-111.480829526485, 40.6236998872544], [-111.480841422874, 40.6236936212994], [-111.481107858696, 40.6235530557965], [-111.481361263556, 40.6238867665358], [-111.48145761326, 40.62401699222], [-111.482643375062, 40.6232113421373], [-111.484638328492, 40.6218558151878], [-111.485442395231, 40.622000542126], [-111.485687306521, 40.6217307809357], [-111.486165687257, 40.6216523736891], [-111.486226912834, 40.6216010362673], [-111.486502587828, 40.6213025854129], [-111.486755137492, 40.6210763016243], [-111.486895372593, 40.6208504909563], [-111.486952620429, 40.6205934989915], [-111.486961793127, 40.6202286047322], [-111.48689715485, 40.6194676346297], [-111.486742950947, 40.6187620860644], [-111.486725954822, 40.6186845917724], [-111.486556687968, 40.6181673001199], [-111.486543205154, 40.6180688004904], [-111.486529088129, 40.6179481422865], [-111.486519000048, 40.6178611600162], [-111.486516685988, 40.617721533468], [-111.486516712039, 40.6175458621455], [-111.486562169488, 40.6172934240752], [-111.486629897968, 40.6168517081741], [-111.486675256602, 40.6165857577634], [-111.486700201919, 40.615950532699], [-111.486691093002, 40.615884446792], [-111.486669014209, 40.6157254445709], [-111.486603145241, 40.615608607626], [-111.486582329479, 40.6155746425745], [-111.486502718084, 40.6154374136076], [-111.486498169015, 40.6154295948559], [-111.486459261184, 40.6153299414921], [-111.486272397231, 40.6149928984608], [-111.486111508066, 40.6146512419349], [-111.485956068081, 40.6144086582354], [-111.485722746855, 40.6140222619308], [-111.485564814943, 40.6137616704133], [-111.485542804422, 40.6137259082326], [-111.485214314777, 40.6131910853086], [-111.48505408767, 40.6129395118413], [-111.485029035453, 40.6129080863165], [-111.48441377662, 40.6120142928673], [-111.483762909468, 40.6110981235399], [-111.48336224019, 40.6104511677659], [-111.482973204993, 40.6097771351231], [-111.482949304417, 40.6097411996364], [-111.482793076609, 40.6093860050834], [-111.482750321293, 40.6092924020113], [-111.482636947616, 40.6090443232975], [-111.482630291998, 40.6089407492907], [-111.482641691619, 40.6088821445296], [-111.482752656014, 40.6086970005029], [-111.48305873449, 40.6083578903496], [-111.483807066156, 40.6073863117684], [-111.484380821026, 40.6066316716378], [-111.484801783246, 40.6059992893299], [-111.484959071964, 40.6056833209945], [-111.485009982186, 40.6053677985639], [-111.48507774121, 40.604930586962], [-111.485145467894, 40.6044888704914], [-111.485176995167, 40.6037815466646], [-111.485181266656, 40.6037184673739], [-111.485233393197, 40.6027543053382], [-111.485342287875, 40.6022853896725], [-111.4854003415, 40.6021410046986], [-111.485622689804, 40.601833770142], [-111.485828382444, 40.601675250797], [-111.486216813973, 40.6014529007568], [-111.486551331314, 40.6012938375953], [-111.486970650515, 40.6010938767543], [-111.487376344969, 40.6008083881788], [-111.488022980158, 40.6003371991922], [-111.488681523415, 40.5998794701914], [-111.489081194665, 40.5995804871462], [-111.489276400373, 40.5994445280881], [-111.489557848839, 40.5993036994407], [-111.489676068029, 40.5993077025219], [-111.489806303982, 40.5993386808646], [-111.489997623578, 40.5994964247803], [-111.490121406933, 40.5995986001761], [-111.490252432505, 40.5997376807448], [-111.490615670782, 40.6001145084438], [-111.491001990371, 40.600414662245], [-111.49156635605, 40.6008176586938], [-111.491923928653, 40.6012260375178], [-111.49223265087, 40.6015805702008], [-111.492561039903, 40.601876461453], [-111.492905382118, 40.6020912039336], [-111.493195408597, 40.6021521267757], [-111.49344348555, 40.6021339503257], [-111.493820110521, 40.6021414391601], [-111.494171192795, 40.602243448869], [-111.494461824739, 40.6023863460909], [-111.494817198265, 40.6024929305478], [-111.495130972607, 40.6025681601536], [-111.495497967639, 40.6026476660531], [-111.495954008172, 40.6027808406612], [-111.496659821678, 40.6031246469478], [-111.497151077967, 40.6033837890284], [-111.497603500087, 40.6036656184388], [-111.498155645085, 40.6040055735583], [-111.498434842373, 40.6041980582285], [-111.498631403639, 40.6044044125883], [-111.498768835098, 40.6046065173388], [-111.498882461201, 40.604786202246], [-111.499007839964, 40.6049568281548], [-111.499346711439, 40.6052256279203], [-111.49943712777, 40.6053199193813], [-111.499501574705, 40.6053871165014], [-111.499584782057, 40.6054498184301], [-111.499774569127, 40.6055390852183], [-111.500000755932, 40.6057543178884], [-111.500220664412, 40.6059200288468], [-111.50050568458, 40.6060989695676], [-111.500748663593, 40.6061880049722], [-111.501021126212, 40.6062679021266], [-111.501370653503, 40.6063789959154], [-111.501844628901, 40.6065345912903], [-111.502483646377, 40.6066309098467], [-111.503039933507, 40.6067284865476], [-111.503426271062, 40.6068610344554], [-111.503648926591, 40.6069186207253], [-111.503921731468, 40.6068858999889], [-111.504028277948, 40.6067503029258], [-111.504091496887, 40.6066689482386], [-111.504226173212, 40.6065016971382], [-111.504443554731, 40.6063295809103], [-111.504624158324, 40.6061396066914], [-111.504783214028, 40.6059136916596], [-111.50492504274, 40.6058804602915], [-111.505616565846, 40.605870318194], [-111.505985975549, 40.6059054564527], [-111.506229763944, 40.6059285313978], [-111.506443625864, 40.6059488551296], [-111.506621805802, 40.6059867213626], [-111.506858917019, 40.6060802731406], [-111.506878312545, 40.6060816296445], [-111.507036561562, 40.6060941778159], [-111.507525193872, 40.6060450960998], [-111.508466073131, 40.6060281653648], [-111.509353346324, 40.6061278571535], [-111.509521670845, 40.6061751315035], [-111.509874548852, 40.6062742031341], [-111.510052223039, 40.6063229668698], [-111.51048433425, 40.6064111460664], [-111.510940222968, 40.6065172357943], [-111.511473355123, 40.6066770346762], [-111.511883513305, 40.6069860208362], [-111.512365669661, 40.6074352240482], [-111.51252691995, 40.6076543236158], [-111.512604439169, 40.6077440675777], [-111.512794903569, 40.6079188930961], [-111.513067352713, 40.6079942584473], [-111.513338767896, 40.6079344948472], [-111.513715467427, 40.6077310232302], [-111.514032490078, 40.6076070932772], [-111.514364289116, 40.6075605721727], [-111.514689272636, 40.6075501152519], [-111.51492556998, 40.607535548669], [-111.515327701715, 40.6075661869786], [-111.516032999588, 40.6078233927322], [-111.516744670109, 40.6081400227022], [-111.517147938213, 40.6083174932678], [-111.517586821823, 40.6085146213847], [-111.517811954006, 40.6086152314975], [-111.518245141399, 40.6088089597722], [-111.518926620442, 40.609040128483], [-111.519198995924, 40.6091350283369], [-111.519590373029, 40.6092713734569], [-111.520011078331, 40.6094091163351], [-111.520283506814, 40.6094799599201], [-111.520503576092, 40.6095059947363], [-111.521016232048, 40.6094586388602], [-111.521523662504, 40.6093473428718], [-111.521912795618, 40.6092248671503], [-111.522626661621, 40.6090894801066], [-111.522667028317, 40.6090818201936], [-111.523577497806, 40.6089650862029], [-111.523825326824, 40.6089433326074], [-111.524280348668, 40.608903340972], [-111.524642609578, 40.6089430461784], [-111.524753582956, 40.608955244642], [-111.52490054015, 40.6089887199917], [-111.525831216344, 40.6096560022993], [-111.527942833082, 40.6120516264767], [-111.528791505667, 40.6119345935271], [-111.529203844959, 40.6119213542799], [-111.530007155317, 40.6118537081911], [-111.530515279272, 40.6118297542198], [-111.531248596497, 40.6118804363013], [-111.53235566588, 40.6121050627516], [-111.533238478039, 40.6122387347439], [-111.533533301522, 40.6122834079449], [-111.534290706172, 40.6123889134764], [-111.535555002289, 40.612315491835], [-111.536328621531, 40.612230822874], [-111.537002338231, 40.6122186836552], [-111.537517339688, 40.6123153847705], [-111.537997133475, 40.6124437781418], [-111.538471234637, 40.612599222327], [-111.538804271554, 40.6126764058958], [-111.538909440918, 40.6127007796358], [-111.539188283372, 40.6128301058343], [-111.539318784328, 40.6128880538409], [-111.53933152693, 40.6128997053557], [-111.53945573968, 40.613013536989], [-111.539505146122, 40.6130420444775], [-111.539790595685, 40.6134191695018], [-111.540250094732, 40.6131839639089], [-111.540278677328, 40.6131808570335], [-111.540602920637, 40.6130757387258], [-111.540844162308, 40.6129394777447], [-111.541333023689, 40.6127254813778], [-111.541768688635, 40.6125117318689], [-111.54194611848, 40.6124081993791], [-111.541990005674, 40.6123826785115], [-111.542274620702, 40.6122165723679], [-111.543540799688, 40.6116475711867], [-111.544546281291, 40.6110032107889], [-111.545959183909, 40.6103118728492], [-111.546177056806, 40.6102117467551], [-111.546601199961, 40.6100385728107], [-111.546972992894, 40.6099692471863], [-111.547575430971, 40.6099168437425], [-111.548353734927, 40.6098320721753], [-111.549566509968, 40.6098263082095], [-111.550594294044, 40.6097493429874], [-111.551214050741, 40.6096472901768], [-111.551650774802, 40.6095686300596], [-111.552145062905, 40.6095040177109], [-111.552294317091, 40.6094844759139], [-111.552816274204, 40.6094354035073], [-111.552928215068, 40.6096358535964], [-111.553100243343, 40.6100415966328], [-111.553176546244, 40.6106793233698], [-111.553504874192, 40.6107723421096], [-111.553623452708, 40.6109744719303], [-111.553848505839, 40.6111724869294], [-111.553985261765, 40.6112709278494], [-111.554169270871, 40.6113655381166], [-111.554346953143, 40.6114097290819], [-111.554624160663, 40.6114813697888], [-111.554833054001, 40.6115830665499], [-111.554999505535, 40.6116984798123], [-111.555252100114, 40.6117954619597], [-111.555308921251, 40.611805097837], [-111.555473431526, 40.6118286310575], [-111.555551373851, 40.6118192468212], [-111.555715540071, 40.6118013403224], [-111.55594680146, 40.6117488776222], [-111.556224409628, 40.6117259199355], [-111.556271175922, 40.6117347033912], [-111.556913545012, 40.6121053825822], [-111.557002878874, 40.61222936284], [-111.557115528509, 40.6124134994042], [-111.55717526917, 40.6124897857577], [-111.55723618393, 40.61256516573], [-111.557424233658, 40.6127183087834], [-111.557763592918, 40.6128707204529], [-111.558325254668, 40.6130301645403], [-111.558545837782, 40.6131146817816], [-111.558740789267, 40.6132443658742], [-111.558867668216, 40.6134329362645], [-111.558947631751, 40.6136658769882], [-111.559021072619, 40.6139673153669], [-111.559036440098, 40.6142083158866], [-111.556389874812, 40.6145581140328], [-111.557202585141, 40.6161194710396], [-111.555847637334, 40.6163868941601], [-111.556495861643, 40.6170733946461], [-111.555294136778, 40.6175299776101], [-111.5581294408, 40.6172716322777], [-111.558058213382, 40.6174493595285], [-111.557857452492, 40.6180440073062], [-111.557590842397, 40.6182551991185], [-111.557227502611, 40.6185209096818], [-111.555475320683, 40.6186798868392], [-111.5554429454, 40.6186249993377], [-111.554626321111, 40.6189192761434], [-111.554626536707, 40.6192741309077], [-111.553883972225, 40.6195614709651], [-111.551552899758, 40.6207386316401], [-111.55130908621, 40.6209222238183], [-111.55094618031, 40.6211879121821], [-111.550629384035, 40.6215115768359], [-111.550695536871, 40.6215624308983], [-111.550874211781, 40.623134780294], [-111.551526781241, 40.6229965338837], [-111.551522011187, 40.6234085279063], [-111.546721107983, 40.6234005444038], [-111.54671984585, 40.6214041172191], [-111.545206859231, 40.6200071626086], [-111.542309341486, 40.6218616565278], [-111.54103120233, 40.6228050142886], [-111.540845392102, 40.6234121743123], [-111.537943650478, 40.6328924935617], [-111.536831334933, 40.6381997694997], [-111.535455221919, 40.6447642520426], [-111.536244092757, 40.6477205007269], [-111.531742876515, 40.6500002552848], [-111.530006433969, 40.6523350119353], [-111.529652284847, 40.6529323839136], [-111.529062075535, 40.6538798347989], [-111.519377658258, 40.6538413700827], [-111.517023758701, 40.6517269549256], [-111.517015772678, 40.6538489962393], [-111.516996856853, 40.6581716463316], [-111.516979690048, 40.658445588305], [-111.517398576262, 40.6584462343369], [-111.520504490577, 40.658457680278], [-111.520508685709, 40.65959104837], [-111.520601622714, 40.6611068864483], [-111.519624731792, 40.661125339872], [-111.519625147712, 40.6626119562624], [-111.52266205165, 40.6626237442457], [-111.523421455052, 40.6626267002701], [-111.525247500954, 40.6626337230422], [-111.525248354353, 40.6649743616945], [-111.525248525932, 40.6655541617815], [-111.525248918495, 40.6666899774351], [-111.52627453853, 40.6666897212346], [-111.528076857231, 40.6666893301202], [-111.528923949679, 40.6666891468278], [-111.528924331463, 40.6674712805819], [-111.528924614432, 40.6681808946083], [-111.530049324931, 40.6681708723528], [-111.530049429136, 40.6683782521293], [-111.539522351554, 40.6684695075301], [-111.539554371104, 40.6757445976796], [-111.534734029256, 40.6757134217693], [-111.534801539446, 40.6819551355358], [-111.53267384017, 40.6819233514679], [-111.532672574444, 40.6830130471582], [-111.529964856345, 40.6830246973356], [-111.529966998827, 40.6792611311239], [-111.520415147732, 40.6792429606707], [-111.520412768095, 40.6807629170818], [-111.520415027358, 40.6829857085397], [-111.518463123891, 40.6829809774834], [-111.51803794947, 40.6829827057326], [-111.515669821498, 40.6829742089047], [-111.514282979905, 40.6829691338326], [-111.513257198173, 40.6829655008982], [-111.512092601578, 40.6829612126321], [-111.510869662998, 40.6829568112835], [-111.510905551592, 40.6848052335851], [-111.510923657136, 40.6857348491433], [-111.508522979608, 40.6857227464486], [-111.508536035722, 40.6866464386089], [-111.506172723618, 40.6866343926177], [-111.501330099958, 40.6866072353163], [-111.501311110471, 40.6902639398048], [-111.501307981639, 40.6939206622728], [-111.501360242029, 40.6976238971627], [-111.50374550806, 40.6976075685565], [-111.506186281891, 40.6976377916286], [-111.507392485755, 40.6976633064671], [-111.507371236107, 40.7033647080155], [-111.491772178947, 40.7033872582712], [-111.491638774635, 40.6975113880469]]]}, "properties": {"NAME": "Park City", "COUNTYNBR": "22", "FIPS": "58070", "POPLASTCENSUS": 8396}}, {"type": "Feature", "geometry": {"type": "MultiPolygon", "coordinates": [[[[-111.4739712576, 40.632594132704], [-111.474181672684, 40.6324340842547], [-111.474115155132, 40.6325925510849], [-111.474186867641, 40.6327003621987], [-111.474303928004, 40.6327328535027], [-111.474506769392, 40.632789135821], [-111.47484479106, 40.632931886596], [-111.475076776491, 40.6331291254725], [-111.475446056836, 40.6335104783115], [-111.47564244293, 40.6336898448428], [-111.475785299315, 40.6338243878316], [-111.47596404609, 40.6340173394754], [-111.476089678177, 40.6342240237258], [-111.47613841807, 40.6344265195697], [-111.47613979339, 40.6346202023134], [-111.475994541199, 40.6349811519817], [-111.475895596262, 40.6352022745039], [-111.475735960246, 40.6360362428446], [-111.475591853406, 40.6365593445503], [-111.475446657809, 40.6370959634081], [-111.475251600323, 40.6377724239612], [-111.475072041471, 40.6383001747142], [-111.475069724716, 40.6383070309918], [-111.475031513977, 40.6384219597682], [-111.474846108888, 40.6389596440971], [-111.474782624947, 40.6391797193564], [-111.474626799585, 40.6397199844801], [-111.47456284852, 40.6398742970354], [-111.474382863866, 40.6403434915009], [-111.474255551929, 40.6407358956108], [-111.474221826478, 40.6409837748413], [-111.474171732825, 40.6414254095377], [-111.474166387849, 40.6415056094623], [-111.4740119414, 40.6422422586138], [-111.473861697271, 40.6427374555737], [-111.47375109849, 40.6429856497806], [-111.473669650938, 40.6431751681888], [-111.473330916007, 40.6437756390082], [-111.473020088139, 40.6441417671588], [-111.472702963081, 40.6444538674526], [-111.47206711576, 40.6448528535357], [-111.472031499355, 40.644867232719], [-111.471672029511, 40.6450121210847], [-111.471170216221, 40.6451312833488], [-111.470621409362, 40.6452956786118], [-111.470343922466, 40.645359870555], [-111.46959443377, 40.6455791306496], [-111.468573299922, 40.6458535407821], [-111.468225098545, 40.6459540496741], [-111.468148349182, 40.6459723784675], [-111.467770515977, 40.6460639971402], [-111.467452780064, 40.6461238404551], [-111.467441321154, 40.6461258688794], [-111.467350010999, 40.6461422734859], [-111.467292090324, 40.6461470126087], [-111.467185597742, 40.6461572630994], [-111.467037966812, 40.6461705623572], [-111.466706592677, 40.6461403718385], [-111.466382422132, 40.6460578096223], [-111.466365361328, 40.6460534644549], [-111.466315612627, 40.6460428547477], [-111.466060675241, 40.6459492921344], [-111.466055577302, 40.6459475111241], [-111.465906548593, 40.6458958618048], [-111.465775951517, 40.6458243186697], [-111.46549072833, 40.6456272761122], [-111.464968408297, 40.6453501093322], [-111.464527693921, 40.6451063945622], [-111.464563265409, 40.6450341812444], [-111.465009965261, 40.6439590806091], [-111.46494330847, 40.6433011697302], [-111.46473196363, 40.6418346744216], [-111.464611741197, 40.6406655514201], [-111.461274500815, 40.64006912688], [-111.461374975583, 40.6397014385652], [-111.464444389551, 40.6382752997406], [-111.464620500669, 40.6381934224224], [-111.465172232442, 40.6379285058825], [-111.465497092893, 40.637758823091], [-111.465587705058, 40.6377116119895], [-111.466098616486, 40.6374447834623], [-111.466249085194, 40.6373662501471], [-111.467675985361, 40.6366212216917], [-111.468109972255, 40.6363314532095], [-111.468546942453, 40.6360799580266], [-111.469252236732, 40.6356943121971], [-111.469788680975, 40.6350591754587], [-111.470018713469, 40.6343719510976], [-111.470538211892, 40.6337173311525], [-111.472402079563, 40.6331796455058], [-111.473465806132, 40.6330048438192], [-111.4739712576, 40.632594132704]]], [[[-111.481107858696, 40.6235530557965], [-111.483693786802, 40.6215933852889], [-111.486011850765, 40.6198389220983], [-111.485824603232, 40.617932729709], [-111.486529088129, 40.6179481422865], [-111.486543205154, 40.6180688004904], [-111.486556687968, 40.6181673001199], [-111.486725954822, 40.6186845917724], [-111.486742950947, 40.6187620860644], [-111.48689715485, 40.6194676346297], [-111.486961793127, 40.6202286047322], [-111.486952620429, 40.6205934989915], [-111.486895372593, 40.6208504909563], [-111.486755137492, 40.6210763016243], [-111.486502587828, 40.6213025854129], [-111.486226912834, 40.6216010362673], [-111.486165687257, 40.6216523736891], [-111.485687306521, 40.6217307809357], [-111.485442395231, 40.622000542126], [-111.484638328492, 40.6218558151878], [-111.482643375062, 40.6232113421373], [-111.48145761326, 40.62401699222], [-111.481361263556, 40.6238867665358], [-111.481107858696, 40.6235530557965]]], [[[-111.479307058148, 40.6242324183277], [-111.480322035841, 40.6238768589906], [-111.480301165282, 40.6239177559857], [-111.47996010641, 40.6245848326091], [-111.479656582743, 40.6248637437716], [-111.479670658446, 40.6251950282261], [-111.479919194437, 40.6254268731857], [-111.478449734787, 40.6265014111731], [-111.478312985149, 40.6262933339708], [-111.477989597935, 40.6262095397437], [-111.477713152186, 40.6261257310936], [-111.477485876623, 40.6260063140001], [-111.477258270479, 40.6251759246483], [-111.477497943692, 40.6248616983378], [-111.477651534046, 40.624812325637], [-111.478600011256, 40.6244801195156], [-111.478830819893, 40.6243992548223], [-111.479307058148, 40.6242324183277]]]]}, "properties": {"NAME": "Park City", "COUNTYNBR": "26", "FIPS": "58070", "POPLASTCENSUS": 8396}}]}