{"type":"FeatureCollection","crs":{"type":"name","properties":{"name":"EPSG:4326"}},"features":[{"type":"Feature","geometry":{"type":"Polygon","coordinates":[[[-111.764790919721,40.3260990665403],[-111.762658168319,40.3261150400237],[-111.762670809412,40.3262132463193],[-111.761941859797,40.3262166986517],[-111.761954732655,40.3295909955532],[-111.7616718379,40.329714932836],[-111.761987594824,40.3301579054601],[-111.76257375992,40.3308311710015],[-111.762680911866,40.3309694759033],[-111.762801140587,40.3311191358918],[-111.762925471015,40.3312670568427],[-111.763052491,40.3314133387479],[-111.763183494114,40.3315578823226],[-111.763453206092,40.3318411519063],[-111.760115550688,40.333056666068],[-111.76011368309,40.3333833497759],[-111.753536094613,40.3334585499962],[-111.753484884353,40.3310136182556],[-111.752382375717,40.3310187220849],[-111.746355187709,40.331047318724],[-111.746326452399,40.3298921689388],[-111.743976954588,40.3299064034686],[-111.743959885699,40.3299064233282],[-111.739194500983,40.3299355326787],[-111.739112717461,40.3262802246869],[-111.739103772038,40.3262802815294],[-111.737976645969,40.3262879285646],[-111.733838133507,40.3044367010032],[-111.733837053732,40.3042390459043],[-111.734032726563,40.3039003199905],[-111.733974215696,40.2913716631512],[-111.735559314574,40.2934426368503],[-111.736714011735,40.2949514521381],[-111.736897070424,40.2949500160264],[-111.736922614917,40.2949836378884],[-111.743462048352,40.2949324305067],[-111.743440063882,40.2940966964626],[-111.743394770825,40.2940970774207],[-111.74338233904,40.2933813746007],[-111.743337044187,40.2933815753595],[-111.743335436202,40.2930522992389],[-111.74297603463,40.2930551482467],[-111.741204063715,40.291700084793],[-111.740153287259,40.2917083435174],[-111.74012759095,40.2897842273564],[-111.733770047496,40.2898339112845],[-111.733769423167,40.2897652652551],[-111.733887178826,40.2897643381518],[-111.733833686846,40.2861564803763],[-111.73594426064,40.286152173536],[-111.735937403799,40.284153248555],[-111.734308600085,40.2841444975635],[-111.734279461433,40.2846913631453],[-111.733753487054,40.2846907354363],[-111.733686643414,40.2846884569074],[-111.733684439846,40.2846913535515],[-111.733361698521,40.2839895979729],[-111.732512867832,40.2827517001181],[-111.732610539857,40.2827547757063],[-111.732688937628,40.2827595946757],[-111.738446498999,40.282940384589],[-111.738446538525,40.2829439878416],[-111.738448397139,40.2846391543199],[-111.738434332217,40.2860168461023],[-111.738456870049,40.2860663429834],[-111.738451259172,40.2860696219424],[-111.738463976621,40.2866544205272],[-111.738296103054,40.286654770691],[-111.738298252723,40.2868415187149],[-111.738308496212,40.286842264267],[-111.738311795724,40.2868427836865],[-111.738319814984,40.286844624268],[-111.738323356143,40.2868456829793],[-111.738330680108,40.2868484287759],[-111.738334108977,40.2868500288346],[-111.738340382811,40.2868535921342],[-111.738343701188,40.2868558233079],[-111.738348805415,40.2868600252601],[-111.73835177794,40.2868628889192],[-111.738355592187,40.2868674595353],[-111.738357982604,40.2868708679676],[-111.738360622753,40.2868757161093],[-111.738362313382,40.2868796693147],[-111.73836365816,40.2868843454581],[-111.738364529526,40.2868887543539],[-111.73836492748,40.2868928960021],[-111.738379769445,40.2877811119579],[-111.738386908356,40.288210085546],[-111.738967547017,40.2882044864811],[-111.739181935349,40.2883051016958],[-111.739447036274,40.2883092638142],[-111.739699016406,40.2881997220335],[-111.73988918526,40.2880535479604],[-111.740251337474,40.2880355549852],[-111.740888015737,40.2879260723767],[-111.740920533852,40.2880274876785],[-111.741072783021,40.2882443562534],[-111.741257369744,40.2884166914704],[-111.741498727298,40.2885518146966],[-111.741771545649,40.2886483563771],[-111.742337412413,40.2886471599625],[-111.742331887774,40.2883142139528],[-111.74258268213,40.2883117937024],[-111.742588229227,40.2886466316488],[-111.743216211798,40.288645301614],[-111.743300773809,40.2886751201522],[-111.743322788821,40.2896751826959],[-111.743333611724,40.2896751134886],[-111.7433742021,40.2896753026097],[-111.743451505724,40.2896760673167],[-111.743529421998,40.2896790802346],[-111.743579802214,40.289681549772],[-111.74360688103,40.2896833573856],[-111.743684124466,40.2896893475893],[-111.743707794176,40.2896914477922],[-111.743761032831,40.2896970515304],[-111.743836425738,40.2897059367917],[-111.743914079704,40.289717239511],[-111.743961337377,40.2897245933011],[-111.743990215518,40.2897295426508],[-111.744021688892,40.2897351066432],[-111.744702844541,40.2898611775412],[-111.744731607698,40.2898663077788],[-111.744776512683,40.2898736766276],[-111.744851227362,40.2898850882687],[-111.74492297221,40.2898939056685],[-111.744974092638,40.2898995224092],[-111.74499670503,40.2899016294577],[-111.745070654344,40.2899076395134],[-111.745096674047,40.2899094539731],[-111.745144820153,40.2899119372065],[-111.745219324626,40.2899149706705],[-111.745293452705,40.2899157545609],[-111.745342864537,40.2899157065956],[-111.74536791855,40.2899152749077],[-111.745442247852,40.289912993814],[-111.745466002003,40.2899120303963],[-111.745501512406,40.2899102700689],[-111.745497158272,40.2898673239592],[-111.74557672565,40.2898492430735],[-111.745772219717,40.2897280701114],[-111.745884207293,40.2895556327139],[-111.74588816527,40.2893270427801],[-111.745725185725,40.2890774567099],[-111.746143224827,40.2887279062508],[-111.746072153715,40.2882345690296],[-111.746271471012,40.2881727415354],[-111.74613131137,40.2878905756145],[-111.746232516468,40.2877543341239],[-111.746152969752,40.2874530378774],[-111.746110053637,40.2871556496211],[-111.746164506815,40.2868118665689],[-111.746379744055,40.2865399312783],[-111.746709969245,40.2863583369089],[-111.747017928793,40.2862382376519],[-111.747249567473,40.2861100720166],[-111.747426714349,40.2859372121772],[-111.747743063263,40.2861303076661],[-111.747750371956,40.2861209813143],[-111.747772285459,40.2860918297755],[-111.74779091023,40.2860632401356],[-111.747803853157,40.286042075256],[-111.74780858099,40.2860333957758],[-111.747824123641,40.2860026639931],[-111.747829411125,40.2859913681903],[-111.747837544471,40.2859714950012],[-111.747849544167,40.285939524927],[-111.747858490489,40.2859079351567],[-111.747863892957,40.285885827311],[-111.747865897098,40.2858755436175],[-111.74787118548,40.28584298623],[-111.747872591344,40.2858318055243],[-111.747874117581,40.2858101739098],[-111.747875403071,40.2857773718526],[-111.747873864257,40.2857444985124],[-111.747872215848,40.2857229765118],[-111.747871044445,40.2857128038059],[-111.747870779442,40.2857101031904],[-111.747869473291,40.2856983091536],[-111.747867689237,40.2856751671793],[-111.747866127067,40.2856402215564],[-111.747866159406,40.2856324732961],[-111.747866111796,40.2856174283608],[-111.747865488365,40.2855929267976],[-111.747863303662,40.2855441114067],[-111.747862858996,40.2855358252038],[-111.747862040631,40.2855255599591],[-111.746817101428,40.2857133951866],[-111.746765081786,40.285497599837],[-111.74645338884,40.284775448688],[-111.746340733816,40.2844692312302],[-111.74703688594,40.2843376180465],[-111.747214676009,40.2841594386645],[-111.747912370541,40.2839120414835],[-111.74812280449,40.2837607678688],[-111.748165960454,40.2837165233546],[-111.748345451933,40.2835329258543],[-111.748408320528,40.2833562081209],[-111.74840482159,40.2832309124838],[-111.748236046114,40.2830526301326],[-111.747905494836,40.2829465665861],[-111.748093683803,40.2826024585418],[-111.748360566088,40.2823753212187],[-111.748491792883,40.2822637488822],[-111.748775187999,40.2820941638411],[-111.748812292013,40.2821305908551],[-111.749109955071,40.2824224551285],[-111.750954150535,40.2830196149831],[-111.751251589014,40.2831306597712],[-111.751539605063,40.283187439256],[-111.751849955926,40.2832109192432],[-111.752174946633,40.2831860138589],[-111.752453783697,40.283125730497],[-111.75285173647,40.2830397165559],[-111.75300967467,40.2829294069343],[-111.752922102404,40.2828612363369],[-111.75179294255,40.2819827904626],[-111.751025147985,40.2813776712216],[-111.750852635518,40.2812339227734],[-111.747867012806,40.2787392308584],[-111.753784771639,40.2786495674205],[-111.772250240583,40.2783748202576],[-111.772439387154,40.326041397878],[-111.764790919721,40.3260990665403]]]},"properties":{"NAME":"Vineyard","COUNTYNBR":"25","FIPS":"80420","POPLASTCENSUS":12543}}]}