{
"type": "FeatureCollection",
"crs": { "type": "name", "properties": { "name": "urn:ogc:def:crs:OGC:1.3:CRS84" } },
"features": [
{ "type": "Feature", "properties": { "OBJECTID": 2230, "CountyID": 25, "VistaID": "25VI01", "PrecinctID": "25VI01", "SubPrecinctID": null, "VersionNbr": null, "EffectiveDate": 1766016000000, "AliasName": null, "Comments": null, "RcvdDate": 1765411200000, "GlobalID": "ae8febe6-37ee-4802-881a-10c4aace9fda", "Shape__Area": 6118796.252904892, "Shape__Length": 10888.9130083081 }, "geometry": { "type": "Polygon", "coordinates": [ [ [ -111.748796664919993, 40.3107795704029 ], [ -111.74880389546, 40.310777982555997 ], [ -111.748817143813994, 40.310775060999802 ], [ -111.748817214780999, 40.310775033599498 ], [ -111.753905745064003, 40.309738487610701 ], [ -111.753735752371, 40.309224142052997 ], [ -111.753620116736002, 40.308745446921101 ], [ -111.753496556163995, 40.308240047183403 ], [ -111.753444094551, 40.307960461325898 ], [ -111.753423789931006, 40.307687155430798 ], [ -111.754705592416002, 40.307611770309599 ], [ -111.754706071217996, 40.3076117367427 ], [ -111.754828732549001, 40.307605046973002 ], [ -111.754951660982996, 40.3076024768095 ], [ -111.755074618717003, 40.307604031224699 ], [ -111.755197367888002, 40.3076097072111 ], [ -111.755319671040994, 40.307619493787698 ], [ -111.755441291580993, 40.307633372020597 ], [ -111.755561994231996, 40.3076513150599 ], [ -111.755681545496998, 40.307673288191801 ], [ -111.755682011722996, 40.307673381357098 ], [ -111.756599560835994, 40.307897455806 ], [ -111.756599906687001, 40.307897567466902 ], [ -111.756688821899999, 40.3079254961713 ], [ -111.756778673824002, 40.307951623426597 ], [ -111.756869399710993, 40.307975930988803 ], [ -111.756960936200997, 40.307998401884497 ], [ -111.757053219369993, 40.308019020422897 ], [ -111.757146184768999, 40.308037772206397 ], [ -111.757239767477003, 40.308054644141301 ], [ -111.757333902138996, 40.308069624446198 ], [ -111.757334271347005, 40.3080696799341 ], [ -111.757334643248996, 40.308069734736797 ], [ -111.757430145545001, 40.308082908219802 ], [ -111.757526074935001, 40.308094132996999 ], [ -111.757622363053997, 40.308103401070198 ], [ -111.757718941281993, 40.308110705835098 ], [ -111.757815740791997, 40.308116042086603 ], [ -111.757912692600001, 40.308119406022399 ], [ -111.758009727613, 40.308120795245202 ], [ -111.758106776676996, 40.308120208765402 ], [ -111.758107155765998, 40.308120202600101 ], [ -111.759426430575999, 40.308121874083703 ], [ -111.759864130205997, 40.308122426221303 ], [ -111.760204602479007, 40.308122054247697 ], [ -111.760262204251006, 40.308121271253498 ], [ -111.760262497102005, 40.308121265773302 ], [ -111.760403574834996, 40.308116527340303 ], [ -111.760544325149993, 40.308107803063599 ], [ -111.760684554467005, 40.308095104940698 ], [ -111.760824069918996, 40.308078450433698 ], [ -111.760824342107995, 40.308078414126904 ], [ -111.761714969609997, 40.307962647960402 ], [ -111.761844351266006, 40.307945829642797 ], [ -111.761884434094, 40.307702354381703 ], [ -111.762628243641004, 40.307626778151601 ], [ -111.762682731851996, 40.307621246459298 ], [ -111.762682763293, 40.307621237553803 ], [ -111.762806941907002, 40.307606522907399 ], [ -111.762801916730993, 40.307565741810102 ], [ -111.764269638141002, 40.307374542111098 ], [ -111.764229597533998, 40.3039420322648 ], [ -111.772363249544, 40.303924490875197 ], [ -111.772697957326997, 40.303923757843002 ], [ -111.772697929478994, 40.303930394866903 ], [ -111.772695324365003, 40.304535904096902 ], [ -111.772602705363994, 40.326052747936998 ], [ -111.762665387181002, 40.326075504892003 ], [ -111.762671638556995, 40.326121066718599 ], [ -111.762681409531993, 40.326192282350497 ], [ -111.762681435583005, 40.3261924556178 ], [ -111.762582187914006, 40.326186068697602 ], [ -111.762421634717995, 40.326176091787502 ], [ -111.762133095848995, 40.326163082354803 ], [ -111.761937429306002, 40.326161117516598 ], [ -111.761835134551006, 40.326160088869997 ], [ -111.760993105905996, 40.326151578222799 ], [ -111.759926114858999, 40.326141565695302 ], [ -111.759275169553007, 40.326131066236897 ], [ -111.757884120251006, 40.3240320868507 ], [ -111.756837126600999, 40.322558060006003 ], [ -111.756827212792999, 40.322543482167397 ], [ -111.755490150442995, 40.320577098427101 ], [ -111.754818569936006, 40.319561807969301 ], [ -111.754300171948998, 40.318778072749403 ], [ -111.752770520683001, 40.316566264755998 ], [ -111.752116183338998, 40.315620071507801 ], [ -111.750726336880007, 40.313714117614701 ], [ -111.749908182761004, 40.312592091815603 ], [ -111.748583179394998, 40.310827034541497 ], [ -111.748624312353002, 40.310817889699898 ], [ -111.748796664919993, 40.3107795704029 ] ] ] } },
{ "type": "Feature", "properties": { "OBJECTID": 2231, "CountyID": 25, "VistaID": "25VI02", "PrecinctID": "25VI02", "SubPrecinctID": null, "VersionNbr": null, "EffectiveDate": 1766016000000, "AliasName": null, "Comments": null, "RcvdDate": 1765411200000, "GlobalID": "a42e28bb-262e-49ca-8960-bb63c883e4d9", "Shape__Area": 682211.89034312963, "Shape__Length": 3470.1088575779472 }, "geometry": { "type": "Polygon", "coordinates": [ [ [ -111.753423789931006, 40.307687155430798 ], [ -111.753454883318, 40.307046142535903 ], [ -111.753705273432004, 40.3057132931933 ], [ -111.753732634318993, 40.305601283951603 ], [ -111.753756055194998, 40.305488753192797 ], [ -111.753783710728996, 40.3053195388148 ], [ -111.753802459466996, 40.305149610860902 ], [ -111.753812271765, 40.304979243352101 ], [ -111.753813132350999, 40.304808710312301 ], [ -111.753805039428997, 40.304638289878397 ], [ -111.753788006473002, 40.3044682560799 ], [ -111.753703829838997, 40.304083241484598 ], [ -111.754233459462995, 40.303975927793303 ], [ -111.754954078102003, 40.303864530185102 ], [ -111.755191807361001, 40.303837997816203 ], [ -111.755733290254, 40.303833010450397 ], [ -111.756426202154998, 40.303826624840497 ], [ -111.757220019117995, 40.303822272540998 ], [ -111.758429199999, 40.303833276260598 ], [ -111.759043303599, 40.303835493172201 ], [ -111.759153671513005, 40.3038328590482 ], [ -111.759263974747995, 40.303836783173502 ], [ -111.759373547652999, 40.303847242254001 ], [ -111.759456995752998, 40.303861638473201 ], [ -111.759541375406002, 40.3038723866526 ], [ -111.759626415320994, 40.3038794532251 ], [ -111.759967520906002, 40.303880624707197 ], [ -111.760064630583997, 40.303870615042499 ], [ -111.760231553734002, 40.303858435050998 ], [ -111.760399057195002, 40.303852530367799 ], [ -111.760566737624004, 40.303852912641098 ], [ -111.760719366781004, 40.303859462667198 ], [ -111.760871262014007, 40.3038726586283 ], [ -111.761021927453001, 40.303892458045702 ], [ -111.761170877110999, 40.303918795146302 ], [ -111.761326669235999, 40.303948154109399 ], [ -111.764229597533998, 40.3039420322648 ], [ -111.764269638141002, 40.307374542111098 ], [ -111.762801916730993, 40.307565741810102 ], [ -111.762806941907002, 40.307606522907399 ], [ -111.762682763293, 40.307621237553803 ], [ -111.762682731851996, 40.307621246459298 ], [ -111.762628243641004, 40.307626778151601 ], [ -111.761884434094, 40.307702354381703 ], [ -111.761844351266006, 40.307945829642797 ], [ -111.761714969609997, 40.307962647960402 ], [ -111.760824342107995, 40.308078414126904 ], [ -111.760824069918996, 40.308078450433698 ], [ -111.760684554484001, 40.308095105042199 ], [ -111.760544325167999, 40.308107803199398 ], [ -111.760403574845, 40.308116527442301 ], [ -111.760262497102005, 40.308121265773302 ], [ -111.760262204251006, 40.308121271253498 ], [ -111.760204602479007, 40.308122054247697 ], [ -111.759864130205997, 40.308122426221303 ], [ -111.759426430575999, 40.308121874083703 ], [ -111.758107155765998, 40.308120202600101 ], [ -111.758106776676996, 40.308120208765402 ], [ -111.758009727613995, 40.308120795213902 ], [ -111.757912692603995, 40.308119405968597 ], [ -111.757815740797994, 40.308116042019499 ], [ -111.757718941289994, 40.308110705763603 ], [ -111.757622363063007, 40.308103401003301 ], [ -111.757526074943002, 40.308094132943602 ], [ -111.757430145550998, 40.308082908188702 ], [ -111.757334643248996, 40.308069734736797 ], [ -111.757334271347005, 40.3080696799341 ], [ -111.757333902138996, 40.308069624446198 ], [ -111.757239767501005, 40.308054644068903 ], [ -111.757146184812996, 40.308037772082898 ], [ -111.757053219428002, 40.308019020269199 ], [ -111.756960936267006, 40.307998401721498 ], [ -111.756869399775994, 40.307975930836797 ], [ -111.756778673878998, 40.307951623305698 ], [ -111.756688821934006, 40.307925496101198 ], [ -111.756599906687001, 40.307897567466902 ], [ -111.756599560835994, 40.307897455806 ], [ -111.755682011722996, 40.307673381357098 ], [ -111.755681545496998, 40.307673288191801 ], [ -111.755561994231002, 40.307651315062799 ], [ -111.755441291579999, 40.307633372025499 ], [ -111.755319671039999, 40.307619493793801 ], [ -111.755197367888002, 40.307609707217701 ], [ -111.755074618715994, 40.307604031230802 ], [ -111.754951660982996, 40.307602476814502 ], [ -111.754828732549001, 40.307605046975901 ], [ -111.754706071217996, 40.3076117367427 ], [ -111.754705592416002, 40.307611770309599 ], [ -111.753423789931006, 40.307687155430798 ] ] ] } },
{ "type": "Feature", "properties": { "OBJECTID": 2232, "CountyID": 25, "VistaID": "25VI03", "PrecinctID": "25VI03", "SubPrecinctID": null, "VersionNbr": null, "EffectiveDate": 1766016000000, "AliasName": null, "Comments": null, "RcvdDate": 1765411200000, "GlobalID": "2f67c3d1-06e7-4292-8aa8-1f1baf77e1b3", "Shape__Area": 728508.625, "Shape__Length": 3600.4011418085006 }, "geometry": { "type": "Polygon", "coordinates": [ [ [ -111.747633230744995, 40.309185156008901 ], [ -111.747021268729, 40.308346462188702 ], [ -111.746973282523001, 40.308280697032401 ], [ -111.746966318782995, 40.308271153157001 ], [ -111.746794095572994, 40.308035117180502 ], [ -111.746546172232996, 40.307792025862398 ], [ -111.746416151874996, 40.307633043520497 ], [ -111.746174076567002, 40.307324142879999 ], [ -111.746170243456007, 40.307319251677498 ], [ -111.746000079184995, 40.307102110702203 ], [ -111.745858400491997, 40.3068872769514 ], [ -111.745593918506003, 40.306486227459999 ], [ -111.745358549122003, 40.306129319825899 ], [ -111.745161772260005, 40.305830928626698 ], [ -111.745042824536995, 40.305650555490601 ], [ -111.744890593334006, 40.305419709974302 ], [ -111.744830167258002, 40.305328080175599 ], [ -111.744721952606, 40.305174415667899 ], [ -111.744612404853001, 40.305018857973998 ], [ -111.744585110442003, 40.304980099684798 ], [ -111.744400419513994, 40.304787666394702 ], [ -111.744253011365998, 40.304634076700403 ], [ -111.744203125222995, 40.304582098392899 ], [ -111.744161631142006, 40.304549042380003 ], [ -111.744097549821007, 40.304497989538 ], [ -111.744095097420995, 40.304496035030503 ], [ -111.744077683578993, 40.304476484470797 ], [ -111.744061656735994, 40.304458491757899 ], [ -111.744039851031005, 40.3044340114119 ], [ -111.744019654208003, 40.304411336221499 ], [ -111.744005449149, 40.304395388431303 ], [ -111.743981077854997, 40.304368027333503 ], [ -111.743971217945997, 40.3043546834935 ], [ -111.743953259725004, 40.304330377118397 ], [ -111.743947044281995, 40.304321965110198 ], [ -111.743946028286999, 40.304320588798902 ], [ -111.743946127102006, 40.304320588113796 ], [ -111.743946933789005, 40.3043205805781 ], [ -111.748852001141998, 40.304272300055104 ], [ -111.751075750084993, 40.304247749079103 ], [ -111.751997115240997, 40.304228438908503 ], [ -111.752327994403998, 40.304221503221598 ], [ -111.752976264528002, 40.304207910670897 ], [ -111.753125008471002, 40.3041957149834 ], [ -111.753272608857998, 40.304177078911003 ], [ -111.753418590481999, 40.304152064790003 ], [ -111.753562485318994, 40.304120751397001 ], [ -111.753703829838997, 40.304083241484598 ], [ -111.753788006473002, 40.3044682560799 ], [ -111.753805039428997, 40.304638289878397 ], [ -111.753813132350999, 40.304808710312301 ], [ -111.753812271765, 40.304979243352101 ], [ -111.753802459466996, 40.305149610860902 ], [ -111.753783710728996, 40.3053195388148 ], [ -111.753756055194998, 40.305488753192797 ], [ -111.753732634318993, 40.305601283951603 ], [ -111.753705273432004, 40.3057132931933 ], [ -111.753454883318, 40.307046142535903 ], [ -111.753423789931006, 40.307687155430798 ], [ -111.753444094551, 40.307960461325898 ], [ -111.753496556163995, 40.308240047183403 ], [ -111.753620116736002, 40.308745446921101 ], [ -111.753735752371, 40.309224142052997 ], [ -111.753905745064003, 40.309738487610701 ], [ -111.748817214780999, 40.310775033599498 ], [ -111.748817143813994, 40.310775060999802 ], [ -111.74880389546, 40.310777982555997 ], [ -111.748796664919993, 40.3107795704029 ], [ -111.747677184413007, 40.309245394205398 ], [ -111.747633230744995, 40.309185156008901 ] ] ] } },
{ "type": "Feature", "properties": { "OBJECTID": 2233, "CountyID": 25, "VistaID": "25VI04", "PrecinctID": "25VI04", "SubPrecinctID": null, "VersionNbr": null, "EffectiveDate": 1766016000000, "AliasName": null, "Comments": null, "RcvdDate": 1765411200000, "GlobalID": "ef9e0097-07dd-4b1e-be3e-ad6da269da00", "Shape__Area": 8040442.0276222229, "Shape__Length": 15095.931390148979 }, "geometry": { "type": "Polygon", "coordinates": [ [ [ -111.753496668452996, 40.331025090057999 ], [ -111.753496555265002, 40.331019606848997 ], [ -111.752394019679997, 40.331024739439499 ], [ -111.746377722846006, 40.331053231986303 ], [ -111.746366886469005, 40.3310532819768 ], [ -111.746338235601002, 40.329904577071602 ], [ -111.746338075701004, 40.329898154207598 ], [ -111.7456342861, 40.329902421964199 ], [ -111.745298033213999, 40.329904459283703 ], [ -111.744210032370006, 40.329911045817397 ], [ -111.743988583279005, 40.329912384627299 ], [ -111.743971544035006, 40.329912419552699 ], [ -111.740752431214005, 40.329932125734203 ], [ -111.740628132227002, 40.329932884507002 ], [ -111.739206193455004, 40.329941559717298 ], [ -111.739201709962998, 40.329941569304701 ], [ -111.739134118026001, 40.327078064109699 ], [ -111.739115429475007, 40.326286256160898 ], [ -111.738558915072005, 40.326290027629703 ], [ -111.738539957924004, 40.326290156381503 ], [ -111.738527067099994, 40.326290244042298 ], [ -111.737988272864001, 40.3262938922378 ], [ -111.737807465353995, 40.325339510165001 ], [ -111.736964760277004, 40.320891019071901 ], [ -111.736617584775999, 40.3190581699806 ], [ -111.736606320801002, 40.318998705597103 ], [ -111.735257742946999, 40.311878161777798 ], [ -111.735118508569002, 40.311142913733597 ], [ -111.734752817892002, 40.3092117458744 ], [ -111.734197244922996, 40.306277627787701 ], [ -111.733938919091997, 40.304913260491297 ], [ -111.733875280640007, 40.304577137799797 ], [ -111.734125552177005, 40.304559421196998 ], [ -111.734280524140004, 40.304541041441297 ], [ -111.734434320207995, 40.304517568179399 ], [ -111.734586652022003, 40.304489049360903 ], [ -111.734737237510998, 40.304455532934398 ], [ -111.734829783749007, 40.304440696340698 ], [ -111.734923408862997, 40.304430569611903 ], [ -111.735017699628003, 40.304425195909303 ], [ -111.735112250905004, 40.304424599211899 ], [ -111.735206645874996, 40.304428782259798 ], [ -111.736406297428005, 40.304419705744202 ], [ -111.738785620204993, 40.304401667116302 ], [ -111.738770329980994, 40.303768428825499 ], [ -111.738736436544997, 40.303487685853597 ], [ -111.738708906775003, 40.303375083065497 ], [ -111.738673530221007, 40.3032637728423 ], [ -111.738630411087001, 40.303154074439803 ], [ -111.738579669748006, 40.303046303690401 ], [ -111.738521455324999, 40.302940772317903 ], [ -111.738455932207998, 40.302837781086303 ], [ -111.738383294434001, 40.3027376280208 ], [ -111.738303744123996, 40.302640600186798 ], [ -111.738217513940995, 40.302546979855101 ], [ -111.738124854516002, 40.302457032170302 ], [ -111.737954377631993, 40.302270889758397 ], [ -111.737789225062002, 40.302081955754602 ], [ -111.737629474060995, 40.301890317827997 ], [ -111.737475200988001, 40.301696068443903 ], [ -111.737417215635006, 40.301598990471803 ], [ -111.737366500346994, 40.301499556981497 ], [ -111.737323220415007, 40.301398081739698 ], [ -111.737287513281004, 40.301294895642101 ], [ -111.737259492131997, 40.301190325475702 ], [ -111.737239249495005, 40.301084708991098 ], [ -111.737225115403007, 40.300489826424098 ], [ -111.737207805764996, 40.299761362462398 ], [ -111.737199682300002, 40.299612429066599 ], [ -111.737191390850001, 40.299303895285398 ], [ -111.737188336125001, 40.299229191149998 ], [ -111.737182185167001, 40.299154597982202 ], [ -111.737172944131004, 40.299080190409299 ], [ -111.737160622261001, 40.299006042873202 ], [ -111.737145231884995, 40.298932229555803 ], [ -111.737126788401, 40.298858824305 ], [ -111.737105310261001, 40.298785900560503 ], [ -111.737080818951, 40.298713531280796 ], [ -111.737053338973993, 40.298641788869503 ], [ -111.737022897824005, 40.298570745103603 ], [ -111.736989525954002, 40.298500471061203 ], [ -111.736953256752003, 40.298431037050499 ], [ -111.736914126502, 40.298362512539597 ], [ -111.736872174354005, 40.2982949660868 ], [ -111.736827442277999, 40.298228465271897 ], [ -111.736779975027005, 40.298163076629002 ], [ -111.737077644371993, 40.298048395168699 ], [ -111.737115772465998, 40.298031671672099 ], [ -111.738618425764997, 40.297372593105599 ], [ -111.738618639563995, 40.297372499926098 ], [ -111.738618669207995, 40.297372538294098 ], [ -111.739831678708995, 40.298956859383601 ], [ -111.740347125731006, 40.299630062696899 ], [ -111.740446099414001, 40.2997610541588 ], [ -111.740817170102005, 40.3002521128167 ], [ -111.743423079435004, 40.3036390763084 ], [ -111.743893164230002, 40.3042490397577 ], [ -111.743946028286999, 40.304320588798902 ], [ -111.743947044281995, 40.304321965110198 ], [ -111.743953259725004, 40.304330377118397 ], [ -111.743971217945997, 40.3043546834935 ], [ -111.743981077854997, 40.304368027333503 ], [ -111.744005449149, 40.304395388431303 ], [ -111.744019654208003, 40.304411336221499 ], [ -111.744039851031005, 40.3044340114119 ], [ -111.744061656735994, 40.304458491757899 ], [ -111.744077683578993, 40.304476484470797 ], [ -111.744095097420995, 40.304496035030503 ], [ -111.744097549821007, 40.304497989538 ], [ -111.744161631142006, 40.304549042380003 ], [ -111.744203125222995, 40.304582098392899 ], [ -111.744253011365998, 40.304634076700403 ], [ -111.744400419513994, 40.304787666394702 ], [ -111.744585110442003, 40.304980099684798 ], [ -111.744612404853001, 40.305018857973998 ], [ -111.744721952606, 40.305174415667899 ], [ -111.744830167258002, 40.305328080175599 ], [ -111.744890593334006, 40.305419709974302 ], [ -111.745042824536995, 40.305650555490601 ], [ -111.745161772260005, 40.305830928626698 ], [ -111.745358549122003, 40.306129319825899 ], [ -111.745593918506003, 40.306486227459999 ], [ -111.745858400491997, 40.3068872769514 ], [ -111.746000079184995, 40.307102110702203 ], [ -111.746170243456007, 40.307319251677498 ], [ -111.746174076567002, 40.307324142879999 ], [ -111.746416151874996, 40.307633043520497 ], [ -111.746546172232996, 40.307792025862398 ], [ -111.746794095572994, 40.308035117180502 ], [ -111.746966318782995, 40.308271153157001 ], [ -111.746973282523001, 40.308280697032401 ], [ -111.747021268729, 40.308346462188702 ], [ -111.747633230744995, 40.309185156008901 ], [ -111.747677184413007, 40.309245394205398 ], [ -111.748796664919993, 40.3107795704029 ], [ -111.748624312353002, 40.310817889699898 ], [ -111.748583179394998, 40.310827034541497 ], [ -111.749908182761004, 40.312592091815603 ], [ -111.750726336880007, 40.313714117614701 ], [ -111.752116183338998, 40.315620071507801 ], [ -111.752770520683001, 40.316566264755998 ], [ -111.754300171948998, 40.318778072749403 ], [ -111.754818569936006, 40.319561807969301 ], [ -111.755490150442995, 40.320577098427101 ], [ -111.756827212792999, 40.322543482167397 ], [ -111.756837126600999, 40.322558060006003 ], [ -111.757884120251006, 40.3240320868507 ], [ -111.759275169553007, 40.326131066236897 ], [ -111.759926114858999, 40.326141565695302 ], [ -111.760993105905996, 40.326151578222799 ], [ -111.761835134551006, 40.326160088869997 ], [ -111.761937429306002, 40.326161117516598 ], [ -111.762133095848995, 40.326163082354803 ], [ -111.762421634717995, 40.326176091787502 ], [ -111.762582187914006, 40.326186068697602 ], [ -111.762681435583005, 40.3261924556178 ], [ -111.762685333373, 40.3262208721316 ], [ -111.761955310271006, 40.326225853734996 ], [ -111.761962372826005, 40.3268323615466 ], [ -111.761966071190002, 40.329598867517902 ], [ -111.761684958692996, 40.329722106959601 ], [ -111.761684519417003, 40.329722300762299 ], [ -111.761543866599993, 40.329783960802601 ], [ -111.762135852778997, 40.330485401686197 ], [ -111.763292154330998, 40.331855440123597 ], [ -111.763331929036994, 40.3318955881835 ], [ -111.761554407431007, 40.332542950095103 ], [ -111.760127238668005, 40.333062687349504 ], [ -111.760125336035998, 40.333389362810998 ], [ -111.753547740371999, 40.3334645548073 ], [ -111.753531311982002, 40.332679760026899 ], [ -111.753496668452996, 40.331025090057999 ] ] ] } },
{ "type": "Feature", "properties": { "OBJECTID": 2234, "CountyID": 25, "VistaID": "25VI05", "PrecinctID": "25VI05", "SubPrecinctID": null, "VersionNbr": null, "EffectiveDate": 1766016000000, "AliasName": null, "Comments": null, "RcvdDate": 1765411200000, "GlobalID": "34203025-108d-474f-b156-9371752e2feb", "Shape__Area": 647295.9372215271, "Shape__Length": 4692.6093503829379 }, "geometry": { "type": "Polygon", "coordinates": [ [ [ -111.733849825977998, 40.3044426946946 ], [ -111.733848705778996, 40.304245047834101 ], [ -111.734044317525004, 40.303906308248898 ], [ -111.734044297763006, 40.303902238206298 ], [ -111.734032554086994, 40.301383256806403 ], [ -111.734021298195998, 40.2989686428851 ], [ -111.734021229025998, 40.2989538770248 ], [ -111.734012981592997, 40.297184669695298 ], [ -111.733985915353998, 40.291377671705803 ], [ -111.735570901044994, 40.293448607535602 ], [ -111.736725607189001, 40.294957472022297 ], [ -111.736734121420994, 40.294957406246198 ], [ -111.736734178912997, 40.2949574802443 ], [ -111.738115800396997, 40.296724458860702 ], [ -111.738144503366996, 40.296761166438102 ], [ -111.738436125253997, 40.297134110073998 ], [ -111.738618530867001, 40.2973723574163 ], [ -111.738618567697998, 40.297372405376301 ], [ -111.738618639563995, 40.297372499926098 ], [ -111.738618425764997, 40.297372593105599 ], [ -111.737115772465998, 40.298031671672099 ], [ -111.737077644371993, 40.298048395168699 ], [ -111.736779975027005, 40.298163076629002 ], [ -111.736827442277999, 40.298228465271897 ], [ -111.736872174354005, 40.2982949660868 ], [ -111.736914126502, 40.298362512539597 ], [ -111.736953256752003, 40.298431037050499 ], [ -111.736989525954002, 40.298500471061203 ], [ -111.737022897824005, 40.298570745103603 ], [ -111.737053338973993, 40.298641788869503 ], [ -111.737080818951, 40.298713531280796 ], [ -111.737105310261001, 40.298785900560503 ], [ -111.737126788401, 40.298858824305 ], [ -111.737145231886004, 40.298932229555803 ], [ -111.737160622261001, 40.299006042873202 ], [ -111.737172944131004, 40.299080190409299 ], [ -111.737182185167001, 40.299154597982202 ], [ -111.737188336125001, 40.299229191149998 ], [ -111.737191390850001, 40.299303895285398 ], [ -111.737199682300002, 40.299612429066599 ], [ -111.737207805764996, 40.299761362462398 ], [ -111.737225115403007, 40.300489826424098 ], [ -111.737239249495005, 40.301084708991098 ], [ -111.737259492131997, 40.301190325475702 ], [ -111.737287513281004, 40.301294895642101 ], [ -111.737323220415007, 40.301398081739698 ], [ -111.737366500346994, 40.301499556981497 ], [ -111.737417215635006, 40.301598990471803 ], [ -111.737475200988001, 40.301696068443903 ], [ -111.737629474060995, 40.301890317827997 ], [ -111.737789225062002, 40.302081955754602 ], [ -111.737954377631993, 40.302270889758397 ], [ -111.738124854516002, 40.302457032170302 ], [ -111.738217513940995, 40.302546979855101 ], [ -111.738303744123996, 40.302640600186798 ], [ -111.738383294434001, 40.3027376280208 ], [ -111.738455932207998, 40.302837781086303 ], [ -111.738521455324999, 40.302940772317903 ], [ -111.738579669748006, 40.303046303690401 ], [ -111.738630411087001, 40.303154074439803 ], [ -111.738673530221007, 40.3032637728423 ], [ -111.738708906775003, 40.303375083065497 ], [ -111.738736436544997, 40.303487685853597 ], [ -111.738770329980994, 40.303768428825499 ], [ -111.738785620204993, 40.304401667116302 ], [ -111.736406297428005, 40.304419705744202 ], [ -111.735206645874996, 40.304428782259798 ], [ -111.735112250905004, 40.304424599211899 ], [ -111.735017699628003, 40.304425195909303 ], [ -111.734923408862997, 40.304430569611903 ], [ -111.734829783749007, 40.304440696340698 ], [ -111.734737237510998, 40.304455532934398 ], [ -111.734586652022003, 40.304489049360903 ], [ -111.734434320207995, 40.304517568179399 ], [ -111.734280524140004, 40.304541041441297 ], [ -111.734125552177005, 40.304559421196998 ], [ -111.733875280640007, 40.304577137799797 ], [ -111.733849825977998, 40.3044426946946 ] ] ] } },
{ "type": "Feature", "properties": { "OBJECTID": 2235, "CountyID": 25, "VistaID": "25VI06", "PrecinctID": "25VI06", "SubPrecinctID": null, "VersionNbr": null, "EffectiveDate": 1766016000000, "AliasName": null, "Comments": null, "RcvdDate": 1765411200000, "GlobalID": "431a5432-9b4b-4967-bbf3-5623398dfaff", "Shape__Area": 1905722.7309875488, "Shape__Length": 10899.090939377327 }, "geometry": { "type": "Polygon", "coordinates": [ [ [ -111.738618639563995, 40.297372499926098 ], [ -111.738618567697998, 40.297372405376301 ], [ -111.738618530867001, 40.2973723574163 ], [ -111.738436125253997, 40.297134110073998 ], [ -111.738144503366996, 40.296761166438102 ], [ -111.738115800396997, 40.296724458860702 ], [ -111.736734178912997, 40.2949574802443 ], [ -111.736734121420994, 40.294957406246198 ], [ -111.736734281321006, 40.294957404190598 ], [ -111.736908705402996, 40.294956042762301 ], [ -111.736909371953004, 40.294956917721599 ], [ -111.736934253490006, 40.294989629677701 ], [ -111.743473747112006, 40.294938431893002 ], [ -111.743451690775998, 40.294102694497198 ], [ -111.743406470482995, 40.294103049418602 ], [ -111.743401412967998, 40.293812743659899 ], [ -111.743394000969005, 40.293387328846997 ], [ -111.743348739352996, 40.2933875953835 ], [ -111.743347039740996, 40.293058299421801 ], [ -111.742987670508001, 40.2930611169107 ], [ -111.741215696897996, 40.2917061090779 ], [ -111.740164943798007, 40.2917143561532 ], [ -111.740139270846001, 40.289790242904203 ], [ -111.733781705832001, 40.289839948755002 ], [ -111.733781472269996, 40.289771303416899 ], [ -111.733898877586, 40.289770381110401 ], [ -111.733845357758, 40.286162472948298 ], [ -111.735955895619, 40.286158194889197 ], [ -111.735949024405997, 40.284159210467202 ], [ -111.734320195538999, 40.284150503334097 ], [ -111.734291144023004, 40.2846973647558 ], [ -111.733765085203004, 40.284696711691701 ], [ -111.733698312529, 40.284694444127403 ], [ -111.733696081114005, 40.284697366126302 ], [ -111.733373311940994, 40.283995594848697 ], [ -111.732524477658998, 40.282757682027302 ], [ -111.732622167650007, 40.282760745280001 ], [ -111.732700596862003, 40.282765564248997 ], [ -111.738458127689995, 40.282946369222699 ], [ -111.738458141164998, 40.282949972474903 ], [ -111.738459996185995, 40.2846451134481 ], [ -111.738445962705001, 40.286022879116999 ], [ -111.738468463705999, 40.286072352694902 ], [ -111.738462927388994, 40.286075601502198 ], [ -111.738475620583998, 40.286660450743902 ], [ -111.738307693118003, 40.286660793369897 ], [ -111.738308342600007, 40.286847408438703 ], [ -111.738320090767004, 40.286848167695702 ], [ -111.738331493082995, 40.286850466709303 ], [ -111.738342203696007, 40.286854239010097 ], [ -111.738351906399004, 40.286859369475998 ], [ -111.738360307443997, 40.2868657039254 ], [ -111.738367155301006, 40.286873053229002 ], [ -111.738372246053999, 40.286881198791903 ], [ -111.738375424294006, 40.286889893238701 ], [ -111.738376595697005, 40.2868988775448 ], [ -111.738391372085005, 40.287787139333098 ], [ -111.738398509199996, 40.288216113568303 ], [ -111.738979196369002, 40.288210446665502 ], [ -111.739193587396997, 40.2883110885954 ], [ -111.739458723355995, 40.288315271270598 ], [ -111.739710614554994, 40.288205680847803 ], [ -111.739900872342005, 40.288059521177601 ], [ -111.740263026351997, 40.288041515869701 ], [ -111.740899683953998, 40.287932034641301 ], [ -111.740932195780999, 40.288033446508102 ], [ -111.741084456628002, 40.288250341102803 ], [ -111.741269044248995, 40.288422644783701 ], [ -111.741510327243006, 40.288557813223399 ], [ -111.741783226443005, 40.288654332967802 ], [ -111.742349017747998, 40.288653160536498 ], [ -111.742343519160002, 40.288320241280601 ], [ -111.742594356636005, 40.288317812122301 ], [ -111.742599887563003, 40.288652623314803 ], [ -111.743227819827993, 40.288651317948499 ], [ -111.743312474364998, 40.2886811268908 ], [ -111.743334422903004, 40.289681190716102 ], [ -111.743334945273006, 40.289681200994401 ], [ -111.743335001418004, 40.289683778111502 ], [ -111.743335507168993, 40.289761361554397 ], [ -111.743227850370999, 40.289761873414101 ], [ -111.743207924838998, 40.289761970715297 ], [ -111.743242393783007, 40.289765578087703 ], [ -111.743275482976003, 40.289773778594999 ], [ -111.743306149212003, 40.289786313697803 ], [ -111.743333425676994, 40.2898027881986 ], [ -111.743356452420997, 40.289822682701903 ], [ -111.743374503479998, 40.289845369989699 ], [ -111.743387009757001, 40.2898701347955 ], [ -111.743393576963996, 40.289896196355897 ], [ -111.743393590438998, 40.289896299824001 ], [ -111.743401262050995, 40.289953474478601 ], [ -111.743409005529003, 40.2900306663526 ], [ -111.743435180640006, 40.291091501796799 ], [ -111.743435201300997, 40.291091679265399 ], [ -111.743442111944006, 40.291136908699897 ], [ -111.743452813518005, 40.291181706614303 ], [ -111.743467261909004, 40.2912258883389 ], [ -111.743485397556, 40.291269271744198 ], [ -111.743507145696995, 40.291311677992198 ], [ -111.743532416679997, 40.291352932273298 ], [ -111.743561106331001, 40.291392864526898 ], [ -111.743593096382, 40.2914313101424 ], [ -111.743593227535996, 40.291431458146299 ], [ -111.743656964802, 40.291502813145598 ], [ -111.743919460613, 40.291811094079698 ], [ -111.744159330556997, 40.292056514334199 ], [ -111.744486851817996, 40.292420272195699 ], [ -111.744706711788993, 40.292664449356998 ], [ -111.744972105564003, 40.293025030843701 ], [ -111.744984685572007, 40.2930421228398 ], [ -111.745074462302995, 40.2931640983794 ], [ -111.745202015887003, 40.2933268250464 ], [ -111.745265826815, 40.293418195679202 ], [ -111.745303395258006, 40.293481026963804 ], [ -111.745329771591997, 40.293546740750998 ], [ -111.745431397101001, 40.293769572550403 ], [ -111.745547983153998, 40.293998089217901 ], [ -111.745837532628002, 40.294555090304399 ], [ -111.745901582507003, 40.2947122301698 ], [ -111.745950622436993, 40.294849383982601 ], [ -111.746278694365003, 40.295732289529603 ], [ -111.746606666581002, 40.296602585668801 ], [ -111.746695432707, 40.296842540905402 ], [ -111.746754717024004, 40.297083109180697 ], [ -111.746766915248003, 40.297132605494099 ], [ -111.746766991604005, 40.297132909013598 ], [ -111.746821054912999, 40.297132491074798 ], [ -111.746862159125996, 40.297274084506 ], [ -111.748833772528002, 40.303555937038503 ], [ -111.748852001141998, 40.304272300055104 ], [ -111.743946933789005, 40.3043205805781 ], [ -111.743946127102006, 40.304320588113796 ], [ -111.743946028286999, 40.304320588798902 ], [ -111.743893164230002, 40.3042490397577 ], [ -111.743423079435004, 40.3036390763084 ], [ -111.740817170102005, 40.3002521128167 ], [ -111.740446099414001, 40.2997610541588 ], [ -111.740347125731006, 40.299630062696899 ], [ -111.739831678708995, 40.298956859383601 ], [ -111.738618669207995, 40.297372538294098 ], [ -111.738618639563995, 40.297372499926098 ] ] ] } },
{ "type": "Feature", "properties": { "OBJECTID": 2236, "CountyID": 25, "VistaID": "25VI07", "PrecinctID": "25VI07", "SubPrecinctID": null, "VersionNbr": null, "EffectiveDate": 1766016000000, "AliasName": null, "Comments": null, "RcvdDate": 1765411200000, "GlobalID": "1016f721-cb2e-4311-b968-3630eecca412", "Shape__Area": 5898498.0062255859, "Shape__Length": 12207.20533574265 }, "geometry": { "type": "Polygon", "coordinates": [ [ [ -111.747292634505001, 40.297131494187802 ], [ -111.746821054912999, 40.297132491074798 ], [ -111.746766991604005, 40.297132909013598 ], [ -111.746766915248003, 40.297132605494099 ], [ -111.746754717024004, 40.297083109180697 ], [ -111.746695432707, 40.296842540905402 ], [ -111.746606666581002, 40.296602585668801 ], [ -111.746278694365003, 40.295732289529603 ], [ -111.745950622436993, 40.294849383982601 ], [ -111.745901582507003, 40.2947122301698 ], [ -111.745837532628002, 40.294555090304399 ], [ -111.745547983153998, 40.293998089217901 ], [ -111.745431397101001, 40.293769572550403 ], [ -111.745329771591997, 40.293546740750998 ], [ -111.745303395258006, 40.293481026963804 ], [ -111.745265826815, 40.293418195679202 ], [ -111.745202015887003, 40.2933268250464 ], [ -111.745074462302995, 40.2931640983794 ], [ -111.744984685572007, 40.2930421228398 ], [ -111.744972105564003, 40.293025030843701 ], [ -111.744706711788993, 40.292664449356998 ], [ -111.744486851817996, 40.292420272195699 ], [ -111.744159330556997, 40.292056514334199 ], [ -111.743919460613, 40.291811094079698 ], [ -111.743656964802, 40.291502813145598 ], [ -111.743593227535996, 40.291431458146299 ], [ -111.743593096382, 40.2914313101424 ], [ -111.743561106442002, 40.291392864484003 ], [ -111.743532416874999, 40.291352932206003 ], [ -111.743507145943994, 40.291311677915999 ], [ -111.743485397824003, 40.291269271671503 ], [ -111.743467262164998, 40.291225888279001 ], [ -111.743452813725, 40.291181706573198 ], [ -111.743442112066006, 40.291136908679903 ], [ -111.743435201300997, 40.291091679265399 ], [ -111.743435180640006, 40.291091501796799 ], [ -111.743409005529003, 40.2900306663526 ], [ -111.743401262050995, 40.289953474478601 ], [ -111.743393590438998, 40.289896299824001 ], [ -111.743393576963996, 40.289896196355897 ], [ -111.743387009746996, 40.289870134799102 ], [ -111.743374503465006, 40.289845369997103 ], [ -111.743356452404001, 40.289822682713002 ], [ -111.743333425659998, 40.289802788211901 ], [ -111.743306149199, 40.289786313711602 ], [ -111.743275482965998, 40.2897737786069 ], [ -111.743242393778999, 40.289765578095 ], [ -111.743207924838998, 40.289761970715297 ], [ -111.743227850370999, 40.289761873414101 ], [ -111.743335507168993, 40.289761361554397 ], [ -111.743335001418004, 40.289683778111502 ], [ -111.743334945273006, 40.289681200994401 ], [ -111.743345244009006, 40.289681106433903 ], [ -111.743351371417006, 40.289681174270797 ], [ -111.743357541945002, 40.289681242792902 ], [ -111.743484066958004, 40.289682646811201 ], [ -111.743622619513999, 40.2896894421498 ], [ -111.743760566605005, 40.2897014773732 ], [ -111.743897564177999, 40.289718722328999 ], [ -111.744033280753001, 40.289741135899803 ], [ -111.744713078149005, 40.289866951885102 ], [ -111.744844404657002, 40.289888492437498 ], [ -111.744977020247006, 40.289904747889302 ], [ -111.745110563797994, 40.289915675760703 ], [ -111.745244670591006, 40.289921244534298 ], [ -111.745378975015001, 40.289921439821597 ], [ -111.745513109656002, 40.289916260937702 ], [ -111.745508810318995, 40.2898733292214 ], [ -111.745588412730996, 40.289855229836398 ], [ -111.745783840323, 40.289734039069302 ], [ -111.745895825204997, 40.289561616076703 ], [ -111.745899820012994, 40.2893330597391 ], [ -111.745736840467998, 40.289083481228602 ], [ -111.746154924486007, 40.288733944505402 ], [ -111.746083826423998, 40.2882405970497 ], [ -111.746283152703995, 40.288178768190498 ], [ -111.746143012825002, 40.287896609147197 ], [ -111.746244195464996, 40.287760309423298 ], [ -111.746164615511006, 40.287459017314902 ], [ -111.746121677836996, 40.287161612638997 ], [ -111.746176185812004, 40.286817883751802 ], [ -111.746391344898996, 40.286545947115002 ], [ -111.746721662615002, 40.286364291773999 ], [ -111.747029552094006, 40.286244254886 ], [ -111.747261225808998, 40.286116057740102 ], [ -111.747438397837996, 40.285943209565502 ], [ -111.747754664107006, 40.286136305037203 ], [ -111.747794772985998, 40.286082016200197 ], [ -111.747827995380007, 40.286025064405798 ], [ -111.747854032150002, 40.285965962220999 ], [ -111.747872655123999, 40.285905238660497 ], [ -111.747883690028999, 40.285843437816403 ], [ -111.747887045236993, 40.2857811154324 ], [ -111.747882684814002, 40.285718829995098 ], [ -111.747878811278994, 40.285678719576701 ], [ -111.747877785403006, 40.285638507030299 ], [ -111.747877031716001, 40.2855849866583 ], [ -111.747873707950006, 40.285531523120802 ], [ -111.746828801085996, 40.285719348737999 ], [ -111.746776747308004, 40.285503617137003 ], [ -111.746465062447996, 40.2847814735903 ], [ -111.746352338251995, 40.2844751992819 ], [ -111.747048541580995, 40.284343622429397 ], [ -111.747226305599, 40.284165402631899 ], [ -111.747924015402006, 40.283918067833199 ], [ -111.748134458333993, 40.283766728445002 ], [ -111.748177643942995, 40.283722546295301 ], [ -111.748357110268998, 40.283538946755598 ], [ -111.748419915981998, 40.2833622180733 ], [ -111.748416414348995, 40.283236911482803 ], [ -111.748247653245997, 40.283058588715399 ], [ -111.747917139696995, 40.282952556016198 ], [ -111.748105362800004, 40.282608434296598 ], [ -111.748372267541995, 40.282381307272999 ], [ -111.748503403607998, 40.282269710961003 ], [ -111.748786790639002, 40.282100188982298 ], [ -111.748823950349006, 40.282136622160699 ], [ -111.749121610711001, 40.282428477499302 ], [ -111.750965759463, 40.283025637300703 ], [ -111.751263205129007, 40.283136659464397 ], [ -111.751551292144995, 40.283193394400499 ], [ -111.751861609770003, 40.283216874385602 ], [ -111.752186622037001, 40.283192032735201 ], [ -111.752465470779001, 40.283131728134698 ], [ -111.752863365161005, 40.283045676510397 ], [ -111.753021265632, 40.282935381289597 ], [ -111.752933765232001, 40.282867260724402 ], [ -111.751804544292, 40.281988785460598 ], [ -111.751034037712998, 40.281392878147301 ], [ -111.751020232404002, 40.2813925971722 ], [ -111.751036738048995, 40.2813836594202 ], [ -111.750869173501997, 40.281243966630399 ], [ -111.750872153214004, 40.281230346156697 ], [ -111.749476473095996, 40.280068052205301 ], [ -111.755544288311995, 40.280109986843598 ], [ -111.756175288324002, 40.280080986909198 ], [ -111.758610100934007, 40.2799339975668 ], [ -111.758610131476999, 40.279934066098797 ], [ -111.761464204, 40.279981750651601 ], [ -111.771496258512997, 40.280149362479001 ], [ -111.772005040934005, 40.280157833692698 ], [ -111.772268958778, 40.280162226579598 ], [ -111.772269145628002, 40.280162230006198 ], [ -111.772287217935002, 40.2801625308607 ], [ -111.772621888887002, 40.2801681018084 ], [ -111.772776524880001, 40.280170675176201 ], [ -111.772800130809003, 40.280171067177903 ], [ -111.772754398475996, 40.290804661225998 ], [ -111.77275439668, 40.290804915438898 ], [ -111.772753691502004, 40.2909689832574 ], [ -111.772753536991999, 40.291004774412599 ], [ -111.772311985385002, 40.291007097266998 ], [ -111.759534264341994, 40.291073593910802 ], [ -111.759565613749004, 40.2927698583729 ], [ -111.759588777706995, 40.294023221523098 ], [ -111.759658203105005, 40.296079825714202 ], [ -111.759676969810002, 40.296635757934801 ], [ -111.759689556105002, 40.296979686968498 ], [ -111.759501850432002, 40.296980553679802 ], [ -111.756796528140001, 40.296993013766297 ], [ -111.755692176159997, 40.297000904605 ], [ -111.753916372134, 40.297009290119 ], [ -111.753434524797996, 40.2970115606959 ], [ -111.753033915708002, 40.297013448275699 ], [ -111.750679293906003, 40.2970320342531 ], [ -111.750032797057003, 40.297033419619801 ], [ -111.748209215233999, 40.2971295490591 ], [ -111.747292634505001, 40.297131494187802 ] ] ] } },
{ "type": "Feature", "properties": { "OBJECTID": 2237, "CountyID": 25, "VistaID": "25VI08", "PrecinctID": "25VI08", "SubPrecinctID": null, "VersionNbr": null, "EffectiveDate": 1766016000000, "AliasName": null, "Comments": null, "RcvdDate": 1765411200000, "GlobalID": "e91cafb9-5454-4c6c-ba43-bc279c61e971", "Shape__Area": 4081593.83984375, "Shape__Length": 9383.9472572387931 }, "geometry": { "type": "Polygon", "coordinates": [ [ [ -111.746821054912999, 40.297132491074798 ], [ -111.747292634505001, 40.297131494187802 ], [ -111.748209215233999, 40.2971295490591 ], [ -111.750032797057003, 40.297033419619801 ], [ -111.750679293906003, 40.2970320342531 ], [ -111.753033915708002, 40.297013448275699 ], [ -111.753434524797996, 40.2970115606959 ], [ -111.753916372134, 40.297009290119 ], [ -111.755692176159997, 40.297000904605 ], [ -111.756796528140001, 40.296993013766297 ], [ -111.759501850432002, 40.296980553679802 ], [ -111.759689556105002, 40.296979686968498 ], [ -111.759676969810002, 40.296635757934801 ], [ -111.759658203105005, 40.296079825714202 ], [ -111.759588777706995, 40.294023221523098 ], [ -111.759565613749004, 40.2927698583729 ], [ -111.759534264341994, 40.291073593910802 ], [ -111.772311985385002, 40.291007097266998 ], [ -111.772753536991999, 40.291004774412599 ], [ -111.772749315807999, 40.291986187716297 ], [ -111.772747918030007, 40.292311189991601 ], [ -111.772697957326997, 40.303923757843002 ], [ -111.772363249544, 40.303924490875197 ], [ -111.764229597533998, 40.3039420322648 ], [ -111.761326669235999, 40.303948154109399 ], [ -111.761170877110999, 40.303918795146302 ], [ -111.761021927453001, 40.303892458045702 ], [ -111.760871262014007, 40.3038726586283 ], [ -111.760719366781004, 40.303859462667198 ], [ -111.760566737624004, 40.303852912641098 ], [ -111.760399057195002, 40.303852530367799 ], [ -111.760231553734002, 40.303858435050998 ], [ -111.760064630583997, 40.303870615042499 ], [ -111.759967520906002, 40.303880624707197 ], [ -111.759626415320994, 40.3038794532251 ], [ -111.759541375406002, 40.3038723866526 ], [ -111.759456995752998, 40.303861638473201 ], [ -111.759373547652999, 40.303847242254001 ], [ -111.759263974747995, 40.303836783173502 ], [ -111.759153671513005, 40.3038328590482 ], [ -111.759043303599, 40.303835493172201 ], [ -111.758429199999, 40.303833276260598 ], [ -111.757220019117995, 40.303822272540998 ], [ -111.756426202154998, 40.303826624840497 ], [ -111.755733290254, 40.303833010450397 ], [ -111.755191807361001, 40.303837997816203 ], [ -111.754954078102003, 40.303864530185102 ], [ -111.754233459462995, 40.303975927793303 ], [ -111.753703829838997, 40.304083241484598 ], [ -111.753562485318994, 40.304120751397001 ], [ -111.753418590481999, 40.304152064790003 ], [ -111.753272608857998, 40.304177078911003 ], [ -111.753125008471002, 40.3041957149834 ], [ -111.752976264528002, 40.304207910670897 ], [ -111.752327994403998, 40.304221503221598 ], [ -111.751997115240997, 40.304228438908503 ], [ -111.751075750084993, 40.304247749079103 ], [ -111.748852001141998, 40.304272300055104 ], [ -111.748833772528002, 40.303555937038503 ], [ -111.746862159125996, 40.297274084506 ], [ -111.746821054912999, 40.297132491074798 ] ] ] } },
{ "type": "Feature", "properties": { "OBJECTID": 2238, "CountyID": 25, "VistaID": "25VI09", "PrecinctID": "25VI09", "SubPrecinctID": null, "VersionNbr": null, "EffectiveDate": 1766016000000, "AliasName": null, "Comments": null, "RcvdDate": 1765411200000, "GlobalID": "c8130749-2f1f-499b-86e1-82aa59c2b371", "Shape__Area": 220989.4296875, "Shape__Length": 2613.3273065769795 }, "geometry": { "type": "Polygon", "coordinates": [ [ [ -111.749476473095996, 40.280068052205301 ], [ -111.747885317775996, 40.278742945358601 ], [ -111.753796455127997, 40.278655566825996 ], [ -111.758000724270005, 40.2785932604313 ], [ -111.758186141036006, 40.2789640585002 ], [ -111.758610100934007, 40.2799339975668 ], [ -111.756175288324002, 40.280080986909198 ], [ -111.755544288311995, 40.280109986843598 ], [ -111.749476473095996, 40.280068052205301 ] ] ] } }
]
}
