{"type":"FeatureCollection","crs":{"type":"name","properties":{"name":"EPSG:4326"}},"features":[{"type":"Feature","geometry":{"type":"Polygon","coordinates":[[[-113.63160619905,37.0827265054371],[-113.627089558734,37.082695129272],[-113.627088982914,37.084518666178],[-113.627089057474,37.0845186668947],[-113.631626915997,37.084535054747],[-113.636206552468,37.0845560139652],[-113.636206448263,37.0882108813328],[-113.640777468993,37.0882334762332],[-113.640785789189,37.0919073463912],[-113.640783493993,37.0938918517198],[-113.64078160304,37.0955446318738],[-113.643277334901,37.0955501784856],[-113.645274269117,37.0955594223601],[-113.64976729452,37.095568441245],[-113.649725355773,37.0992171072455],[-113.64969138598,37.1021708883161],[-113.649643804914,37.1063028852163],[-113.64964123214,37.1065292241502],[-113.645209509568,37.1065190208947],[-113.6452075198,37.1082335289401],[-113.645201881075,37.1092191639874],[-113.645190231722,37.110161501478],[-113.646469481196,37.1101684396734],[-113.646486530321,37.1107258773587],[-113.646536927605,37.1136592986286],[-113.641992433228,37.1136476263779],[-113.642064544589,37.1172911315451],[-113.64108675625,37.1173102285878],[-113.640939860142,37.1173478367108],[-113.640636970686,37.1171093806083],[-113.640601771998,37.1171067416854],[-113.640466594412,37.1171804044184],[-113.640232688384,37.1173208852513],[-113.639957208324,37.1174632769563],[-113.639885105946,37.1174867835996],[-113.639814642993,37.1172887462052],[-113.639783185789,37.1166908931356],[-113.639745302036,37.1160766048911],[-113.639732127344,37.1160601364681],[-113.639670477763,37.1159828379835],[-113.639113400116,37.1152034877162],[-113.638695119367,37.1146391222837],[-113.638157603434,37.1139137602664],[-113.638065922274,37.1139533787215],[-113.63787341241,37.1137109282942],[-113.637389258201,37.1139487081203],[-113.63738354851,37.1137129992682],[-113.635475745137,37.113721027426],[-113.635726862886,37.113934063778],[-113.635951155145,37.1140419889969],[-113.63641323595,37.1141731925027],[-113.636478033228,37.114227891366],[-113.636615292211,37.1143438815079],[-113.637103051359,37.1153382766239],[-113.637251192532,37.1157710502329],[-113.637252639718,37.1162536821176],[-113.637205131416,37.1165740197786],[-113.637266120736,37.116723068968],[-113.637325141846,37.1169063107817],[-113.637463947727,37.1170602073739],[-113.637473088085,37.1173171038085],[-113.637428693344,37.1172506831904],[-113.637355943281,37.1171420920699],[-113.63725849853,37.1169703377561],[-113.636585669366,37.1169763892383],[-113.636242672827,37.1169795174131],[-113.635899790375,37.1169826377083],[-113.635556907923,37.1169857615849],[-113.635213909588,37.1169887959213],[-113.634819616551,37.1169924298183],[-113.634648058993,37.1169939018582],[-113.634246457264,37.1169976009402],[-113.63390357032,37.1170006295455],[-113.633560688766,37.1170037476908],[-113.633217692228,37.1170068622544],[-113.632873683288,37.1170100040381],[-113.632593275969,37.1170235360556],[-113.632523517295,37.1170269772606],[-113.632496514836,37.1170272150791],[-113.632437001449,37.1170275481683],[-113.632251722125,37.1170292308058],[-113.632172872501,37.1170301720512],[-113.631822226808,37.1170333646927],[-113.631641315991,37.1170345007773],[-113.63147146613,37.1170364677939],[-113.631120820437,37.1170396633004],[-113.631030931416,37.1170403065564],[-113.630770058861,37.1170427642525],[-113.630420537859,37.1170460192133],[-113.63041751952,37.116799435477],[-113.630417243737,37.1167785360365],[-113.630414134668,37.116552232749],[-113.63041349866,37.1165110626596],[-113.630049122218,37.1165141048946],[-113.629947874001,37.1165149995853],[-113.62984471327,37.1165157610395],[-113.62984348707,37.1164802799911],[-113.62983892812,37.1164136953165],[-113.629838434945,37.1164092003671],[-113.62983794177,37.1164047054174],[-113.629837339898,37.1164002119002],[-113.629835547759,37.1163874584186],[-113.629823793304,37.1163275190318],[-113.629807117877,37.1162684112542],[-113.629785420868,37.1162104094418],[-113.629783701493,37.116206212473],[-113.62978186354,37.1162020190857],[-113.629780030977,37.1161978242654],[-113.629778198413,37.1161936258633],[-113.629776367647,37.1161895220163],[-113.629774421896,37.1161853293444],[-113.629772724978,37.1161817634598],[-113.629770780126,37.1161775715038],[-113.629768594525,37.1161729339909],[-113.629766537383,37.1161688337245],[-113.629764482037,37.1161647341741],[-113.629762183249,37.1161600995258],[-113.629760371347,37.1161564448153],[-113.6297583169,37.1161524362381],[-113.629756152858,37.1161483374032],[-113.629753632185,37.1161437980256],[-113.629751466347,37.1161396991903],[-113.629749538563,37.1161361376016],[-113.629742819164,37.1161240302045],[-113.629733020341,37.1161074872935],[-113.629730985657,37.1161040173935],[-113.62969749287,37.1160531243143],[-113.629694770076,37.1160493084243],[-113.629689215793,37.1160415935496],[-113.629683557305,37.116034060622],[-113.62968096297,37.1160307834114],[-113.629671890884,37.1160189983461],[-113.629659898375,37.1160040363535],[-113.629649445579,37.1159914690511],[-113.62964699228,37.1159888193442],[-113.629644525506,37.1159858107557],[-113.629640891821,37.115981658187],[-113.629637614766,37.1159780342701],[-113.629634571274,37.1159744963127],[-113.629631297813,37.1159710572088],[-113.629628136642,37.1159675214],[-113.629625444391,37.1159644261346],[-113.629622523968,37.1159614261411],[-113.629578339432,37.1159169004349],[-113.62952970105,37.115873911234],[-113.6295246085,37.1158697887451],[-113.629522057285,37.1158676848788],[-113.629519276101,37.1158654026459],[-113.629515345971,37.1158623345969],[-113.629511527233,37.1158592643987],[-113.629507591714,37.1158562006475],[-113.629503772976,37.1158531304492],[-113.629499845541,37.1158501526575],[-113.629491872993,37.1158441125466],[-113.62944399728,37.1158102114126],[-113.629439850657,37.1158073288915],[-113.629436050783,37.1158048876309],[-113.629431680479,37.1158021039634],[-113.629418324327,37.1157934757397],[-113.629409586415,37.1157879943636],[-113.629406598618,37.1157862558247],[-113.629403721314,37.1157844298931],[-113.629399700455,37.1157819929298],[-113.629391080221,37.1157768675702],[-113.629387059362,37.1157744363373],[-113.629378909846,37.1157697508055],[-113.629374201776,37.1157670595436],[-113.629369726369,37.1157645452159],[-113.629360206024,37.1157592593966],[-113.629356185164,37.1157570079626],[-113.629352174187,37.1157549341792],[-113.629347706865,37.115752510109],[-113.629341967528,37.1157493933447],[-113.629337389714,37.1157470616813],[-113.629332802017,37.1157446404761],[-113.62932810832,37.1157422199872],[-113.629323524217,37.1157398890398],[-113.629318832316,37.115737559525],[-113.62931482044,37.115735485741],[-113.629310701665,37.1157335960546],[-113.629305433944,37.1157309191181],[-113.62930005573,37.1157283338722],[-113.62929559829,37.1157262679676],[-113.629290558741,37.1157238596557],[-113.629271577339,37.1157150000475],[-113.629167720414,37.1156664777711],[-113.629162234403,37.1156640766206],[-113.629157087056,37.1156616647252],[-113.629146680074,37.1156568523953],[-113.62914222443,37.1156548767468],[-113.629138791967,37.1156532420732],[-113.629130904759,37.1156496317509],[-113.629114432352,37.1156419755749],[-113.629093851949,37.1156324282764],[-113.629083895022,37.1156276933088],[-113.629072342687,37.1156222713765],[-113.629065594543,37.1156190894205],[-113.629060216329,37.1156165056033],[-113.629055526225,37.1156142663429],[-113.629049803059,37.1156115070238],[-113.629041787391,37.1156075406814],[-113.62903457392,37.1156039181793],[-113.629030909691,37.1156021065699],[-113.62900868627,37.1155907018115],[-113.62899538761,37.1155836996428],[-113.628991587737,37.1155810785751],[-113.628460614233,37.1155856502214],[-113.628251349891,37.1155867777317],[-113.628257526707,37.116045246833],[-113.628279430329,37.1174168725174],[-113.628280227134,37.1174593916548],[-113.628288306582,37.1179499874795],[-113.628293791695,37.118251754097],[-113.628298847414,37.1185311836445],[-113.628303812402,37.118804850212],[-113.628309107971,37.11910103272],[-113.628315361143,37.1194445083691],[-113.628317575491,37.119567107669],[-113.628707173931,37.1195672946224],[-113.628888736026,37.1195653398486],[-113.628913045336,37.1208564415609],[-113.628928278069,37.121618578082],[-113.629241036416,37.1222532680439],[-113.629337915228,37.1223861111879],[-113.629359680509,37.1224166278678],[-113.629399909762,37.1225450520644],[-113.629394589041,37.1225928414876],[-113.629387752862,37.1226522917172],[-113.629834501222,37.1231030096071],[-113.629910222014,37.1231458299627],[-113.630092707578,37.1232707654441],[-113.630280761797,37.123399521969],[-113.630903756023,37.1237804834827],[-113.630967534627,37.1238212756141],[-113.63102902454,37.1238642437797],[-113.631088109072,37.1239093064347],[-113.631144676098,37.1239563780591],[-113.631197982484,37.1240047624397],[-113.631248634594,37.1240549268388],[-113.631296539032,37.124106778757],[-113.631341607469,37.1241602225835],[-113.631370016412,37.1241986698532],[-113.631394694236,37.1242387212281],[-113.631415499371,37.1242801469413],[-113.631432312463,37.1243227093419],[-113.631445037061,37.1243661642585],[-113.631453600165,37.1244102624],[-113.631457952653,37.1244547507856],[-113.631458069554,37.1244993741963],[-113.631450339551,37.1246721714764],[-113.631394580223,37.1246726864591],[-113.631282241405,37.124927721323],[-113.63594887522,37.1262399192012],[-113.637638122078,37.1267121097675],[-113.63764282386,37.1270905814818],[-113.63764514331,37.1279190593883],[-113.63764541011,37.1283025865521],[-113.63765644232,37.1283254101426],[-113.63766057996,37.1292287359289],[-113.637679820077,37.1319864027222],[-113.63769045074,37.1341102030892],[-113.637691402056,37.1343060952697],[-113.63767585671,37.134315544248],[-113.637652242696,37.1343225575748],[-113.637587972812,37.1343574409466],[-113.637520843448,37.1343887146772],[-113.637451173049,37.1344162304155],[-113.637379292118,37.134439857637],[-113.637305541642,37.1344594842629],[-113.637230271476,37.134475017192],[-113.637153838687,37.1344863827419],[-113.637076605855,37.1344935269989],[-113.637040198035,37.1344953309946],[-113.637040614853,37.1345041490163],[-113.637035047095,37.1345058090644],[-113.637082270631,37.1356290445868],[-113.637151813709,37.1356284895747],[-113.637159638933,37.1375616653791],[-113.637442701673,37.1390839135986],[-113.637721943877,37.1390506580645],[-113.637715411328,37.1392611382293],[-113.63772677861,37.1394295815196],[-113.637725882091,37.1394945719423],[-113.637726956476,37.1397165959345],[-113.637728027268,37.1399386192751],[-113.637729091772,37.1399822128061],[-113.637729557099,37.1402320902753],[-113.63773074557,37.1403926514437],[-113.637731704971,37.1406275618387],[-113.637732531421,37.1408067879211],[-113.637733946268,37.141126127271],[-113.637734498731,37.1412554320196],[-113.63773505928,37.1414077137317],[-113.637736369024,37.1417046183997],[-113.637736540602,37.1417450758849],[-113.637738696559,37.1420177175818],[-113.637741022297,37.1422952233548],[-113.637743224068,37.1425756167724],[-113.637745257854,37.1428317699631],[-113.637738745966,37.1430170144446],[-113.640176385575,37.1429999231693],[-113.642113157819,37.1439646848143],[-113.643535402916,37.1441145357621],[-113.644790095145,37.1447150858585],[-113.645867104204,37.1450974538069],[-113.645872008107,37.1456353360204],[-113.6470372461,37.1456322792029],[-113.647050296824,37.1465584692244],[-113.647074845984,37.1484081781254],[-113.648245870026,37.1484083127378],[-113.648336501953,37.1539669696305],[-113.647311877252,37.1539670770262],[-113.647160196716,37.1539663216766],[-113.645366339247,37.1539552191115],[-113.645525497359,37.1541801948391],[-113.645524634078,37.1553825408407],[-113.644884269129,37.155386479324],[-113.644800484161,37.1553860075079],[-113.643759587377,37.1553914953233],[-113.643791005954,37.155724492215],[-113.643727898407,37.1562106344861],[-113.643137331566,37.1561286524527],[-113.643144844177,37.1561504739096],[-113.643147771786,37.1561730256295],[-113.643145972461,37.1561957763767],[-113.643139650118,37.1562179049568],[-113.643128784995,37.156238872976],[-113.643113804689,37.1562581313022],[-113.643095032594,37.1562751315195],[-113.643072905292,37.1562895027678],[-113.643048189046,37.1563006901882],[-113.643021548607,37.1563084933163],[-113.642993547222,37.1563126336489],[-113.642965193696,37.1563130832648],[-113.642937039597,37.1563097469429],[-113.64291011619,37.1563027786115],[-113.642884866344,37.1562922598879],[-113.642873552063,37.1562874644606],[-113.642861386179,37.1562840415077],[-113.642848713645,37.1562821599932],[-113.642835861448,37.1562817282758],[-113.642823066744,37.1562829146036],[-113.642733026806,37.1562934834449],[-113.64264209035,37.1562976767587],[-113.642551149402,37.1562952905005],[-113.642460774393,37.1562865802635],[-113.642434043225,37.1562820440094],[-113.642371643551,37.156271538886],[-113.642317308951,37.1562582279554],[-113.642284656987,37.1562502315158],[-113.642200274639,37.1562228228158],[-113.642117501174,37.1561961966394],[-113.642032128882,37.1561759309555],[-113.642009758137,37.1563870443309],[-113.641983076376,37.1566167910465],[-113.64241830564,37.1566544798682],[-113.642541641633,37.1566558766782],[-113.642658739725,37.1567337364451],[-113.642762413394,37.1571015257668],[-113.643112175145,37.157594495664],[-113.643065671159,37.157594360352],[-113.642435227205,37.1575928404182],[-113.642438560853,37.1612444357968],[-113.641044332413,37.1612521045409],[-113.640931845373,37.1614331359292],[-113.640894499711,37.1622200467137],[-113.640467500812,37.1626720358428],[-113.640132354651,37.1630262739171],[-113.63928458667,37.1639222678264],[-113.639061200812,37.1646927800467],[-113.63893030819,37.1651476271565],[-113.6385773682,37.1663568248351],[-113.638506964536,37.1665956676424],[-113.638202200296,37.1668723530567],[-113.637911423723,37.1671400750621],[-113.637518629077,37.1674986574063],[-113.63713914926,37.1678451310534],[-113.636318402602,37.1685943358976],[-113.633715870935,37.1685854695945],[-113.633613960659,37.168585484627],[-113.633625483349,37.1721987777152],[-113.6336371336,37.1758121607099],[-113.629098555527,37.1758125386334],[-113.629113939177,37.179425841129],[-113.629129439607,37.1830389614955],[-113.629225300627,37.1863187535508],[-113.629348915997,37.1863463767705],[-113.630074888596,37.1870976803888],[-113.630434148234,37.1874695371459],[-113.631728831662,37.1891320548153],[-113.631209859651,37.1901362142143],[-113.631219860595,37.1903722746373],[-113.63128622723,37.1919398011771],[-113.631496114105,37.1920900457873],[-113.631997555493,37.1924489133175],[-113.632507090702,37.1928136385005],[-113.632878012269,37.1930791604228],[-113.633249050618,37.1933446785488],[-113.633619977575,37.193610197888],[-113.634026371816,37.1939010611637],[-113.638208906219,37.1939027335041],[-113.6382154217,37.1975254073774],[-113.634464679606,37.1975298130707],[-113.634299707598,37.1975768302528],[-113.633687553342,37.1977513052663],[-113.633564293705,37.1977863968554],[-113.633354699682,37.19796282127],[-113.633023623787,37.1982416121632],[-113.632870860781,37.1983710811088],[-113.632877104073,37.1984567310167],[-113.632890485377,37.1986407222151],[-113.632876797747,37.1987136572602],[-113.632813211398,37.1990525568232],[-113.632800200199,37.199122322329],[-113.632416872898,37.1992689942562],[-113.632089315704,37.1993186328145],[-113.631531470896,37.1994032140608],[-113.631446721137,37.199473496578],[-113.631054283122,37.1997991560136],[-113.630311377281,37.2008546979404],[-113.630050320571,37.2010710972919],[-113.629674529236,37.2011983969255],[-113.629154732572,37.2013833244992],[-113.629142724792,37.2029393446051],[-113.629150216741,37.2047746517571],[-113.629149670565,37.208397034982],[-113.629171072927,37.2095977062499],[-113.628992296507,37.209205711312],[-113.628764400208,37.2087490174669],[-113.628248368383,37.2077647014078],[-113.628189583529,37.2076357021781],[-113.628026607577,37.207273450425],[-113.627938591544,37.2070779605219],[-113.627761841723,37.2066888895056],[-113.627568508104,37.2062633308128],[-113.627358464923,37.2058010155213],[-113.627138411814,37.2053164816041],[-113.626917772106,37.2048309693643],[-113.626700413943,37.204352413609],[-113.626485864812,37.2038800123972],[-113.626275346422,37.2034166235621],[-113.626045314827,37.2029102284676],[-113.625822489518,37.202419808077],[-113.625382687829,37.201451627472],[-113.625183287887,37.2010126811053],[-113.625172379645,37.2009969731746],[-113.625170123077,37.2009936889123],[-113.625160834497,37.2009856950601],[-113.62515253586,37.2009802914101],[-113.62514348174,37.2009758036328],[-113.625134347671,37.2009723147291],[-113.625124684493,37.2009698239838],[-113.625114824585,37.2009681489379],[-113.625107256278,37.2009675986985],[-113.625092066665,37.2009680230053],[-113.625087575089,37.2009685746757],[-113.625074380634,37.2009713895542],[-113.625014860958,37.2009865894671],[-113.624952567285,37.2009996835853],[-113.624943833864,37.2010012276894],[-113.624938908401,37.2010021492862],[-113.624927376728,37.2010042092841],[-113.62490138128,37.2010082999432],[-113.624894768781,37.2010092566007],[-113.624891185401,37.2010098776768],[-113.624885584406,37.2010107212812],[-113.624867639659,37.2010130131092],[-113.624861132264,37.2010138774638],[-113.624849915001,37.2010152061944],[-113.624823090408,37.2010180554165],[-113.624810400806,37.2010192381798],[-113.624771632213,37.2010221675405],[-113.624679813612,37.2010251963591],[-113.624326091189,37.2010256507176],[-113.624319908085,37.2010259648332],[-113.62431384805,37.201026638858],[-113.624303781529,37.2010287546662],[-113.624300232285,37.2010075686762],[-113.624280339093,37.2008886046059],[-113.624278412207,37.200377693289],[-113.624280922998,37.2003266336651],[-113.624288623357,37.2002758180033],[-113.624301844761,37.2002249672462],[-113.624319661048,37.2001766337011],[-113.624357161219,37.2000884785128],[-113.62417547875,37.2000892627383],[-113.624122211349,37.2000897199646],[-113.623689414723,37.2000903024094],[-113.623610895679,37.2000903324619],[-113.623100599597,37.200091006495],[-113.622916753984,37.2000912927087],[-113.622590186734,37.2000916812437],[-113.622080000246,37.2000923452594],[-113.621569249617,37.2000929348595],[-113.621392612984,37.2000931530974],[-113.620916902041,37.2000937713189],[-113.620719424493,37.2000939959965],[-113.620442087616,37.200094371652],[-113.6199671618,37.2000950585647],[-113.619492346476,37.2000956546046],[-113.619011330083,37.2000961139775],[-113.618844612648,37.2000963751474],[-113.617905910905,37.2000976724107],[-113.617301655536,37.200098235536],[-113.616020163867,37.2000998869887],[-113.616005155714,37.2001709595216],[-113.616005506057,37.2008596193342],[-113.616005671347,37.2012787401702],[-113.616005682127,37.2013867926337],[-113.616005811484,37.2016611897571],[-113.616006058521,37.2020435451048],[-113.616006243574,37.202417520585],[-113.616006367541,37.2028288094042],[-113.616006463661,37.2030795087453],[-113.616006489712,37.2032400945514],[-113.616006725071,37.2036513774572],[-113.616007069125,37.2040626588374],[-113.616007646742,37.2045686448089],[-113.616007592843,37.2055521690183],[-113.615907012074,37.2055528608897],[-113.615220337176,37.205552889509],[-113.614504373606,37.2055530283126],[-113.614332675911,37.2055530354674],[-113.613947825067,37.2055530605093],[-113.613789870697,37.2055530361829],[-113.613789849138,37.2048146268736],[-113.613440113438,37.2048135171496],[-113.612950769662,37.2048117942512],[-113.612107403425,37.2048089580512],[-113.611670788061,37.2048075056077],[-113.611180315103,37.2048057991654],[-113.610685329008,37.2046698274294],[-113.610181812511,37.204531517936],[-113.609689319242,37.2044677611287],[-113.609147258731,37.2043976149125],[-113.608605421003,37.2043274621917],[-113.608165098292,37.2042703879311],[-113.608060728429,37.2044882421029],[-113.607883622876,37.2048580134203],[-113.607674684622,37.2047939513748],[-113.607613192246,37.2049221863122],[-113.60659218506,37.2046091709628],[-113.606517733588,37.2048060910851],[-113.601982614029,37.2048044819493],[-113.597834321607,37.2049656980074],[-113.597442392039,37.183051634319],[-113.601968870703,37.1830527314804],[-113.606495237078,37.1830538372302],[-113.606533471173,37.182419927943],[-113.606519499676,37.1800089970576],[-113.606474803999,37.1794297225326],[-113.606454502073,37.1758056057409],[-113.606434095943,37.1721815770765],[-113.606413705983,37.1685574576249],[-113.605684520111,37.1685559329008],[-113.605674310757,37.1650696436204],[-113.605663524686,37.1614186339329],[-113.605652567934,37.1577687988623],[-113.605641505182,37.1541190510526],[-113.605633951248,37.1504561616525],[-113.605626289517,37.146793267386],[-113.601020998958,37.1468369937301],[-113.601010992624,37.1431973075432],[-113.601000994375,37.139557529996],[-113.596385612142,37.1396095795393],[-113.591816094294,37.139630345925],[-113.587246674363,37.1396510270884],[-113.582242500376,37.1396675777438],[-113.577695267934,37.1396824462618],[-113.573148031898,37.1396972324246],[-113.568600790473,37.1397121080978],[-113.563968689694,37.1397309037319],[-113.55933658622,37.1397497874424],[-113.554704471967,37.1397686732965],[-113.550072362205,37.1399017341842],[-113.550075364374,37.1361369062316],[-113.550078392595,37.1324863471584],[-113.550081424409,37.1288357881483],[-113.549424798157,37.1288454139971],[-113.549253342109,37.1288475697859],[-113.548270662443,37.1288539318695],[-113.547419096385,37.1288601714808],[-113.547175503823,37.1288624354168],[-113.546695724409,37.1288664404562],[-113.546421395989,37.1288684630297],[-113.54614695528,37.1288704863193],[-113.545872621471,37.1288723262594],[-113.545609849877,37.1288732874114],[-113.545539906151,37.1288751502702],[-113.544975823441,37.1288790679314],[-113.5448373158,37.1288801501226],[-113.54113814419,37.1289105266724],[-113.53970819065,37.1289169489121],[-113.536543807688,37.128935987874],[-113.53646623457,37.1275365831263],[-113.53645243465,37.1260481252096],[-113.536433054396,37.1252991197547],[-113.534158772524,37.1258293765716],[-113.533888636541,37.1258926518292],[-113.533164325826,37.1260624205508],[-113.53300385258,37.1255938121436],[-113.532937043974,37.125608491475],[-113.532817674941,37.1253161749192],[-113.532912496611,37.1253145082233],[-113.532846541404,37.1251591114065],[-113.53276264774,37.1251813643826],[-113.53251676627,37.1252463691925],[-113.531748271918,37.1255997440406],[-113.53115656242,37.1258985113629],[-113.530711863117,37.1262049541015],[-113.53045529439,37.1263817462126],[-113.530110866835,37.1266171935915],[-113.529904541781,37.1267583079646],[-113.52948652873,37.1270451584441],[-113.529295372627,37.1271754068907],[-113.529104242576,37.1273065525411],[-113.528706973421,37.1275912465505],[-113.528366284655,37.1278886086702],[-113.52752043278,37.1286752755075],[-113.527420727868,37.1267780665629],[-113.527407916994,37.1263052189063],[-113.527401102374,37.1261139536614],[-113.527387113808,37.1253484258723],[-113.52673961983,37.1253511533219],[-113.526227164198,37.12535333786],[-113.526015158197,37.125354255366],[-113.525658095838,37.1246344309047],[-113.523773902886,37.1250583995791],[-113.52324357078,37.1253660053147],[-113.523479090183,37.1253649524391],[-113.522673040862,37.1258325301652],[-113.521658921059,37.1253723454874],[-113.519329877887,37.1253815226931],[-113.518346028615,37.1253854047232],[-113.514996904419,37.1253988714981],[-113.514859824202,37.1253989875292],[-113.5145267262,37.1254000203495],[-113.514532025362,37.1248698278518],[-113.513809238189,37.1245358678446],[-113.513809658601,37.1243205650208],[-113.513808204228,37.121725810452],[-113.513807148708,37.1214183446394],[-113.513803674923,37.1204290061517],[-113.513801227013,37.1197087380252],[-113.513796622249,37.1189913132123],[-113.513798414388,37.1188823227422],[-113.513796530621,37.1183491262394],[-113.513795639492,37.118063648923],[-113.513772400076,37.1171094243038],[-113.513758045896,37.1165259421746],[-113.513735067889,37.1155863987908],[-113.513718039425,37.1148605852408],[-113.513712684567,37.1146409897908],[-113.513691816703,37.1138194555661],[-113.513682002609,37.1133152687795],[-113.513654188971,37.1122497535381],[-113.513874128892,37.1121769614082],[-113.515016744611,37.1118038631243],[-113.516017528923,37.1114770242534],[-113.517009727137,37.1111530616557],[-113.518257286743,37.1107456236649],[-113.518466896038,37.1106770065896],[-113.518752295295,37.1105831627901],[-113.518901115595,37.1105342195743],[-113.518983487513,37.1105071453372],[-113.519249290921,37.1104197573735],[-113.519332217998,37.1103924875227],[-113.519415255568,37.1103651288306],[-113.519498290443,37.1103378611093],[-113.519508312048,37.1103345843686],[-113.519584221486,37.1103096276922],[-113.519607265968,37.1103020175412],[-113.519646318429,37.1102513512382],[-113.519700472467,37.1101810824463],[-113.519754630997,37.110110809291],[-113.519808789528,37.1100405353541],[-113.519862944465,37.1099702620684],[-113.519916988909,37.1098999937322],[-113.519971142049,37.109829720316],[-113.520025300579,37.1097594468346],[-113.520079458211,37.1096891732881],[-113.520133614046,37.1096189892252],[-113.520187772576,37.1095487198466],[-113.520241924818,37.1094784461045],[-113.52029608245,37.1094081722972],[-113.520350240082,37.1093378984246],[-113.520404280035,37.1092676309345],[-113.520458437666,37.1091973569315],[-113.520512589908,37.1091270828634],[-113.520566746642,37.1090568094465],[-113.520671173099,37.1089213015568],[-113.52081886242,37.1087297230242],[-113.520973625973,37.1085277196542],[-113.520949191798,37.1084694833802],[-113.520649821941,37.1076565815609],[-113.520656597933,37.1073111030784],[-113.520968201946,37.1068069281235],[-113.521219872159,37.1065786177164],[-113.521405304197,37.1063955164035],[-113.52160894239,37.1062525830462],[-113.52194906971,37.1062115484924],[-113.522322565848,37.1064132163071],[-113.522532282043,37.106602685113],[-113.522760384955,37.1067494090937],[-113.523501309113,37.1070271516626],[-113.525914809194,37.1049412079494],[-113.52666652661,37.103996961379],[-113.527177356291,37.1025047872055],[-113.527983563716,37.1009637768158],[-113.528123708087,37.0998527774128],[-113.528166149891,37.0995287937525],[-113.528546680737,37.0989885267721],[-113.528745217398,37.0987065431757],[-113.528964594075,37.0983950968948],[-113.529199324757,37.0980616054928],[-113.52942380117,37.097754738598],[-113.528967878316,37.0977597799134],[-113.526742505218,37.0977651637169],[-113.526376006057,37.097766400401],[-113.52603313169,37.0977675804814],[-113.525690257322,37.0977687598452],[-113.525347382056,37.0977698517957],[-113.525004620877,37.097771026144],[-113.524661747407,37.0977722033583],[-113.524318879328,37.0977733777065],[-113.52397600496,37.0977745520547],[-113.523633131491,37.0977757249699],[-113.523290258022,37.0977769014676],[-113.522947380959,37.0977779819539],[-113.522614362009,37.0977880466688],[-113.522614403331,37.0977791204769],[-113.522614127549,37.09769270517],[-113.52261871255,37.0976512432417],[-113.52261802983,37.0976069174224],[-113.522648550092,37.0975196636079],[-113.522678668807,37.0974339530471],[-113.522679887821,37.0974299585254],[-113.522698570982,37.0973657588317],[-113.522699765741,37.0973610442171],[-113.522700441274,37.0973576995634],[-113.522701205741,37.097353627655],[-113.522711976541,37.0972882406437],[-113.522712310714,37.0972848107223],[-113.522712716753,37.097280024452],[-113.522715812347,37.0972140820833],[-113.522715900382,37.0972099356504],[-113.522715433258,37.0971856116254],[-113.522718248578,37.0971721262187],[-113.52271121477,37.0967770115491],[-113.522699867251,37.0959602375641],[-113.522626694081,37.0959587321555],[-113.518090875633,37.0959829175694],[-113.517977318699,37.0959835660199],[-113.517920491275,37.0959838683912],[-113.517791985477,37.0913024318565],[-113.517848805715,37.0913018041463],[-113.517858706946,37.090628746841],[-113.517873622573,37.0888228946966],[-113.517949392772,37.0888044346831],[-113.517836391896,37.0825286007501],[-113.517818000687,37.0815073102143],[-113.517800908442,37.0800186355392],[-113.517776006244,37.077726172496],[-113.517677493397,37.0777266433629],[-113.513320060601,37.0777590077526],[-113.513195745444,37.0777546129965],[-113.513163403399,37.0742380361968],[-113.51090159104,37.0742399183177],[-113.510895706177,37.074180831454],[-113.510870888421,37.0732410538561],[-113.510868228509,37.0727104847445],[-113.510838001996,37.0722987416738],[-113.5108322411,37.0715445629663],[-113.510852779283,37.0706057174565],[-113.510869630779,37.0693607213835],[-113.510865868635,37.0688239579786],[-113.510864683757,37.0687470234429],[-113.507034319488,37.0687594215388],[-113.506392444471,37.0687611891113],[-113.506172642891,37.0687620384922],[-113.506172730027,37.0687923567264],[-113.506173479222,37.0690085563924],[-113.506174929847,37.0690659623615],[-113.506178884485,37.069123293184],[-113.506185338341,37.0691804793432],[-113.506194283591,37.0692374514976],[-113.506205709386,37.0692941405658],[-113.506219601873,37.0693504778093],[-113.506235944206,37.0694063949169],[-113.506254716568,37.0694618240865],[-113.506273051739,37.0695155178069],[-113.506289313971,37.0695696350043],[-113.506303487959,37.0696241247398],[-113.506315560361,37.069678935724],[-113.506056377537,37.0696824643752],[-113.504280463916,37.0696854783865],[-113.504092569596,37.0696899008476],[-113.504054518757,37.0669742296838],[-113.504035528372,37.0632581908381],[-113.50401655236,37.0595422373411],[-113.504011467895,37.0567476460335],[-113.503937484445,37.0568879894426],[-113.493208123473,37.053248780377],[-113.493736437064,37.0522483289258],[-113.496964954348,37.0461427060793],[-113.497575729689,37.0449889256427],[-113.494929938751,37.0449872198954],[-113.490408483466,37.0449909834377],[-113.490405081546,37.0413647113979],[-113.490401702982,37.0377389767596],[-113.490397494375,37.0341046078642],[-113.490393310022,37.0304707785785],[-113.494911350811,37.030464668555],[-113.496502763049,37.0304331588981],[-113.496469988914,37.0316290257617],[-113.499180592402,37.0316126637689],[-113.499992596655,37.0302274350403],[-113.500834680996,37.0286668244382],[-113.501704043578,37.0269590081717],[-113.502642269214,37.0269563324028],[-113.50280943401,37.0269400088478],[-113.50302538631,37.0268691227963],[-113.503392421765,37.0268091061601],[-113.503947013774,37.0268300203693],[-113.503975497555,37.0265678938115],[-113.503942749471,37.0231990848068],[-113.499421965227,37.0232073907868],[-113.494901286985,37.023215701069],[-113.490383946882,37.0232197124097],[-113.485866489998,37.0232238270281],[-113.481348339615,37.0232274238227],[-113.476830185638,37.0232310270718],[-113.476829704141,37.0214515146901],[-113.476829142694,37.019600359876],[-113.476828669282,37.01782093388],[-113.476828226412,37.0159697774015],[-113.476827757492,37.0141903510242],[-113.476827205926,37.0123391936143],[-113.476826742396,37.0105597683057],[-113.476818616235,37.0105551630673],[-113.476826223169,37.0097511243319],[-113.478972133991,37.0097303574963],[-113.478948773302,37.0087071645313],[-113.481334733731,37.0087052212456],[-113.485843930606,37.0087015570506],[-113.485829083251,37.0064047506589],[-113.484479052821,37.0057112238253],[-113.483666227508,37.0052971796278],[-113.483661228383,36.9999791583949],[-113.484478553358,36.9999893774198],[-113.4858708082,36.9999901106298],[-113.487739489043,37.0000010427752],[-113.488710758308,37.0000018491626],[-113.490377563453,37.0000034576326],[-113.493233418234,37.0000067334018],[-113.494899739188,36.9999969950549],[-113.494910959145,37.0000084064402],[-113.497755973956,37.0000084688562],[-113.499407032532,37.0000097401359],[-113.502272180385,37.0000121535582],[-113.503924592723,37.0000134234028],[-113.506175560619,37.0000152743628],[-113.506787579229,37.0000152270127],[-113.508441186326,37.0000154192829],[-113.511303788353,37.0000157715393],[-113.512958741126,37.0000158726964],[-113.515820496042,37.0000144220603],[-113.517479969137,37.0000153547146],[-113.520328936535,37.000018209354],[-113.521996049802,37.0000190968103],[-113.524231720288,37.0000208387213],[-113.524838237615,37.0000207268028],[-113.526512850018,37.0000209413133],[-113.529346934128,37.0000223639696],[-113.531028966615,37.0000226272651],[-113.533861458012,37.000020102642],[-113.535555573739,37.0000189612167],[-113.538360204786,37.0000165621431],[-113.540080179416,37.0000159738535],[-113.542356888536,37.0000153238652],[-113.542882959035,37.0000154931779],[-113.544598268714,37.0000165607083],[-113.545145465791,37.0000171231705],[-113.547400034135,37.0000194167824],[-113.549112309304,37.0000204821605],[-113.551924154721,37.0000191427256],[-113.553640079746,37.0000185329132],[-113.556451250528,37.0000171906086],[-113.558165659197,37.0000183506869],[-113.56042335278,37.0000204649422],[-113.560965822024,37.0000205589251],[-113.562685846061,37.0000218043771],[-113.563070353749,37.0000222391375],[-113.565479300269,37.0000250449916],[-113.567204945964,37.0000262796821],[-113.570001549665,37.0000230405026],[-113.571127690282,37.0000221566334],[-113.571730361921,37.000021708242],[-113.57452774536,37.0000183420778],[-113.576253593175,37.0000189906312],[-113.578534951078,37.0000201600361],[-113.579050116029,37.0000202231696],[-113.58077135369,37.0000209083117],[-113.583572160609,37.0000225705884],[-113.585057617457,37.0000234745455],[-113.585825661754,37.0000239344157],[-113.586264597466,37.0000241847975],[-113.588097738263,37.0000232248811],[-113.588860066579,37.0000226294173],[-113.590796729229,37.0000211723245],[-113.592630602152,37.0000202131256],[-113.59290611006,37.0000204097004],[-113.595320283877,37.0000219528843],[-113.596653872442,37.0000223273809],[-113.597151281293,37.0000224328425],[-113.59983983653,37.0000241833626],[-113.601671854433,37.0000249287685],[-113.604359284081,37.0000266936371],[-113.606193803791,37.0000251518881],[-113.608878695699,37.0000217362216],[-113.61071950182,37.0000200746623],[-113.613395389913,37.0000197267106],[-113.614719070959,37.0000196628596],[-113.615235353414,37.0000196334452],[-113.6152523172,37.0000196226838],[-113.617911924227,37.0000195315706],[-113.619751879643,37.0000194612628],[-113.619768848819,37.0000194454795],[-113.621238812424,37.0000194117604],[-113.622094299629,37.0000193393004],[-113.622428676832,37.0000194289786],[-113.622428855597,37.0014205790501],[-113.622431651154,37.0050424524361],[-113.622434349693,37.0086643211298],[-113.622440384575,37.0122881942879],[-113.622446208353,37.015912063219],[-113.62244645,37.015984511679],[-113.622453046329,37.0195358203065],[-113.623780600012,37.0195341268979],[-113.624292311839,37.0222513902723],[-113.624438617755,37.0223584534035],[-113.625569286778,37.0231522360794],[-113.62699138006,37.0231492202198],[-113.631522999783,37.0231398585032],[-113.636049920418,37.0231312347927],[-113.639499255277,37.0231264251945],[-113.640575980468,37.0231270584894],[-113.640576356862,37.0232450126115],[-113.640577521977,37.0235350742751],[-113.640592169906,37.0267518505964],[-113.640608866892,37.0303778014666],[-113.640620194648,37.0340140539976],[-113.640631643676,37.0376502098657],[-113.640640886442,37.0412774000253],[-113.640650243294,37.0449045022226],[-113.640662179209,37.0485244198867],[-113.640674125904,37.0521443398457],[-113.64068489401,37.0557656320644],[-113.64069555791,37.0593868367768],[-113.640680029632,37.063014481432],[-113.640664514829,37.0666421225023],[-113.640625711202,37.0666419074631],[-113.640667408303,37.0666640450244],[-113.649721511882,37.0666385406666],[-113.649709292099,37.0775189585132],[-113.640768041174,37.0775215120953],[-113.640782389066,37.0809357170169],[-113.640777441145,37.082763305874],[-113.63160619905,37.0827265054371]],[[-113.605952905277,37.0902097533246],[-113.606141527232,37.0899266944373],[-113.606330148288,37.08964363091],[-113.605898256266,37.0890777321405],[-113.605364649801,37.0883368017218],[-113.605895935918,37.0881465097281],[-113.606541349398,37.0879154049696],[-113.606707757813,37.0881464079717],[-113.607024410358,37.0885861545891],[-113.607026431567,37.0885892660218],[-113.607099222953,37.0884780827432],[-113.607614578346,37.0891947109877],[-113.60772017441,37.089341440021],[-113.607960048845,37.0895297354866],[-113.60856939856,37.0899560067341],[-113.608837639097,37.0895282621963],[-113.608981446798,37.0895688937532],[-113.609481317931,37.0895974487631],[-113.609856612497,37.0895589067705],[-113.610075475338,37.0895543572003],[-113.609739658135,37.0893041977797],[-113.609234777996,37.0893886692504],[-113.608533182979,37.089250914084],[-113.608330064012,37.0890912820473],[-113.608048987448,37.088652649074],[-113.60732048699,37.0869947489466],[-113.606394609597,37.0862329877546],[-113.606215724481,37.0861696019623],[-113.605827352241,37.0859244598569],[-113.605059377115,37.0854010002238],[-113.604950971121,37.085529817554],[-113.604933250055,37.0847232962239],[-113.604333044292,37.0848548135158],[-113.604297705467,37.0848114297399],[-113.6039465657,37.084283309339],[-113.603824778402,37.0841001627411],[-113.603794283293,37.0839946722613],[-113.603468226286,37.0839100070208],[-113.602944238083,37.0837739044906],[-113.602193170148,37.0835032810336],[-113.601976084175,37.0833850349843],[-113.601170077973,37.0831589622944],[-113.601148620814,37.0831531223861],[-113.6005987773,37.0830039684374],[-113.599938516464,37.0819012689894],[-113.600706161011,37.0809760435821],[-113.600207516976,37.0809685071672],[-113.59951676732,37.0809874471025],[-113.599399768941,37.0812469390753],[-113.598594781428,37.0809970303008],[-113.59830443425,37.080966087717],[-113.597792636185,37.0809753219038],[-113.597378296345,37.0809891821402],[-113.596797694516,37.0809598183593],[-113.596563970845,37.0809763825631],[-113.596572368296,37.081268541329],[-113.596574123604,37.0813299611258],[-113.596587767217,37.0814034716054],[-113.596595765816,37.0814400634206],[-113.596624345717,37.0815490181889],[-113.596635583641,37.0815850903582],[-113.596647497099,37.0816209682968],[-113.596660184904,37.0816566434049],[-113.596673658735,37.0816922181645],[-113.596702945609,37.0817626782124],[-113.596735241841,37.0818322638773],[-113.596762223638,37.0818846591218],[-113.596789360845,37.0819348921892],[-113.596808846202,37.0819686200052],[-113.596829102313,37.0820019708473],[-113.59685014445,37.0820351217289],[-113.596894219391,37.0821004824857],[-113.596928798242,37.0821481182681],[-113.596959606862,37.0821906084722],[-113.596981374838,37.0822219468637],[-113.597002475366,37.0822536543167],[-113.597022801546,37.0822856534328],[-113.597130100815,37.0824830893498],[-113.597199361822,37.0826536992699],[-113.597821301426,37.0845653394431],[-113.597834557864,37.0845977618268],[-113.59784837036,37.0846299921405],[-113.597862959,37.0846620225017],[-113.597878333667,37.0846938586436],[-113.597894256305,37.0847254081215],[-113.597910968562,37.0847568536756],[-113.597928341082,37.0847880147162],[-113.598004385267,37.0849099900409],[-113.598025089638,37.0849398137977],[-113.598046341083,37.0849693602094],[-113.598068374061,37.0849985253657],[-113.598100005539,37.0850387429928],[-113.598129136107,37.0850748722647],[-113.599075411546,37.0862454804508],[-113.599342436663,37.0866532644865],[-113.599672137237,37.0872425175216],[-113.600073280825,37.0880328807779],[-113.600175796565,37.0881919432023],[-113.600206996852,37.0882359549286],[-113.60023908647,37.0882795875519],[-113.600272171422,37.0883227493489],[-113.600306249012,37.0883653485968],[-113.600341215037,37.0884075658774],[-113.60037705602,37.0884492270599],[-113.60041378903,37.0884904159863],[-113.600451396101,37.0885310438],[-113.600490003895,37.088571201509],[-113.600529382444,37.0886108009735],[-113.600569634155,37.088649835745],[-113.600610768911,37.0886882255665],[-113.600652671725,37.0887261474363],[-113.600695457584,37.0887634193418],[-113.600739008807,37.0888001322904],[-113.600783324497,37.0888361981429],[-113.600828408246,37.0888716154669],[-113.600874364259,37.0889063828302],[-113.600920976043,37.0889405073996],[-113.600968358581,37.0889740737329],[-113.60101650289,37.0890068976686],[-113.601065294885,37.089038992106],[-113.601114746243,37.0890705268769],[-113.601164949491,37.0891012375619],[-113.601215813899,37.089131304025],[-113.601297364757,37.0891772729138],[-113.602709809234,37.0899505621833],[-113.603337573515,37.0901596346603],[-113.604524454617,37.0905271858096],[-113.604832293791,37.0906276633864],[-113.605216668528,37.0906732816815],[-113.60559455114,37.0907199461407],[-113.60572950235,37.0905448571752],[-113.605952905277,37.0902097533246]]]},"properties":{"NAME":"St. George","COUNTYNBR":"27","FIPS":"65330","POPLASTCENSUS":95342}}]}