{"type":"FeatureCollection","crs":{"type":"name","properties":{"name":"EPSG:4326"}},"features":[{"type":"Feature","geometry":{"type":"Polygon","coordinates":[[[-111.830449100044,40.4244044990268],[-111.830449046145,40.4244001750213],[-111.830435848995,40.4220231567506],[-111.83043521748,40.4218859570744],[-111.830428922086,40.4207796942767],[-111.830307957645,40.4198858799611],[-111.829799334226,40.4201165601969],[-111.828408835591,40.4207469796922],[-111.828271469709,40.4207919297569],[-111.825859497663,40.4207925185863],[-111.825850538765,40.4207924905468],[-111.825790186351,40.4183731069149],[-111.825760516793,40.4171800754195],[-111.825737740009,40.416223481959],[-111.825754688524,40.4162260289388],[-111.825745895814,40.4158436990907],[-111.825726439203,40.415843959672],[-111.825723200777,40.4154005794354],[-111.825836686743,40.4154006786075],[-111.825836765795,40.4154150653886],[-111.826406174616,40.4154109959167],[-111.826410509885,40.4163134913773],[-111.826966581419,40.4163157798261],[-111.826966507757,40.416309472571],[-111.826966566148,40.4163046097876],[-111.826962677341,40.4163046371451],[-111.826962552475,40.4162944588118],[-111.82694985928,40.4154021155758],[-111.82805817822,40.4153941838656],[-111.828057014003,40.4153279765846],[-111.828018326259,40.4136141085257],[-111.826953531593,40.4136420908199],[-111.825673914708,40.4135959226273],[-111.825668607462,40.4135957769431],[-111.825637594923,40.4135946490875],[-111.822644164055,40.4135903120759],[-111.822060051609,40.4135726630825],[-111.822032359244,40.4098732220404],[-111.825574623022,40.4098789710699],[-111.82557992937,40.40987902237],[-111.825533574505,40.4080434071852],[-111.825621018311,40.4080431431536],[-111.82673517091,40.4080400493322],[-111.826724354296,40.406225304619],[-111.826725751176,40.4051041005173],[-111.826694325413,40.4051042578487],[-111.826680311694,40.4044330472188],[-111.827924028307,40.4044295564787],[-111.827909436972,40.4031615500678],[-111.827892534271,40.4011662625199],[-111.827884073938,40.4001679412007],[-111.82786851871,40.4001680547612],[-111.827866359161,40.3997221248864],[-111.827496253263,40.3997243229135],[-111.82749615355,40.3996969368445],[-111.827465310794,40.3989776934947],[-111.82666535205,40.3989815238371],[-111.826674278609,40.4008478597643],[-111.82669125048,40.4008478282961],[-111.826702743525,40.4023460386648],[-111.826710479816,40.4034793193798],[-111.825609077905,40.4034398918479],[-111.825601587752,40.4024313861919],[-111.825587211114,40.4024310345764],[-111.825161688147,40.4024324526676],[-111.824959781905,40.4023228101197],[-111.824529086439,40.4023247139084],[-111.824311592631,40.4021932004921],[-111.823580002867,40.4021533706521],[-111.822918210404,40.4018738476146],[-111.821590650432,40.4018209440768],[-111.821589772778,40.401816446231],[-111.821187235903,40.4018175031393],[-111.821186920594,40.4017434531625],[-111.820828155029,40.401409062601],[-111.820729521808,40.4014093122928],[-111.82072614504,40.4012668119938],[-111.820725935733,40.4010363633473],[-111.820720875523,40.4010370317042],[-111.820717054988,40.4007126411447],[-111.821574529266,40.4007179955503],[-111.821556289873,40.3993336174988],[-111.820796253159,40.3993356794011],[-111.820810508524,40.4004996364304],[-111.820711995676,40.4004998861256],[-111.818306129479,40.4001471171997],[-111.818383098031,40.4001097222307],[-111.818302746424,40.3998089397215],[-111.818382648873,40.3996152198187],[-111.818608217638,40.399548847879],[-111.818809070156,40.3990770661461],[-111.818809299226,40.3990764353959],[-111.820674795542,40.399066630718],[-111.8207064908,40.3990664986846],[-111.820702745724,40.3989617482129],[-111.820702738537,40.3989611188298],[-111.820777324757,40.3989607699327],[-111.822759753876,40.398944789073],[-111.823755757354,40.3989378740663],[-111.823736613357,40.397232060867],[-111.823709038671,40.3972319897175],[-111.823714149186,40.3968392461719],[-111.823714221052,40.3968351044268],[-111.823723299426,40.3958301729936],[-111.82372276942,40.3958254017741],[-111.823707794504,40.3953216291458],[-111.823707622027,40.3953171294975],[-111.823707517823,40.3953089313385],[-111.823706272758,40.3949456061014],[-111.823703505947,40.3943315706374],[-111.823700992461,40.3938641097853],[-111.823699447358,40.3935730357523],[-111.823698515805,40.3934194394452],[-111.823697107247,40.3931489987781],[-111.823691534997,40.3921210149399],[-111.823690722022,40.391967236749],[-111.823688887662,40.3916913947598],[-111.822705430055,40.3916938899858],[-111.8227103654,40.3915861053058],[-111.822770278537,40.390477478577],[-111.821425789815,40.3902346062317],[-111.821432826318,40.3901733818706],[-111.821463593617,40.3899035234248],[-111.821464023011,40.3898998246174],[-111.821471154737,40.3898370728069],[-111.821471688336,40.3898326542124],[-111.821502040613,40.3895671247507],[-111.821502469109,40.3895633349253],[-111.821502892216,40.3895594588894],[-111.821669996825,40.388098715281],[-111.821670106419,40.3880979044775],[-111.82207984419,40.3881723799951],[-111.822224953549,40.3882172040263],[-111.824240283465,40.3888381763938],[-111.82444856505,40.3885270481029],[-111.824400737846,40.3885082895776],[-111.824544221255,40.3882938449698],[-111.824544682091,40.3882931190119],[-111.824934772808,40.3884470020674],[-111.824935603749,40.3884472675443],[-111.824940030647,40.3883273259203],[-111.824940016274,40.3883264241182],[-111.825895851584,40.3886995139416],[-111.825999481235,40.3883674191536],[-111.825959107353,40.3883513133043],[-111.826296103146,40.3872740361048],[-111.826823112383,40.3855891822151],[-111.826667078612,40.3843614633082],[-111.82668840821,40.3843234724765],[-111.826719216831,40.3843183870503],[-111.826713337357,40.3842710389215],[-111.827694806992,40.382527163408],[-111.828008579538,40.3821074390345],[-111.828144078721,40.3819262871084],[-111.828285739448,40.381661488089],[-111.827645007088,40.3797286784822],[-111.826413401562,40.3797321718716],[-111.826402797849,40.3775144859732],[-111.826402531049,40.3774540356611],[-111.826402522964,40.377453406077],[-111.828735245636,40.3774468926184],[-111.828731231963,40.3767541240585],[-111.828730637279,40.37661899324],[-111.831414613803,40.3771781985596],[-111.831408176476,40.3758494064899],[-111.831401234295,40.3757445008267],[-111.831421988073,40.3757463362478],[-111.831418910445,40.3748156310535],[-111.83207918206,40.3746168276881],[-111.833627560505,40.373963329075],[-111.833785445704,40.3729820026723],[-111.834380000167,40.3727763617512],[-111.834380346916,40.3727759114304],[-111.835481036464,40.3713675938006],[-111.835483452034,40.3713629837334],[-111.836290719471,40.3684037052046],[-111.834912686757,40.3684076269452],[-111.834912157649,40.3683169990888],[-111.833873444669,40.3683193555583],[-111.83392774693,40.3650898431687],[-111.833977213559,40.3626243317064],[-111.835035787392,40.3626061498312],[-111.83520079713,40.3553348978547],[-111.844329193179,40.3570973722966],[-111.860999154448,40.3604007107836],[-111.861008592149,40.3622996650869],[-111.861023783559,40.3650205590627],[-111.865173901356,40.3650076064005],[-111.867165459155,40.3650015181557],[-111.867160360317,40.3667266090662],[-111.867151163365,40.3678466856793],[-111.867157091348,40.3688239468169],[-111.869963446262,40.3688152998768],[-111.871928846017,40.3688087855833],[-111.871924174778,40.3705664892957],[-111.871906910057,40.3705666186474],[-111.871922528166,40.3705855436874],[-111.871927597359,40.3720199849284],[-111.871929552992,40.372022226976],[-111.872357611903,40.3717978199474],[-111.87288968135,40.3716525420131],[-111.872905435106,40.3688931298261],[-111.873247732755,40.3688942406357],[-111.873247394988,40.3687495594152],[-111.873560006012,40.3687502582069],[-111.873544885569,40.367952984127],[-111.876659778546,40.3679429271554],[-111.876660338196,40.3675861630865],[-111.87691636973,40.3675839510062],[-111.879069329632,40.3675658943507],[-111.88027692319,40.3675452683357],[-111.881598405161,40.3675416880761],[-111.881630810986,40.3687631588184],[-111.883859967787,40.3687510083301],[-111.883852641128,40.3683882666853],[-111.883868070591,40.3683883317054],[-111.884088218023,40.368388897723],[-111.884176323888,40.3683891270045],[-111.884175143501,40.3686773333288],[-111.884242498283,40.3688293420854],[-111.88465625871,40.3688279821465],[-111.884644441372,40.3700411393695],[-111.884951534045,40.3700426655945],[-111.88495461347,40.3705661580458],[-111.886528170794,40.3705768073169],[-111.886526327451,40.3725935860238],[-111.88651773776,40.373403115685],[-111.886507929055,40.3749734676257],[-111.88650687623,40.3752168979993],[-111.886498202996,40.3760649890893],[-111.886393913981,40.3760621839604],[-111.886397917772,40.377014857571],[-111.887639118204,40.3770107419802],[-111.887644322144,40.3779280047551],[-111.891399309676,40.3779161453891],[-111.891403615301,40.378841612426],[-111.896966664464,40.3786416575977],[-111.896993557328,40.3749936882818],[-111.901758749805,40.3749756377177],[-111.901736772521,40.3731414798785],[-111.900544656037,40.3658374054161],[-111.903752796835,40.3657971523018],[-111.906418732493,40.3681261206759],[-111.906870274264,40.3689139347459],[-111.905844006544,40.3693270224293],[-111.908843207292,40.3713709740144],[-111.90877353306,40.3721820664397],[-111.906020541667,40.3743556571696],[-111.906054465646,40.3743555723088],[-111.906043048058,40.3743650288225],[-111.905069462038,40.3751827453406],[-111.905108141698,40.3755292929101],[-111.905132169835,40.3755291019764],[-111.905183035141,40.3759850137875],[-111.907753115169,40.3767376609454],[-111.907721898713,40.3767378149214],[-111.909360460826,40.3774109809907],[-111.909321929388,40.3777693922335],[-111.909283396154,40.3781278036227],[-111.909318108853,40.3787732094869],[-111.909779150308,40.3787180500802],[-111.913860105016,40.3794365928484],[-111.914138960944,40.3803263711686],[-111.913817343412,40.3803256738655],[-111.913587936146,40.3811510888762],[-111.913565919337,40.3812305427737],[-111.912867578916,40.381816508525],[-111.912846883529,40.3818196459773],[-111.912813853374,40.3818248595537],[-111.911366558755,40.3820500598038],[-111.910917149585,40.3822711714027],[-111.910734585868,40.3823613459744],[-111.910113097218,40.3827081323847],[-111.909588384973,40.3830852364846],[-111.909356696884,40.3832723706167],[-111.909309262244,40.3833106747531],[-111.909299316097,40.3833069660039],[-111.909144426779,40.3834320588561],[-111.908515543199,40.3839399774341],[-111.90852850499,40.3839399644331],[-111.908680352612,40.3839392199531],[-111.908649233174,40.3839642414549],[-111.908127961476,40.3843532918702],[-111.907865966027,40.3846181418917],[-111.907772921225,40.3846638263469],[-111.907598237529,40.3847979009605],[-111.907445864392,40.3849791874892],[-111.907187669715,40.3853342781723],[-111.906826961993,40.3856535049098],[-111.90661126751,40.3858134837826],[-111.9063430126,40.3859195520365],[-111.906090121576,40.3860204520323],[-111.905815803037,40.3860521496066],[-111.905270181605,40.3860070511214],[-111.905036532495,40.3859085226976],[-111.904814176106,40.385738187982],[-111.904260748314,40.3855405362762],[-111.903690257921,40.385467520773],[-111.903373703293,40.3854327848558],[-111.902827508736,40.3854500217829],[-111.902515442091,40.3855045311152],[-111.902353953749,40.3858782270737],[-111.902315347751,40.386083751372],[-111.902321483245,40.3863230717408],[-111.902423390826,40.3865344414984],[-111.90265873865,40.3866985517525],[-111.902881764284,40.386742575524],[-111.904495699981,40.3868284293221],[-111.904702687993,40.3868272599639],[-111.904889400129,40.3867902147683],[-111.904961738764,40.3866843339978],[-111.905065619045,40.3866818084797],[-111.905373651356,40.3867039031671],[-111.905440499488,40.3867339192513],[-111.905605833518,40.3868949670694],[-111.905704609572,40.3870567151571],[-111.905742911939,40.3871456927587],[-111.905998002937,40.3871471214353],[-111.905643628337,40.3876936783369],[-111.906090815075,40.3893603569255],[-111.906075393697,40.3894576849873],[-111.905863703903,40.390858533507],[-111.905138352041,40.391322592907],[-111.907436407827,40.3913146693059],[-111.907539370929,40.3913135034466],[-111.90761074657,40.3916450165169],[-111.907610557923,40.3916486194423],[-111.907687196794,40.3920209902585],[-111.907726457663,40.3924792398195],[-111.908647736581,40.3924963292134],[-111.909575423181,40.3924557006741],[-111.911613437355,40.3923664092078],[-111.91162420007,40.3923606477357],[-111.916678703967,40.3912659146109],[-111.916737135783,40.3912653604168],[-111.917095734261,40.3912609863883],[-111.917327826591,40.3920755394289],[-111.917425220138,40.3924107132086],[-111.917567838469,40.3929177800168],[-111.918053456033,40.3946220324926],[-111.918742210531,40.39707817873],[-111.918358231053,40.3972584552669],[-111.917972060584,40.3977169442036],[-111.917425662109,40.398199801106],[-111.916901963163,40.3989097262601],[-111.916318713998,40.3994616776569],[-111.915738695175,40.4000662879991],[-111.915403938883,40.4004468084316],[-111.915283719145,40.4007536560035],[-111.915259152917,40.4010682269289],[-111.915283897012,40.4012263248802],[-111.915436233318,40.4018466847469],[-111.915560654476,40.4022317579219],[-111.915680974825,40.4023469662741],[-111.916091371959,40.402631508456],[-111.916168941484,40.4027286832577],[-111.916559392426,40.4036788044011],[-111.916720460356,40.4039623470123],[-111.916853873651,40.4040896903634],[-111.917230040481,40.4043885896913],[-111.917572765728,40.4049067006051],[-111.918144034062,40.4058765899143],[-111.918889695935,40.4071378560611],[-111.919123994527,40.4076848314433],[-111.919396186753,40.4083716695199],[-111.919864854007,40.4094736766228],[-111.919869375227,40.4095159939607],[-111.92225414988,40.4095032530022],[-111.922252169095,40.4094965114494],[-111.923834424805,40.4094905441896],[-111.925913528818,40.4094826528228],[-111.92594287049,40.4131195192816],[-111.923328079514,40.4131352950056],[-111.923782176992,40.414728146675],[-111.923817222068,40.41472228042],[-111.923435162289,40.4133816468356],[-111.92594719498,40.4133664190259],[-111.926662224302,40.4133629417444],[-111.926673456836,40.4157539250037],[-111.92723299946,40.416777898531],[-111.932608010572,40.4167499818303],[-111.93565523256,40.4167305869047],[-111.940420180695,40.416705079676],[-111.941535239694,40.4166986131012],[-111.944950110686,40.416680754272],[-111.944936919825,40.4203379564545],[-111.940709680761,40.4203618907163],[-111.940206386148,40.4203640942245],[-111.935476916976,40.4203911969591],[-111.932494556945,40.4204077239455],[-111.932489724907,40.4204077629275],[-111.932242379184,40.4212328172638],[-111.931668100596,40.4231220283873],[-111.931655319366,40.4239383418684],[-111.931646744048,40.4244874168905],[-111.930799057813,40.4277028697007],[-111.925949405734,40.4277294716579],[-111.923989732738,40.4294586535703],[-111.921394381305,40.432137458396],[-111.919883608135,40.4340101069497],[-111.919051478026,40.4368329197747],[-111.919221908198,40.4379018262624],[-111.919440814158,40.4392745790189],[-111.920073354781,40.4401371924072],[-111.920388137931,40.4405664876394],[-111.920969410802,40.4408932970764],[-111.921682835732,40.4411567979499],[-111.919126630184,40.4431992038855],[-111.918904891836,40.4436713216603],[-111.918690515182,40.4439477997181],[-111.918657285601,40.444001755778],[-111.918650144893,40.4440139733606],[-111.918638619508,40.4440337952231],[-111.918460039819,40.4443415166859],[-111.918414230231,40.4444409795877],[-111.917970837078,40.4452192699351],[-111.917839642623,40.4456302166962],[-111.917808206978,40.4458331678867],[-111.917692616258,40.4460217409672],[-111.916357001992,40.4460264812826],[-111.916360473981,40.4465945558256],[-111.915642295166,40.4471910519322],[-111.915640080819,40.4471929612877],[-111.915637397551,40.4471949642992],[-111.915635185,40.4471970548144],[-111.915632971551,40.4471991425949],[-111.91563029008,40.4472012358444],[-111.915628075733,40.4472032368049],[-111.915625862284,40.4472053280033],[-111.915623180813,40.4472074212526],[-111.915620847888,40.4472094181112],[-111.915618634439,40.4472115093095],[-111.915616420991,40.4472136011913],[-111.915614215627,40.4472158687638],[-111.915611526969,40.447217871091],[-111.91560931352,40.447219962289],[-111.915607107258,40.4472222312286],[-111.915604774333,40.4472242328721],[-111.915602561782,40.4472263192845],[-111.915600353723,40.447228591642],[-111.915598142071,40.4472306787379],[-111.915595928622,40.4472328608572],[-111.915593602884,40.4472351297963],[-111.915591390334,40.4472372216773],[-111.915589652093,40.4472393976438],[-111.915587439543,40.447241665899],[-111.915585226094,40.4472437564127],[-111.915582901254,40.4472459351134],[-111.915580688704,40.4472482081538],[-111.915578951362,40.4472504702561],[-111.915576743303,40.4472526523747],[-111.915574412175,40.4472549213131],[-111.915572205912,40.4472571936696],[-111.915570462282,40.4472593696354],[-111.915568255122,40.44726163789],[-111.915566399202,40.4472639054608],[-111.915564186652,40.4472660827936],[-111.915561979491,40.4472683558333],[-111.915560241251,40.447270617935],[-111.915557911021,40.4472729818961],[-111.915556173679,40.447275248783],[-111.915554435439,40.4472774247482],[-111.915552111498,40.4472798741617],[-111.915550373258,40.4472821410483],[-111.915548160707,40.4472843190642],[-111.915546311076,40.4472867671101],[-111.915544572836,40.4472890339966],[-111.915542361184,40.4472913931717],[-111.915540622944,40.4472936600579],[-111.915538767922,40.4472960130803],[-111.915537035971,40.4472984611259],[-111.915535180051,40.4473007280118],[-111.915532967501,40.4473030871866],[-111.915531231057,40.4473055352318],[-111.91552937424,40.4473077111961],[-111.915527643186,40.4473101551395],[-111.915525905844,40.4473126031845],[-111.915524049925,40.447314960308],[-111.915522313481,40.4473174049348],[-111.915520456664,40.4473195850003],[-111.91533382807,40.4475747533597],[-111.914654182489,40.447326621505],[-111.914433036131,40.4476805294633],[-111.913103855599,40.4471957244866],[-111.912410799069,40.4479170467719],[-111.91241413631,40.4479198140427],[-111.912404980681,40.4479226790703],[-111.910237518377,40.4485494909781],[-111.91065001667,40.4489277035129],[-111.909764229291,40.4495535859248],[-111.909887006533,40.4496545504952],[-111.909949208578,40.4498409937102],[-111.906967331841,40.4498453926425],[-111.906966626663,40.4498453953768],[-111.903684225734,40.4498486267291],[-111.903689693779,40.4512302818311],[-111.903599951662,40.4512419010511],[-111.903509832212,40.4512516840403],[-111.9034194003,40.4512596237573],[-111.903328721022,40.4512657144874],[-111.903237859655,40.4512699518468],[-111.903146881603,40.4512723327856],[-111.903055852356,40.4512728555901],[-111.902964837441,40.4512715198839],[-111.902873902375,40.4512683266285],[-111.902783112615,40.4512632781223],[-111.902692533517,40.4512563779989],[-111.902602230283,40.4512476312249],[-111.902512267917,40.4512370440956],[-111.902422711178,40.4512246242314],[-111.902333624532,40.4512103805716],[-111.902245072108,40.4511943233682],[-111.902157117649,40.4511764641785],[-111.902069824469,40.4511568158569],[-111.901983255405,40.4511353925455],[-111.901897472772,40.4511122096641],[-111.901812538322,40.4510872838988],[-111.901728513193,40.4510606331903],[-111.90164545787,40.4510322767208],[-111.901563432139,40.4510022349004],[-111.901482495047,40.4509705293521],[-111.901402704855,40.4509371828967],[-111.901324119,40.4509022195358],[-111.90124679405,40.4508656644351],[-111.901170785668,40.4508275439059],[-111.901096148568,40.4507878853862],[-111.901022936476,40.4507467174212],[-111.900951202093,40.4507040696427],[-111.900949073086,40.4526376044735],[-111.896257400529,40.4560335582176],[-111.896249882529,40.4560375650808],[-111.896304460572,40.4630892097629],[-111.896309865735,40.4637710492361],[-111.896282388966,40.4637712658907],[-111.896187787383,40.4637710957109],[-111.895852869394,40.4637754944146],[-111.895805688977,40.463775860062],[-111.895362350621,40.4637874035824],[-111.895061961177,40.4637275693051],[-111.894777370403,40.4637027449023],[-111.894501212115,40.4636913681301],[-111.894205367248,40.4637071709487],[-111.893952799617,40.4636956144288],[-111.893623991071,40.46371617135],[-111.893394606263,40.4637629926909],[-111.893222855567,40.4637976505909],[-111.89305937566,40.4638331484361],[-111.892900858945,40.4638875259398],[-111.892666068974,40.4639713218719],[-111.892390461353,40.4640905627829],[-111.89218549545,40.4642002522873],[-111.891979306939,40.4643063473618],[-111.891918362536,40.4643451070318],[-111.891758235141,40.4644467902324],[-111.891744286102,40.4644801430815],[-111.891700368366,40.4645840848628],[-111.891603519198,40.4647439253228],[-111.89158710069,40.4647869343874],[-111.891575604949,40.4648182866316],[-111.891516290089,40.4649711745744],[-111.891422616466,40.465237660619],[-111.891392378275,40.4653234757907],[-111.891375876224,40.4654136921831],[-111.89132488695,40.4655717414368],[-111.891345795238,40.465814823015],[-111.891334952573,40.4658869770213],[-111.891300402469,40.4659503051242],[-111.891160778222,40.466095523096],[-111.891127000669,40.4662174030528],[-111.891063621831,40.466330504169],[-111.891022508635,40.4663434346069],[-111.890769949988,40.4664228562821],[-111.890575761173,40.4664558848895],[-111.890299310933,40.4665120672462],[-111.889998608875,40.4665188871456],[-111.889704941523,40.466611236266],[-111.889375595784,40.4667714286485],[-111.889124801428,40.4668949762936],[-111.888989580723,40.466927550194],[-111.888796049475,40.4671002073892],[-111.88870971958,40.4671729409203],[-111.88849949943,40.467332212084],[-111.888248764363,40.4675503542804],[-111.888049621339,40.4676554872841],[-111.887774228416,40.4677927384514],[-111.887579970431,40.467821257234],[-111.887480545793,40.4678850830866],[-111.887380946883,40.4679353944335],[-111.887169826621,40.4680271060352],[-111.887123002835,40.4680544895751],[-111.887023045497,40.468077780166],[-111.886948337106,40.4682269983074],[-111.886914255025,40.4683263595659],[-111.886840965074,40.4684935869296],[-111.886806591039,40.4686605131794],[-111.886719255031,40.4687467716065],[-111.886715787534,40.4689314779449],[-111.886658704987,40.4689859681825],[-111.886670682225,40.4690894792835],[-111.886600739397,40.4691530790928],[-111.886625220285,40.469220460081],[-111.886540018674,40.4694688582522],[-111.886400609125,40.4696320876532],[-111.886238323977,40.4698495458221],[-111.88616826347,40.4699041357732],[-111.886015698992,40.4699638613563],[-111.885631363781,40.4703397754012],[-111.885362867224,40.4705544437551],[-111.885099903391,40.4707411405977],[-111.884884297841,40.4709409844724],[-111.884791000612,40.4710227802373],[-111.884585114834,40.4710648955219],[-111.884349507396,40.4711793114939],[-111.883980027625,40.4712497020915],[-111.883785580095,40.4712647049476],[-111.883674056948,40.4713060977516],[-111.883550500867,40.4713295648927],[-111.883484771137,40.4714444813277],[-111.883293957293,40.4715567481257],[-111.883159612446,40.4716568725689],[-111.883020661936,40.4718561280697],[-111.882980145222,40.4719149970206],[-111.882899233066,40.4720417388371],[-111.882849383754,40.4721267143396],[-111.882575626663,40.4718323221605],[-111.882733658287,40.4716580554873],[-111.876977825275,40.4717052040941],[-111.875510262867,40.4717171405575],[-111.872596250256,40.4717408911543],[-111.872635222766,40.4645177038879],[-111.868947446286,40.4645179205401],[-111.863213312978,40.4645180948187],[-111.86009725309,40.4645181699977],[-111.86300707506,40.4607439974906],[-111.864187678735,40.4566368379278],[-111.865743434145,40.4547371019113],[-111.866750325204,40.4536326290689],[-111.866815239263,40.452617828213],[-111.866868731243,40.4517788742519],[-111.866883730414,40.451771375433],[-111.866886446021,40.4513677572779],[-111.86658671055,40.4500768601551],[-111.866567224295,40.4499890868363],[-111.849833991087,40.4500502895977],[-111.849840828165,40.4570884951196],[-111.84984381147,40.4607849894227],[-111.837551217511,40.4608291308195],[-111.837538809082,40.4588632258883],[-111.827116363815,40.458898980604],[-111.824014703022,40.4595933439227],[-111.820346738885,40.4517132393927],[-111.818144033876,40.4526300743063],[-111.816520549087,40.4531951865327],[-111.816520526629,40.4531390887367],[-111.816517066319,40.4514763232465],[-111.81651615902,40.4499621136075],[-111.816507670839,40.4463087714524],[-111.821258430084,40.446286917826],[-111.821239825974,40.4426367969684],[-111.821226901912,40.4390067258229],[-111.823314863314,40.4389913342548],[-111.82348867744,40.4368962335561],[-111.823489116716,40.4368934371149],[-111.82348908258,40.4368907357116],[-111.823489504788,40.4368865882266],[-111.823489470652,40.4368838834044],[-111.823489909928,40.4368810896976],[-111.82348999437,40.4368783848751],[-111.823490433646,40.4368755870658],[-111.82349039951,40.4368728863454],[-111.823490364476,40.4368700946894],[-111.823490803752,40.436867388499],[-111.823490769616,40.4368646877784],[-111.823491209791,40.4368618906522],[-111.823491174756,40.436859185829],[-111.82349114062,40.4368563941724],[-111.823491579897,40.4368536872977],[-111.823491664338,40.4368508956409],[-111.823491630202,40.4368481942359],[-111.82349159427,40.4368453991601],[-111.823492034444,40.4368426963874],[-111.823492000308,40.4368399006278],[-111.823491965274,40.4368371999061],[-111.823491931138,40.4368344082485],[-111.823492020969,40.4368317020567],[-111.823491986833,40.4368290013347],[-111.823491950901,40.4368262096768],[-111.823492391075,40.4368235034847],[-111.823492356041,40.4368207118266],[-111.823492321905,40.436818006318],[-111.823492287769,40.4368152146597],[-111.823492371312,40.4368125139369],[-111.82349139125,40.4368090953004],[-111.823492290464,40.4368056664078],[-111.823491888019,40.4368015257548],[-111.823491852984,40.4367987340958],[-111.823491818848,40.43679602927],[-111.823490832498,40.4367926133676],[-111.82349173261,40.4367891851578],[-111.823491703864,40.4367863900797],[-111.823491296927,40.4367823389938],[-111.823491261893,40.436779547334],[-111.823491232249,40.4367768466098],[-111.823491198113,40.4367740508474],[-111.823490808244,40.4367713508067],[-111.823490778599,40.4367685591465],[-111.823490744463,40.4367658584219],[-111.823490352798,40.4367630674451],[-111.82349032495,40.4367603667203],[-111.823489815605,40.436757576427],[-111.823489781469,40.4367548750182],[-111.823489751825,40.4367520799386],[-111.823489361956,40.4367493792133],[-111.823489326922,40.4367465875522],[-111.823488824764,40.4367438881942],[-111.823487487172,40.4367404743402],[-111.823488387284,40.4367370461279],[-111.823485642931,40.4367344513798],[-111.823485608795,40.4367316597181],[-111.823485223418,40.4367289603594],[-111.823486957166,40.4367262459587],[-111.823485620473,40.4367228321039],[-111.823485100348,40.436718690762],[-111.823484692513,40.4367145494199],[-111.82348417149,40.4367104990135],[-111.823483277667,40.4367050093585],[-111.823484183169,40.4367014902085],[-111.823480953725,40.4366977276509],[-111.82348056206,40.4366948498378],[-111.823480059003,40.4366920602255],[-111.823481891566,40.4366876323995],[-111.82348138312,40.4366850232913],[-111.823480963607,40.4366795322668],[-111.82347997007,40.4366754832257],[-111.823479064568,40.4366687327721],[-111.823478188711,40.4366645968968],[-111.823475910583,40.43666154815],[-111.823475015861,40.4366558807216],[-111.823472253542,40.4366517544177],[-111.823473151857,40.4366478735722],[-111.823474033104,40.4366430040544],[-111.82347081983,40.4366403245204],[-111.823470401215,40.4366350139967],[-111.823468125783,40.4366324171935],[-111.823471292344,40.4366308603424],[-111.823470315875,40.4366280755135],[-111.8234699296,40.436625375467],[-111.823468569551,40.4366200717795],[-111.823468060206,40.4366172821641],[-111.823467089127,40.4366147646729],[-111.82346669836,40.4366119736898],[-111.823465720993,40.4366092797962],[-111.823465335616,40.4366064888129],[-111.823464360045,40.4366039761074],[-111.823463974668,40.4366011851239],[-111.823462997301,40.4365984864438],[-111.823462612822,40.4365958773321],[-111.823461635455,40.4365931827542],[-111.823460775767,40.4365903979238],[-111.823460273609,40.4365877888118],[-111.823459415718,40.4365850894474],[-111.823458188619,40.4365810458704],[-111.823457075606,40.4365769975071],[-111.823456216817,40.4365743022446],[-111.823455245738,40.4365716986018],[-111.823454855869,40.436568998553],[-111.823453883892,40.4365663908077],[-111.823453024205,40.4365636962285],[-111.823452047736,40.4365609066108],[-111.823451188946,40.4365583029675],[-111.823450211579,40.4365556049694],[-111.8234498271,40.4365529951723],[-111.823448849733,40.4365503005926],[-111.823447991842,40.4365476928466],[-111.823447018967,40.4365449989504],[-111.823446161076,40.4365423905204],[-111.823445183709,40.436539696624],[-111.823444324919,40.4365370916124],[-111.82344346613,40.4365343026773],[-111.823442495949,40.4365317892854],[-111.823441636262,40.43652900035],[-111.823440658895,40.4365264869579],[-111.823439332981,40.436523883997],[-111.823438473294,40.4365211859975],[-111.823437501316,40.4365185816689],[-111.823436637137,40.436515792733],[-111.823435666058,40.4365132793404],[-111.823434808167,40.4365106715929],[-111.823433360981,40.436507978379],[-111.82343250309,40.4365053740499],[-111.823431644301,40.4365026760496],[-111.823430198912,40.4365000724041],[-111.823429340122,40.4364974687584],[-111.823428368145,40.4364947707579],[-111.823427510254,40.4364921664283],[-111.823426183442,40.4364896502998],[-111.823425206075,40.43648704597],[-111.823423872975,40.4364842631864],[-111.823422901896,40.4364817456902],[-111.823421575085,40.4364791420439],[-111.823420717194,40.4364766293336],[-111.82341973803,40.436473840396],[-111.823418412117,40.4364712381168],[-111.823417553327,40.4364687240387],[-111.823416107938,40.4364661217593],[-111.823414782025,40.4364636049462],[-111.823413922337,40.4364610012991],[-111.823412476049,40.4364582178307],[-111.823411619056,40.4364556996498],[-111.823410291346,40.4364530973699],[-111.823408845957,40.4364505853423],[-111.823407987168,40.4364479816948],[-111.823406659458,40.4364453746285],[-111.823405215865,40.4364428626006],[-111.823404357076,40.4364402589528],[-111.823403029366,40.4364376566722],[-111.823401583976,40.4364351446442],[-111.823400251775,40.4364325375773],[-111.823398924065,40.436430025549],[-111.823397948494,40.4364274219007],[-111.823396620784,40.4364248182522],[-111.823395293973,40.4364223028049],[-111.823393967161,40.43641969984],[-111.823392521772,40.4364170975587],[-111.823391188672,40.4364145848461],[-111.82338986186,40.4364119825646],[-111.823388535049,40.4364095607881],[-111.823387090558,40.4364070494427],[-111.823385762848,40.4364044464772],[-111.823384436036,40.4364018394091],[-111.823383103834,40.4363993273797],[-111.823381657547,40.4363967250976],[-111.823380331633,40.4363943033205],[-111.823379004822,40.4363917906071],[-111.823377559432,40.4363891883247],[-111.823376231723,40.4363866762948],[-111.823374905809,40.4363842510987],[-111.823373573608,40.436381648816],[-111.823371777875,40.4363791367858],[-111.823370333384,40.4363767156919],[-111.823369005674,40.4363741134089],[-111.823367673473,40.4363716013784],[-111.823366346661,40.436369175498],[-111.823364432351,40.4363665786846],[-111.82332459117,40.4362999264225],[-111.823029705703,40.4358058109581],[-111.823010809641,40.4357743234703],[-111.822771532586,40.4353735055792],[-111.82276972787,40.4353702742148],[-111.822768401957,40.4353678524007],[-111.822766600835,40.4353652548649],[-111.822765156344,40.4353629205697],[-111.822763828634,40.4353603182475],[-111.822761305266,40.4353565535636],[-111.822759255311,40.4353527834096],[-111.822757206253,40.4353490132554],[-111.822754801463,40.4353452472034],[-111.822753474652,40.4353426448805],[-111.822752030161,40.4353403105845],[-111.822750702451,40.4353377068939],[-111.822749370249,40.4353351052545],[-111.822747931148,40.4353327736932],[-111.822746598947,40.4353301713698],[-111.822744796926,40.4353275697301],[-111.822743471013,40.4353250576605],[-111.822742144201,40.4353226358448],[-111.822740698812,40.4353200335211],[-111.822739372,40.4353175173487],[-111.822738045188,40.435314914341],[-111.822736712089,40.435312312017],[-111.822735273886,40.4353099811386],[-111.822733941684,40.4353073788143],[-111.822732613974,40.4353047758063],[-111.822731168585,40.4353022644196],[-111.822729840875,40.4352996614113],[-111.82272851586,40.4352972354922],[-111.82272718815,40.4352947234215],[-111.822725736472,40.4352921210967],[-111.822724410559,40.435289518088],[-111.822723082849,40.435287006017],[-111.822721756936,40.4352844036919],[-111.822720311546,40.4352818909369],[-111.822718979345,40.4352792845091],[-111.822717652533,40.4352768633755],[-111.822716324823,40.4352743513041],[-111.822715349253,40.4352717428248],[-111.822714021543,40.435269140499],[-111.822712694731,40.4352666284272],[-111.822711249342,40.4352640254176],[-111.82270992253,40.4352614230916],[-111.822708590329,40.4352589110195],[-111.822707262619,40.4352563073258],[-111.822706292438,40.4352537911511],[-111.82270495844,40.4352511881409],[-111.822703632527,40.4352485851306],[-111.822702187137,40.4352460737418],[-111.822700859427,40.4352434700476],[-111.822700001536,40.4352408622509],[-111.822698556147,40.4352383508618],[-111.822697228437,40.435235747851],[-111.822695902524,40.4352332350942],[-111.822694926055,40.4352306279809],[-111.822693598345,40.4352280249698],[-111.822692266143,40.4352255128964],[-111.822691295064,40.435222905099],[-111.822689967354,40.4352203020876],[-111.822688635153,40.435217790014],[-111.822687664074,40.4352151870024],[-111.822686331873,40.4352124930529],[-111.822685004163,40.4352098907249],[-111.822684026795,40.4352072822431],[-111.822682699984,40.435204770169],[-111.822681373172,40.4352021678407],[-111.822680396703,40.4351996502964],[-111.822679068993,40.4351970472842],[-111.822678211102,40.4351944435881],[-111.822676765713,40.4351917510052],[-111.822675907822,40.4351891425226],[-111.822674580112,40.43518653951],[-111.822673134723,40.4351840281188],[-111.822672275933,40.435181419636],[-111.82267095002,40.435178907561],[-111.822669971755,40.435176122672],[-111.822668644943,40.4351736105968],[-111.822667787052,40.4351710021136],[-111.822666815973,40.4351683984165],[-111.822665481975,40.4351657051488],[-111.822664510896,40.4351630980327],[-111.822663178694,40.435160585957],[-111.822662326193,40.4351579774732],[-111.822660873617,40.4351551973696],[-111.822660021116,40.4351526805074],[-111.822658688915,40.4351500768096],[-111.822657717836,40.4351475599472],[-111.822656858148,40.4351447750569],[-111.822655526845,40.4351421720425],[-111.822654554868,40.4351396551798],[-111.822653696977,40.4351370507977],[-111.822652249791,40.4351343582125],[-111.8226513919,40.4351317497278],[-111.822650415431,40.4351291460291],[-111.822649088619,40.4351264527599],[-111.82264822983,40.4351238442748],[-111.822647258751,40.4351213267276],[-111.822646399063,40.4351185425201],[-111.82264507315,40.4351160297589],[-111.822644095783,40.4351134219572],[-111.822643236095,40.4351106370655],[-111.822642260525,40.4351081195179],[-111.822640931916,40.4351053394122],[-111.822640074924,40.4351028225481],[-111.822639102946,40.4351002140622],[-111.822638244157,40.4350974291699],[-111.822637267688,40.4350949116218],[-111.822635939978,40.4350923086055],[-111.822635081189,40.435089614651],[-111.82263410472,40.4350870061645],[-111.822633245032,40.4350843115261],[-111.822632273954,40.4350817044069],[-111.822631414266,40.4350789195139],[-111.822630438696,40.4350764019651],[-111.822629579906,40.4350737968968],[-111.822628608827,40.4350711029416],[-111.822627275727,40.4350684965056],[-111.822626416938,40.4350658018664],[-111.822625445859,40.4350631974815],[-111.822624586171,40.4350604084852],[-111.822623610601,40.4350578957219],[-111.822622750913,40.4350551060417],[-111.822621779835,40.4350525932782],[-111.822620920147,40.4350498035978],[-111.822620063154,40.4350472901504],[-111.822619084889,40.4350445018373],[-111.822618232387,40.4350419877059],[-111.82261725502,40.4350391987088],[-111.822616397129,40.4350365950065],[-111.822615893174,40.4350338948962],[-111.822615035283,40.4350312870912],[-111.822614057916,40.4350285924506],[-111.822613200025,40.4350259839617],[-111.82261222715,40.4350232900045],[-111.82261136836,40.4350205051092],[-111.822610391892,40.4350179882419],[-111.822609532204,40.4350152019788],[-111.822608674313,40.4350125941732],[-111.822608171256,40.4350098947455],[-111.822607194788,40.4350072910422],[-111.8226063351,40.4350045916143],[-111.82260547631,40.4350018067181],[-111.82260450613,40.4349992891664],[-111.822603996785,40.4349965035862],[-111.822603144284,40.4349939853506],[-111.822602285495,40.434991200454],[-111.822601308128,40.434988502393],[-111.822600804173,40.4349858932188],[-111.822599945383,40.4349831076381],[-111.82259908839,40.4349805900857],[-111.822598584436,40.4349778004023],[-111.82259760617,40.4349751050758],[-111.822596748279,40.434972501371],[-111.822595890388,40.4349698033092],[-111.822595386433,40.4349670129417],[-111.822594415354,40.4349644994912],[-111.822594025485,40.4349617091233],[-111.822593048118,40.4349590144799],[-111.822592194719,40.4349564059883],[-111.822591685374,40.4349536156202],[-111.822590827483,40.4349509209764],[-111.822590324427,40.4349483118008],[-111.822589465637,40.434945613738],[-111.822588239437,40.4349415693787],[-111.822587126424,40.4349375250192],[-111.822586741047,40.4349348249048],[-111.822585515745,40.4349307764424],[-111.822584402732,40.4349267320821],[-111.822583899676,40.434924032651],[-111.822583040886,40.4349214282606],[-111.82258253783,40.4349187288293],[-111.822581678142,40.4349159398271],[-111.822581170594,40.4349132397118],[-111.822580318093,40.4349106360047],[-111.822579808748,40.4349078449509],[-111.822579423371,40.4349051448353],[-111.82257654427,40.4349012037193],[-111.822576497558,40.4348971484174],[-111.822575757346,40.4348944489851],[-111.822575486055,40.4348916586144],[-111.821915898956,40.4319925759272],[-111.821912245507,40.4319926032783],[-111.821191016014,40.4319972768891],[-111.821182845836,40.4314420222971],[-111.81527889321,40.4314829397934],[-111.817280796905,40.430880999475],[-111.820349042166,40.4283974760243],[-111.821886610284,40.427906355053],[-111.823001476146,40.4267610023769],[-111.824216930861,40.4273335081456],[-111.824856057033,40.4276375963228],[-111.824879696199,40.4271697711549],[-111.825192797704,40.4271689765499],[-111.825477727142,40.4274484752183],[-111.826252745958,40.4274505048035],[-111.827327606247,40.4270332685381],[-111.827309115325,40.4257360155337],[-111.827296140059,40.4248310690442],[-111.82728239853,40.4248317460548],[-111.827284690133,40.4248287412218],[-111.82733689842,40.4247139543108],[-111.827343951094,40.4244101941581],[-111.830449100044,40.4244044990268]],[[-111.852069352552,40.4231655578429],[-111.852050163639,40.4207106596186],[-111.8514876961,40.4207131818086],[-111.851498978042,40.4229167874312],[-111.851480702716,40.4229165583353],[-111.851480767395,40.4229218740455],[-111.852021464262,40.422920232761],[-111.852022792871,40.4231658997759],[-111.852069352552,40.4231655578429]],[[-111.867762916972,40.4182360488884],[-111.867661608568,40.4181581583158],[-111.867559703682,40.4182355927163],[-111.86764755712,40.4183031287197],[-111.86757023553,40.418266593945],[-111.867511648306,40.4182384733711],[-111.867534625414,40.4182106441339],[-111.867485403126,40.418186691325],[-111.867359065862,40.4181239446778],[-111.867233885627,40.4180597487499],[-111.867109986389,40.4179942806721],[-111.867005771037,40.4179376733883],[-111.866968493647,40.4179170545893],[-111.866847274085,40.4178486838159],[-111.866727328333,40.4177789533384],[-111.866608663579,40.4177080416563],[-111.866491399298,40.4176357668422],[-111.866375415117,40.4175623101317],[-111.866296920327,40.4175147829372],[-111.866271458479,40.4175367231992],[-111.866248739187,40.417521361597],[-111.866170063836,40.4174681981564],[-111.86600602877,40.417357857877],[-111.86587168033,40.4172622355071],[-111.865822673638,40.4172262035369],[-111.865668159816,40.4171111143515],[-111.865495378752,40.4169758723213],[-111.865358874355,40.416864576468],[-111.865212793018,40.4167403725954],[-111.865128193278,40.4166658732786],[-111.865070798496,40.4165181155124],[-111.865009563755,40.4163712536716],[-111.864944513169,40.416225345602],[-111.86487567236,40.4160804487742],[-111.864874703078,40.4160784667217],[-111.864387419139,40.4160921489018],[-111.864387413749,40.4160941624151],[-111.864712942547,40.4166117865369],[-111.865071014612,40.4170706374525],[-111.865551825291,40.4178360483909],[-111.866328783571,40.419072657123],[-111.866642204875,40.4191644525136],[-111.868690427503,40.4190957478932],[-111.86868940522,40.4187323328707],[-111.868665708561,40.4187226904072],[-111.868653389066,40.4187181875356],[-111.868517428149,40.4186682209606],[-111.86838239609,40.4186168010348],[-111.868248283008,40.4185638436337],[-111.868115213769,40.418509440398],[-111.867983186575,40.4184536713423],[-111.867852201427,40.4183963668521],[-111.867722261917,40.4183377040578],[-111.867664278361,40.4183109328788],[-111.867762916972,40.4182360488884]],[[-111.830478117424,40.4172073654648],[-111.830477907219,40.4171615129571],[-111.830271341416,40.4171665097282],[-111.830257908009,40.4172050722589],[-111.829371087567,40.4172079256007],[-111.829372364073,40.4176573753626],[-111.830480324585,40.4176649169706],[-111.830478117424,40.4172073654648]],[[-111.845054571992,40.41546210573],[-111.845478552551,40.4153219770125],[-111.846228728458,40.4150740551014],[-111.846224126389,40.4143395870541],[-111.845095978038,40.4143533325118],[-111.845054571992,40.41546210573]],[[-111.857164584267,40.4146479095037],[-111.857523142321,40.4146490339218],[-111.857526643056,40.4137731543906],[-111.857528621146,40.4137713371049],[-111.857527677915,40.4137713439445],[-111.857525889369,40.4134170358854],[-111.857164547436,40.4134188141948],[-111.857166782445,40.4137714089208],[-111.857164584267,40.4146479095037]],[[-111.847445373442,40.4136581215394],[-111.847444344871,40.4134630824551],[-111.84657985475,40.4134661739753],[-111.84652489133,40.4134067552046],[-111.845128384762,40.4134108453167],[-111.845128724325,40.4134758890084],[-111.845098168131,40.4142930486358],[-111.846135983694,40.4141248266525],[-111.846259300823,40.4140050935513],[-111.846419995952,40.4139149121069],[-111.846553837743,40.4138355528555],[-111.846806576951,40.4137446003589],[-111.84717883611,40.4136825068569],[-111.847354672344,40.4136622984994],[-111.847445373442,40.4136581215394]],[[-111.865753359631,40.4133742777909],[-111.863928963933,40.4133837828599],[-111.863930147913,40.4134211588272],[-111.864280313906,40.4134206123391],[-111.864280392059,40.4134452973192],[-111.864671832046,40.413446606428],[-111.864778325526,40.4139762578267],[-111.864773025466,40.4139764801135],[-111.864836794173,40.414299964801],[-111.864063864838,40.4143056368492],[-111.864143621761,40.4144191700482],[-111.864391535219,40.4145002932129],[-111.865072035098,40.4146752491367],[-111.865591745524,40.4146659555915],[-111.866225868978,40.4141711299058],[-111.865767044566,40.4138257947848],[-111.865753359631,40.4133742777909]],[[-111.878246851921,40.4096679830744],[-111.878244356401,40.4093765635431],[-111.878376353052,40.4093761004708],[-111.878247330723,40.4092697853007],[-111.87822342296,40.4062429404905],[-111.876708447471,40.4062331778986],[-111.876711998511,40.4061433321627],[-111.874536513353,40.4061640400743],[-111.873196761447,40.4050402054629],[-111.86867033758,40.4051789854411],[-111.868683732359,40.4060098753236],[-111.867741565815,40.4060135274153],[-111.867364427007,40.4060104998525],[-111.867756941379,40.4071186348445],[-111.868689681003,40.4071140648455],[-111.869417894,40.407123906657],[-111.869417270569,40.4071211165023],[-111.869412456498,40.4062432264184],[-111.869906051102,40.4062462703877],[-111.869894681125,40.407129597779],[-111.870615479428,40.4071398506895],[-111.871067060724,40.4071469878472],[-111.871060052967,40.4062377623222],[-111.87105592431,40.4061826568734],[-111.871055464372,40.4060920305809],[-111.87257077673,40.406073486265],[-111.872617204358,40.4060730457434],[-111.872603944327,40.4050828792422],[-111.872911557124,40.4050759621298],[-111.874082179619,40.4060623439401],[-111.873967673166,40.4060658188627],[-111.874430088145,40.4064550254725],[-111.87515273518,40.4070634336687],[-111.878246851921,40.4096679830744]],[[-111.833667939777,40.4084333315202],[-111.833668499427,40.4078293620134],[-111.833084025859,40.4079027636833],[-111.832210494195,40.406830946614],[-111.831705778448,40.406987372941],[-111.831876422419,40.4080973174971],[-111.831864946441,40.4095103707571],[-111.83405897103,40.4095399710605],[-111.834058601823,40.409283438085],[-111.833668384443,40.409282677469],[-111.833668022422,40.4086576616514],[-111.833720815513,40.4086209677362],[-111.833720085182,40.4084714681262],[-111.833667939777,40.4084333315202]],[[-111.872531735049,40.4072756747597],[-111.875154316215,40.4072672947375],[-111.874200185908,40.4064659522611],[-111.872557298407,40.4064716065007],[-111.872531735049,40.4072756747597]],[[-111.833387651035,40.4053922872744],[-111.833488218329,40.4052143548627],[-111.833489832602,40.4052116419263],[-111.833491219601,40.4052091088945],[-111.833492832975,40.4052063049793],[-111.833494911677,40.4052028648988],[-111.833496412762,40.4052003318668],[-111.833497796167,40.4051978904971],[-111.833499414931,40.4051953540445],[-111.833500916914,40.4051929113065],[-111.833502530289,40.4051901067067],[-111.833504727568,40.4051866666254],[-111.833506228653,40.4051842252552],[-111.833507849213,40.4051817784125],[-111.833509585657,40.4051789738122],[-111.833512012905,40.4051752648991],[-111.833514210184,40.4051719157956],[-111.833515829846,40.4051694689525],[-111.833517451305,40.4051670262136],[-111.833519070968,40.4051645807384],[-111.83352069063,40.4051621379993],[-111.833522659738,40.4051594230086],[-111.833525086985,40.4051558009686],[-111.833527522318,40.405152450496],[-111.833529142879,40.4051500043363],[-111.833530881119,40.4051476518911],[-111.833532620257,40.4051452050472],[-111.833534358497,40.4051427588871],[-111.833536097636,40.4051404071258],[-111.833537831384,40.405138050576],[-111.833539805881,40.4051353321641],[-111.833542358893,40.4051320713009],[-111.833544092642,40.4051297154349],[-111.83354594946,40.4051272720106],[-111.833547807176,40.4051249154604],[-111.833549547212,40.4051225595941],[-111.833551633999,40.4051199314761],[-111.833554187909,40.4051166706122],[-111.833556044727,40.4051143147456],[-111.833557897951,40.4051119581949],[-111.833560108705,40.4051094231072],[-111.833562662615,40.4051061588226],[-111.83356451584,40.4051038022716],[-111.833566491235,40.4051015366992],[-111.833568697497,40.4050989072123],[-111.833571599954,40.4050954650742],[-111.833574508699,40.4050920188316],[-111.833577411156,40.4050885760091],[-111.833580431292,40.4050851290821],[-111.833583223256,40.4050819591951],[-111.833585194159,40.4050796929379],[-111.833587170453,40.4050774225763],[-111.833589265324,40.405075156319],[-111.833591471587,40.4050726178096],[-111.833594382128,40.4050695327442],[-111.833596706968,40.4050669942347],[-111.83359961751,40.4050639105372],[-111.833601706991,40.40506173389],[-111.833603800964,40.405059467632],[-111.833605896733,40.4050572875644],[-111.833608222472,40.4050547483703],[-111.833611482458,40.4050514827149],[-111.833614391203,40.4050483983326],[-111.83361683462,40.4050459494329],[-111.833619864638,40.405042955345],[-111.833622308055,40.4050405030248],[-111.833625330886,40.4050375089367],[-111.833627546132,40.4050354232672],[-111.833629759581,40.4050332425147],[-111.833632322474,40.4050307936144],[-111.833635350695,40.4050278864003],[-111.833637679128,40.4050257097518],[-111.833639893475,40.4050236199777],[-111.833642455471,40.4050212620558],[-111.833645834034,40.405018081905],[-111.833649330277,40.4050149051744],[-111.833652596552,40.4050119972755],[-111.833654928578,40.4050099109213],[-111.833657257011,40.4050078211467],[-111.833659589038,40.4050057300039],[-111.83366215283,40.4050033720814],[-111.833665649971,40.4050002822245],[-111.833669264792,40.4049971923674],[-111.833672531066,40.4049943781827],[-111.833674978077,40.4049923787023],[-111.833677659548,40.4049900153069],[-111.833681280657,40.4049870164282],[-111.833684661018,40.4049842891175],[-111.83368711252,40.404982198658],[-111.833689563124,40.4049801978092],[-111.833692010135,40.4049781983284],[-111.833694811082,40.404976016206],[-111.833698545379,40.4049730159585],[-111.833701931129,40.4049702886473],[-111.833704381733,40.4049682891662],[-111.833706947321,40.4049663799798],[-111.833709398824,40.4049643791305],[-111.833712319247,40.4049621970076],[-111.833716172121,40.4049592870543],[-111.833719676449,40.4049566500372],[-111.833722242037,40.4049547408505],[-111.833725161562,40.4049525539389],[-111.833729020725,40.404949734964],[-111.833732519663,40.4049470979466],[-111.833735089743,40.4049451887595],[-111.833737779299,40.4049433643948],[-111.833740344887,40.4049414552077],[-111.833743382989,40.4049393626948],[-111.833747356238,40.4049366299098],[-111.833751328588,40.4049338102501],[-111.833754951494,40.4049312594225],[-111.833757640151,40.4049294405298],[-111.833760330605,40.4049276161647],[-111.83376301567,40.404925797272],[-111.833765704328,40.4049239729067],[-111.833768744226,40.4049219720562],[-111.83377248571,40.4049195115229],[-111.833775523812,40.4049175093041],[-111.833779384771,40.4049150480867],[-111.833783239442,40.4049123159847],[-111.833786040389,40.4049101338602],[-111.833789298578,40.4049068681978],[-111.833792090542,40.404903693514],[-111.833793710205,40.4049012514495],[-111.833795210391,40.4048987190901],[-111.833796356642,40.4048960964357],[-111.833797501994,40.4048934744653],[-111.833798173035,40.4048908579673],[-111.833798849467,40.4048881504902],[-111.833799051588,40.4048854450652],[-111.83379925281,40.4048826527654],[-111.833798981519,40.4048799521285],[-111.833798475767,40.4048768034375],[-111.833797601707,40.4048731122931],[-111.833796630628,40.4048705087913],[-111.833795297528,40.4048679066574],[-111.833793970716,40.4048653948183],[-111.833792051016,40.4048627030734],[-111.833780206729,40.4048481929589],[-111.833778055264,40.4048455969807],[-111.833776141853,40.4048432677827],[-111.833774342527,40.4048408476057],[-111.833772429116,40.4048385225118],[-111.833770630689,40.4048361933136],[-111.833768834956,40.4048337731363],[-111.833766797577,40.4048310861785],[-111.83376416192,40.4048274983235],[-111.833761878403,40.4048241827213],[-111.833760202146,40.4048217611755],[-111.833758519602,40.4048193409977],[-111.833756599902,40.4048165630603],[-111.8337542014,40.4048128849096],[-111.833752035562,40.4048094776436],[-111.833750472494,40.4048070567813],[-111.833748909425,40.404804545624],[-111.833747464036,40.4048020337825],[-111.833745662015,40.4047992551603],[-111.83374349438,40.4047955763246],[-111.833741565698,40.4047920780787],[-111.833740120308,40.4047894752577],[-111.833738191625,40.4047860632022],[-111.83373662676,40.4047831936003],[-111.83373529905,40.404780681758],[-111.833733973137,40.4047780782526],[-111.833732640935,40.4047755629898],[-111.833731432701,40.4047729601683],[-111.833729985515,40.4047700898818],[-111.833728168223,40.4047662284023],[-111.833726474899,40.4047626343874],[-111.833725379853,40.4047600315653],[-111.833724171619,40.404757428059],[-111.833723076572,40.4047548211324],[-111.833721620403,40.4047512305372],[-111.833720404983,40.4047482651664],[-111.833719427616,40.4047456616597],[-111.833718211297,40.4047426956047],[-111.833716874604,40.4047391009044],[-111.833715897237,40.4047364071023],[-111.833714800394,40.4047334410468],[-111.833713456514,40.4047294879021],[-111.833712106346,40.4047254444621],[-111.83371100591,40.4047218483929],[-111.833710146222,40.4047191504858],[-111.83370940601,40.4047164512104],[-111.833708548119,40.4047137560393],[-111.833707807907,40.4047111484269],[-111.833707186273,40.4047084525715],[-111.833706446061,40.4047057532958],[-111.833705824427,40.4047030540199],[-111.833705084216,40.4047003595322],[-111.833704454496,40.4046973886868],[-111.833404736094,40.4045703625188],[-111.832053872925,40.4036920711393],[-111.832051939751,40.4045783023454],[-111.831915948292,40.4045595503437],[-111.831912580508,40.4050420961779],[-111.832769692765,40.4052239445381],[-111.832768528548,40.405358819597],[-111.833384868953,40.4053962691101],[-111.833387651035,40.4053922872744]],[[-111.831600486913,40.4047333500678],[-111.831592430822,40.403638454867],[-111.831591653779,40.4034794520887],[-111.831582578998,40.4013246475579],[-111.830355259335,40.4013059911063],[-111.830362100904,40.4041356762773],[-111.8311314783,40.4041317675613],[-111.831132069392,40.4047354590043],[-111.831600486913,40.4047333500678]],[[-111.865183410922,40.3986515252586],[-111.864867632438,40.3983955097074],[-111.864872220135,40.3988092615163],[-111.865431003682,40.4004195820511],[-111.867264525364,40.4004137747494],[-111.867292757617,40.4004376175883],[-111.867522314003,40.4002176054593],[-111.867626452101,40.4002147534492],[-111.867534205003,40.4001340919343],[-111.865908159117,40.3987748396476],[-111.865931983337,40.3987581746297],[-111.865843369025,40.3986842444285],[-111.865672734935,40.3986840781886],[-111.865183410922,40.3986515252586]],[[-111.826158723789,40.3989488397014],[-111.826158554008,40.3989255963018],[-111.826141669274,40.3953943562018],[-111.825542283672,40.3953961158312],[-111.825551083568,40.3972356977],[-111.825568919618,40.3989276459026],[-111.825566345945,40.3989289251928],[-111.825566491472,40.3989504562584],[-111.826158723789,40.3989488397014]],[[-111.868328087542,40.3940802887942],[-111.868315490466,40.3951540794696],[-111.868936279328,40.3954334723695],[-111.868928872719,40.3940874006542],[-111.868328087542,40.3940802887942]],[[-111.828556336266,40.3954662704119],[-111.828557019884,40.3953877042276],[-111.828534783885,40.3953880093577],[-111.828126208535,40.3953921915566],[-111.828130088358,40.3962018043921],[-111.827320700897,40.3962061308939],[-111.827342744656,40.3989188420596],[-111.827862494608,40.3989159332132],[-111.827862230503,40.3988754829962],[-111.827935407267,40.3988752285062],[-111.827935372232,40.3982762199801],[-111.828566489923,40.3982744905272],[-111.828552566935,40.3964182803372],[-111.828546682071,40.3964184116916],[-111.82854261989,40.3960391628866],[-111.828572189734,40.3960388611802],[-111.828564819057,40.3957544997975],[-111.828556336266,40.3954662704119]],[[-111.830274604097,40.3950188097334],[-111.830273554864,40.3946555691344],[-111.828537858819,40.3946704536265],[-111.828542319852,40.3950341176352],[-111.830274604097,40.3950188097334]],[[-111.836236334565,40.3923478193759],[-111.835102186366,40.3896718645225],[-111.835079009832,40.3896171663006],[-111.834828016948,40.389223484076],[-111.833197622318,40.3891958727356],[-111.833382988779,40.3897720172183],[-111.833437351227,40.3899574804216],[-111.833112880644,40.3899583760441],[-111.833053608005,40.3910955633397],[-111.83304259466,40.3913110485737],[-111.836617770913,40.3927123579897],[-111.836614968169,40.3924952612119],[-111.836236334565,40.3923478193759]],[[-111.870509205136,40.3893023502945],[-111.870554562872,40.3909491283087],[-111.871963477868,40.3909383324191],[-111.874267908999,40.3909407530959],[-111.874268068001,40.3909530932097],[-111.876656386507,40.3909556431985],[-111.876655985858,40.3904340237634],[-111.875724265822,40.3904358587843],[-111.875615520265,40.39043631925],[-111.875614303947,40.3904421869375],[-111.875489888178,40.3904426768238],[-111.875489682464,40.3903994340893],[-111.874259828653,40.3903980191657],[-111.874253695854,40.3898511270554],[-111.874246331466,40.3891083887409],[-111.873087635005,40.3891045345736],[-111.873063628427,40.3874006542638],[-111.871951347917,40.3873940925025],[-111.871951173644,40.3873440965127],[-111.870512691498,40.3873494396653],[-111.870517691521,40.3878021945256],[-111.870179244949,40.3878056416533],[-111.870255029522,40.3879722804379],[-111.870846731833,40.3892725105128],[-111.870509205136,40.3893023502945]],[[-111.888676984072,40.3872432484487],[-111.88904816166,40.3872472395687],[-111.88904779335,40.3860634580933],[-111.888260111882,40.3860660883237],[-111.88826192558,40.3863922025718],[-111.888684675448,40.3863944475624],[-111.888676984072,40.3872432484487]],[[-111.868666244856,40.3862391790184],[-111.868665507339,40.3862091839252],[-111.867243744637,40.3862028273203],[-111.866997214584,40.3862074678472],[-111.866999843054,40.3866972715458],[-111.867002496677,40.387124640302],[-111.868446525022,40.3871201989499],[-111.868453388151,40.3869297863934],[-111.868574626578,40.3867195954473],[-111.868712633857,40.3864935144554],[-111.868723046229,40.3864513625996],[-111.868722084134,40.3862389367969],[-111.868666244856,40.3862391790184]],[[-111.881650294546,40.3873464071577],[-111.879245488361,40.3873167868317],[-111.87922795145,40.3882425078907],[-111.879241973253,40.388242223939],[-111.881663863599,40.3882427918424],[-111.881650294546,40.3873464071577]],[[-111.868661130747,40.3853002928096],[-111.867152821655,40.3852959368686],[-111.867152068867,40.3856230641106],[-111.868662442287,40.3856314577751],[-111.868661130747,40.3853002928096]],[[-111.88904814549,40.3849703900335],[-111.889048297305,40.3825177696249],[-111.889039786666,40.3809475606706],[-111.886627433734,40.3809268066824],[-111.886668665507,40.3826161326232],[-111.88666953328,40.3835268486359],[-111.88665758389,40.3849782965903],[-111.88904814549,40.3849703900335]],[[-111.848141790569,40.383212878662],[-111.84897687344,40.3831881921745],[-111.849245942224,40.3831873895231],[-111.849237045309,40.3824225863326],[-111.849007240988,40.3824261630645],[-111.846823500313,40.3824326295106],[-111.846814168614,40.3805869218353],[-111.848452530402,40.3809279775116],[-111.849021490964,40.3810464131791],[-111.849219493127,40.3810814483417],[-111.849214310746,40.3807434679894],[-111.844542587077,40.3797812798064],[-111.844535889238,40.3797824109658],[-111.844538868052,40.3800680633272],[-111.845086668797,40.380181988898],[-111.845095989716,40.3815971540551],[-111.845098622678,40.3820154233983],[-111.844551563942,40.3820186094256],[-111.844547732627,40.3814665663702],[-111.842073303414,40.3815136174357],[-111.842064826911,40.3811452087462],[-111.842050451171,40.3811452258535],[-111.842043184699,40.3796340106391],[-111.841986268341,40.379263610587],[-111.841971326663,40.3771270425691],[-111.841962131508,40.3752810622473],[-111.844336897131,40.3752894243514],[-111.844304232591,40.3715871177697],[-111.844297169138,40.3715871725209],[-111.844292713494,40.3698525072751],[-111.841425422261,40.3698620547626],[-111.841432801023,40.3699531726299],[-111.839656273852,40.3699583385317],[-111.839660155473,40.3734595017296],[-111.839559209089,40.3734595147327],[-111.83966491834,40.3771262446358],[-111.839615281031,40.3790586882056],[-111.839625080753,40.3810343901314],[-111.839800960105,40.3810339248113],[-111.840480144851,40.3809885410368],[-111.84050935447,40.3809883289055],[-111.840817722751,40.3810409511437],[-111.841035171644,40.3810581098165],[-111.841031241515,40.3811778659402],[-111.841093975362,40.3815235389458],[-111.841133592863,40.3816592894722],[-111.841128153564,40.3817616691191],[-111.841096880514,40.3817952326939],[-111.841098181275,40.3821272948796],[-111.83974637757,40.3821502737859],[-111.839630554188,40.3821486835125],[-111.839630973701,40.3822299393167],[-111.839746768338,40.3822289190522],[-111.842056089896,40.3822222171934],[-111.842056412391,40.3823051870335],[-111.84208060492,40.3822610447182],[-111.844478709674,40.3822129294316],[-111.844478206617,40.382804827524],[-111.845165131247,40.3828027822224],[-111.845170900228,40.3830476938167],[-111.845546104064,40.3830456717878],[-111.846840714729,40.3830454754012],[-111.846845668039,40.383346883631],[-111.847357665531,40.3833464682787],[-111.847415511645,40.3833464032729],[-111.84814687144,40.3833457272135],[-111.848141790569,40.383212878662]],[[-111.849065084408,40.369813871762],[-111.849069699952,40.3698154602733],[-111.849070268585,40.3697104993609],[-111.849046592588,40.3697105869653],[-111.84904707139,40.3687630979051],[-111.848986113511,40.3687713869009],[-111.848974075188,40.3674668153658],[-111.850829138471,40.3674310496787],[-111.850815939524,40.3648644863],[-111.852177407304,40.3648604062433],[-111.852836495838,40.3648601440957],[-111.853416432016,40.3648599209623],[-111.853455909379,40.3634330406516],[-111.85348742228,40.3623829797979],[-111.853487729503,40.3623047809235],[-111.849081397813,40.3623096476073],[-111.849081549629,40.3623405459081],[-111.849086529889,40.3624652875319],[-111.849082288044,40.3624652259284],[-111.846802852536,40.3624720296868],[-111.846808088816,40.3635210076875],[-111.846798051939,40.3646673065498],[-111.846799216156,40.3649107221339],[-111.846800929243,40.3652456683214],[-111.846794233201,40.3659902295941],[-111.846785201539,40.3689483308122],[-111.846793409446,40.3689829568249],[-111.846796198715,40.3689990604607],[-111.846781601092,40.3692627738043],[-111.846776953208,40.3694090260181],[-111.846780898609,40.3696584568656],[-111.846777745522,40.3697173119697],[-111.84677355578,40.369796531595],[-111.846773663578,40.3698147265878],[-111.849065084408,40.369813871762]],[[-111.86458917087,40.3724119321868],[-111.864598757691,40.3742126801048],[-111.865679520809,40.3742030593224],[-111.866929883158,40.3741919828971],[-111.867120806597,40.3741899215937],[-111.867121020396,40.3742066761838],[-111.869536275785,40.3742152964263],[-111.869545496991,40.3724519958831],[-111.86954520414,40.3724516844896],[-111.868375380248,40.3724553746737],[-111.868354111735,40.3719691555802],[-111.867126103064,40.3720117599801],[-111.867125249664,40.3723864567553],[-111.866925613466,40.3723882238296],[-111.864589134039,40.3724090495707],[-111.86458917087,40.3724119321868]],[[-111.876888609991,40.3688136257897],[-111.876893156365,40.3696368411499],[-111.876898183337,40.3705338344867],[-111.876828620496,40.3705285947136],[-111.876825311103,40.372372234611],[-111.877374964174,40.3723664433689],[-111.877372832472,40.372346998014],[-111.877377796562,40.3723370997904],[-111.877381635063,40.371398518747],[-111.877606270478,40.3713988684713],[-111.877601320761,40.370572084954],[-111.879033441937,40.3706117610049],[-111.879212405206,40.3706090932135],[-111.879246747799,40.3705994253774],[-111.879297082201,40.370599929096],[-111.8795656632,40.3705985466076],[-111.881027800682,40.3698217239762],[-111.88113341561,40.3697058672794],[-111.881215067978,40.3697068692545],[-111.881214136425,40.3695446243755],[-111.879784835959,40.3695565878766],[-111.879787975571,40.3687839494056],[-111.876888609991,40.3688136257897]],[[-111.878589627474,40.372334002275],[-111.878588326713,40.3723929960251],[-111.878589225927,40.3733602000912],[-111.878667211372,40.3733603308062],[-111.878688961381,40.3745631403586],[-111.876961392394,40.3745463468487],[-111.876900130885,40.3745457281871],[-111.876906207988,40.3766046098007],[-111.881639055724,40.3766353790518],[-111.881634293754,40.3760530725947],[-111.881638300241,40.3760531341857],[-111.881636134402,40.3752905323182],[-111.880739272592,40.3752847550139],[-111.880744509771,40.3745830915002],[-111.879681394056,40.3745728028356],[-111.879663621786,40.3723640884097],[-111.879256543927,40.3723636332955],[-111.879259796727,40.3723307603548],[-111.878589627474,40.372334002275]],[[-111.849044104254,40.3749462199962],[-111.849041578192,40.3744542510806],[-111.849036662611,40.3734804106329],[-111.8491240624,40.3734802203778],[-111.84912094794,40.3732602406238],[-111.849084080183,40.3732603302766],[-111.848997037923,40.3732608818814],[-111.848891635896,40.3733193122659],[-111.847698793573,40.3733139173569],[-111.847698298601,40.3733117574769],[-111.846774127108,40.3733144764893],[-111.846774859235,40.3734673542035],[-111.846774251076,40.3748395274392],[-111.846782070911,40.3757747024621],[-111.849044104254,40.3749462199962]],[[-111.874344677226,40.3745089506659],[-111.876727076733,40.3745265010877],[-111.876725033964,40.3744506602383],[-111.876732919376,40.3735324002177],[-111.876713602902,40.3735325439355],[-111.876714256876,40.3732738883916],[-111.876658906281,40.3732749389042],[-111.875100822439,40.3732810674641],[-111.875034224038,40.3734871551079],[-111.874999937141,40.3735318301372],[-111.87498405852,40.3735521312973],[-111.874920614104,40.3736010794879],[-111.874613517838,40.3737096204323],[-111.87439169954,40.3738910257679],[-111.874354922512,40.3739619343371],[-111.87435554235,40.3740918398852],[-111.874344587395,40.3740921054186],[-111.874360713052,40.3742367601136],[-111.874365435496,40.3743560903708],[-111.874351071434,40.3744110658334],[-111.874351219656,40.3744864721584],[-111.874344677226,40.3745089506659]],[[-111.845621877856,40.3793358198529],[-111.846806116116,40.3793323805035],[-111.846797731241,40.3782296452842],[-111.84679489526,40.3771190283347],[-111.844485697668,40.3771216814974],[-111.844339684604,40.377116799459],[-111.843258507362,40.3771252318217],[-111.843287623557,40.3776464636625],[-111.844342343617,40.377660208401],[-111.844487183482,40.3776742843516],[-111.844491362444,40.3782451575087],[-111.844490085938,40.3793411191605],[-111.845621877856,40.3793358198529]],[[-111.85372488384,40.3790833987887],[-111.853729151736,40.3786187609815],[-111.853834826851,40.3786194329825],[-111.853834872665,40.3778302384878],[-111.85296615148,40.3778534966964],[-111.852968671254,40.3775394243201],[-111.852667970993,40.3771789349023],[-111.852100846587,40.3771852800408],[-111.852080298524,40.3780039039642],[-111.85202447811,40.3780054847549],[-111.852024440381,40.3780116108315],[-111.852031858669,40.3780113788454],[-111.852034239204,40.3791634367911],[-111.852919046521,40.3791624999663],[-111.852948143852,40.3791624650664],[-111.852951266396,40.3790737047959],[-111.85372488384,40.3790833987887]],[[-111.865792058155,40.3802709851611],[-111.865799686648,40.3817034007046],[-111.865826724141,40.3817030270837],[-111.865831817589,40.3816908282912],[-111.865887474509,40.3816520551809],[-111.86698886115,40.3816468908598],[-111.866978782052,40.3802672262904],[-111.865792058155,40.3802709851611]],[[-111.864669921329,40.381723531068],[-111.864676613778,40.3822931224692],[-111.866996706137,40.3822721458197],[-111.86699994636,40.381996060205],[-111.865430331743,40.3820045083799],[-111.865441481632,40.3817211264828],[-111.864821653967,40.3817230240112],[-111.864669921329,40.381723531068]]]},"properties":{"NAME":"Lehi","COUNTYNBR":"25","FIPS":"44320","POPLASTCENSUS":75907}}]}