{"type":"FeatureCollection","crs":{"type":"name","properties":{"name":"EPSG:4326"}},"features":[{"type":"Feature","id":6,"geometry":{"type":"Polygon","coordinates":[[[-111.944731460746,40.4977597938732],[-111.944734063165,40.5007885418285],[-111.944495237911,40.500798601209],[-111.944256316384,40.5008072381803],[-111.944017313236,40.5008144522131],[-111.943778243124,40.5008202428656],[-111.943539120707,40.5008246097831],[-111.94329996065,40.5008275526979],[-111.943060777619,40.5008290714299],[-111.942821586281,40.500829165886],[-111.942582401304,40.5008278360603],[-111.942343237356,40.5008250820345],[-111.942104109104,40.5008209039771],[-111.94186503121,40.5008153021442],[-111.941626018338,40.5008082768789],[-111.941387085142,40.5007998286115],[-111.941148246276,40.5007899578596],[-111.940909516386,40.5007786652279],[-111.937514532297,40.5006067121431],[-111.936321930723,40.5004752133278],[-111.935357079022,40.5002655533716],[-111.934076067952,40.4999108773426],[-111.933402061995,40.499610833543],[-111.933365011879,40.4995942864108],[-111.933304087238,40.4995665810214],[-111.93317891419,40.4995097548472],[-111.933015382181,40.4994355815553],[-111.932767501061,40.4993124496795],[-111.932575947903,40.4992174213658],[-111.932135714125,40.4989838607828],[-111.931639729104,40.4987209282574],[-111.931627359302,40.4987139107982],[-111.931498274091,40.4988860292622],[-111.93140251458,40.4990273390599],[-111.931398358974,40.4990340395306],[-111.931418929495,40.4991475648984],[-111.931418886376,40.4992809858037],[-111.931418690543,40.4992838704995],[-111.93141289102,40.4993850861538],[-111.931446223907,40.4994913025536],[-111.931451720698,40.4995900847338],[-111.931449039227,40.4997033475382],[-111.931448959277,40.4997061406822],[-111.931447393513,40.4997123697549],[-111.931410210447,40.4998568104435],[-111.931385956833,40.4999718686269],[-111.931379867153,40.5000605650527],[-111.931379672219,40.500063539199],[-111.931377088664,40.5000730197164],[-111.931340707794,40.5002071840238],[-111.931290973466,40.5002632595836],[-111.931286788215,40.5002678874614],[-111.931259840553,40.5003758504664],[-111.931201975574,40.5005011792224],[-111.92925213464,40.5005099383464],[-111.925309350704,40.5005428374774],[-111.925311232675,40.5008429966468],[-111.924090010775,40.5005938545624],[-111.923833464506,40.5005436551227],[-111.920544671166,40.4999000026252],[-111.919812411259,40.4997802501479],[-111.919147848391,40.4989136625246],[-111.919055814194,40.4987936760338],[-111.919045246413,40.4987803372055],[-111.91903743646,40.4987701290073],[-111.919159954088,40.4986246531345],[-111.919275094751,40.4985007663115],[-111.919314355621,40.4984462207889],[-111.919339140139,40.4984117898015],[-111.919355237051,40.4983893198908],[-111.91944031739,40.4982506277627],[-111.919578959777,40.4980243935247],[-111.919707007435,40.4977483347504],[-111.919892838324,40.4973483039158],[-111.91991529441,40.4971866871016],[-111.919925713969,40.497111470176],[-111.919924697076,40.4969505803091],[-111.91992400178,40.4968392365132],[-111.915778441135,40.4968540546744],[-111.915397068568,40.4968650043452],[-111.915072391373,40.4968798279656],[-111.915050789585,40.4968793682285],[-111.915055669234,40.4950757583808],[-111.915103213469,40.4934237789282],[-111.915175014013,40.4897630301369],[-111.908584896732,40.4897834752337],[-111.908583877144,40.489924775509],[-111.905798320924,40.4899193988281],[-111.905799488734,40.4897717968116],[-111.905622986848,40.4897710541857],[-111.905649277842,40.4861444696417],[-111.900857143093,40.4861305038306],[-111.898965632465,40.4861250093309],[-111.899284941327,40.4860210851766],[-111.899566275708,40.4859144580127],[-111.899960020772,40.485685810006],[-111.900245615862,40.4855314258037],[-111.90049763552,40.4853809964832],[-111.8989647072,40.4839292593155],[-111.899102110811,40.4837928774276],[-111.899429767799,40.4834653894927],[-111.899752861235,40.4831352873807],[-111.900071355112,40.4828026078407],[-111.900385213937,40.4824673879089],[-111.900694402732,40.4821296649053],[-111.900998887041,40.4817894764288],[-111.901298632932,40.4814468603536],[-111.901593607,40.4811018548246],[-111.901883776374,40.4807544982533],[-111.902169108715,40.4804048293138],[-111.902449572226,40.4800528869379],[-111.902725135652,40.4796987103115],[-111.902995768283,40.4793423388696],[-111.903261439959,40.4789838122923],[-111.903522121074,40.4786231705003],[-111.903777782576,40.4782604536507],[-111.905510074007,40.4757702634741],[-111.9059071626,40.4751994118326],[-111.906306675746,40.4746251160743],[-111.906864498995,40.4738230939283],[-111.912180299452,40.4661797427329],[-111.912287290873,40.4660238214677],[-111.912391975704,40.465866996229],[-111.912494340762,40.4657092867595],[-111.912594373156,40.4655507129138],[-111.912692060289,40.4653912946552],[-111.912787389858,40.4652310520534],[-111.912880349859,40.4650700052821],[-111.912970928586,40.4649081746164],[-111.913059114631,40.4647455804302],[-111.91314489689,40.4645822431938],[-111.913228264559,40.464418183471],[-111.91330920714,40.4642534219168],[-111.91338771444,40.4640879792747],[-111.913463776572,40.4639218763742],[-111.913537383958,40.463755134128],[-111.913608527329,40.4635877735294],[-111.913717187883,40.4633191122272],[-111.913819433791,40.4630489963314],[-111.913879792301,40.4628804519404],[-111.913937643099,40.462711398847],[-111.913965627417,40.4626265843477],[-111.914051657252,40.4623527963117],[-111.914131213369,40.4620778762813],[-111.914204270127,40.4618019128435],[-111.914270803984,40.4615249949224],[-111.914301153566,40.4613885401843],[-111.914363064557,40.4610832793896],[-111.914411806518,40.4608093549428],[-111.91445420494,40.4605348191438],[-111.914490246688,40.4602597570205],[-111.9145199206,40.4599842537646],[-111.914543217485,40.4597083947057],[-111.914560130126,40.4594322652847],[-111.914570653285,40.4591559510271],[-111.914574783702,40.4588795375169],[-111.914572520098,40.4586031103696],[-111.914563863175,40.4583267552064],[-111.914548815613,40.4580505576269],[-111.914527382073,40.4577746031831],[-111.914499569195,40.4574989773527],[-111.914465385593,40.4572237655127],[-111.914424841855,40.4569490529129],[-111.914377950539,40.4566749246496],[-111.913606810648,40.4524564741901],[-111.913880895625,40.4524139473499],[-111.914865787841,40.4522438157948],[-111.914871560415,40.4522172836906],[-111.914914617565,40.4520182064443],[-111.915133283675,40.4516200829943],[-111.915442735324,40.4509599818789],[-111.91571225596,40.4503992941845],[-111.91575132459,40.4502368246831],[-111.915990724715,40.4497510585537],[-111.916061192159,40.4496082491093],[-111.916276969287,40.4489984373559],[-111.916566058824,40.4485772304144],[-111.916782905845,40.4482202892095],[-111.916802513373,40.4481879721628],[-111.916811330337,40.4481598846074],[-111.91689180681,40.4479034824946],[-111.917179618044,40.447302106191],[-111.917188714385,40.4471038381494],[-111.917279428957,40.4468373546875],[-111.917341890615,40.4466611848925],[-111.917442739981,40.4466198445804],[-111.917664007612,40.4460685438762],[-111.91769261536,40.4460217409672],[-111.917808205181,40.4458331672031],[-111.917839641724,40.4456302166962],[-111.91797083618,40.4452192692514],[-111.918414227536,40.4444409795877],[-111.918460040717,40.4443415173695],[-111.918638622203,40.4440337952231],[-111.918650143994,40.4440139740442],[-111.918657288296,40.4440017550943],[-111.918690513385,40.4439477976671],[-111.918904892734,40.4436713216603],[-111.919126628387,40.4431992032018],[-111.921682833037,40.4411567958988],[-111.930066532005,40.4344049309954],[-111.930344905538,40.4340808017906],[-111.930795633435,40.4337645636456],[-111.931164982951,40.433617446053],[-111.931365074596,40.4335077271346],[-111.931760724986,40.4332162522259],[-111.931846796167,40.4331654690651],[-111.932240192684,40.4329331098032],[-111.932860245826,40.4325857683961],[-111.932983151526,40.4325217141345],[-111.93328349875,40.4324156871647],[-111.933556229965,40.4321882614789],[-111.934036986746,40.431914109816],[-111.934520902003,40.4316129039626],[-111.935152593717,40.4312564470531],[-111.935368926004,40.4311285718422],[-111.93556887841,40.4310098379278],[-111.9356378286,40.430966036615],[-111.936157872301,40.4306357032175],[-111.936895533778,40.4303558553843],[-111.937026544977,40.4302818210818],[-111.937357006424,40.4299683337645],[-111.937659585961,40.4298036287754],[-111.937684625601,40.4297900027202],[-111.937797458493,40.4297314298661],[-111.937655093486,40.430133752916],[-111.936668656168,40.4329349703325],[-111.936624822874,40.4330301895667],[-111.936514256432,40.4332865786693],[-111.936436313208,40.4335320731206],[-111.93629562895,40.433759246741],[-111.936248703654,40.4339461114804],[-111.936251769604,40.4350171588585],[-111.936715509598,40.4350028617377],[-111.938592622928,40.4349451139195],[-111.938573124994,40.4351114869601],[-111.938575859466,40.4352148875228],[-111.938597102826,40.4388280153612],[-111.93864536212,40.4404073383],[-111.938664028213,40.4423510415734],[-111.933641261795,40.4423753221432],[-111.933767135529,40.4426438524224],[-111.934310980094,40.4438038608482],[-111.935777122266,40.4469310673498],[-111.939251897413,40.4543414491944],[-111.94255615615,40.4613864439594],[-111.942818373483,40.4621894293301],[-111.94403097964,40.4647746310503],[-111.944496156041,40.4655220816833],[-111.946193444616,40.4691398580681],[-111.946268384772,40.4693693312519],[-111.94645573651,40.4699428341247],[-111.946481515463,40.4699977568107],[-111.946568582876,40.4701834376365],[-111.946612856823,40.4702799748541],[-111.946655308276,40.4703769845413],[-111.94669592852,40.4704744467854],[-111.94673470922,40.4705723415807],[-111.946774478645,40.4706781316849],[-111.946812120128,40.4707843712318],[-111.946847624892,40.4708910354498],[-111.94688098466,40.4709980994683],[-111.946912191652,40.4711055383238],[-111.946941238594,40.4712133269652],[-111.946968118714,40.4713214402604],[-111.946992825743,40.4714298530013],[-111.948384108608,40.4714225894067],[-111.949647756141,40.4714238351996],[-111.954977051989,40.4714182110216],[-111.955130232711,40.4715226197442],[-111.955253703452,40.4715948414227],[-111.955405049814,40.4716613370434],[-111.955577420347,40.4717046860979],[-111.956151364762,40.4717662442493],[-111.956857092928,40.4719785087329],[-111.957223691802,40.4719510591394],[-111.957636517082,40.4719640349644],[-111.95945869933,40.4723272046553],[-111.959822609547,40.4724257131582],[-111.960156587,40.4725676212665],[-111.962212438121,40.4735138421401],[-111.962502241819,40.4736182735718],[-111.962737510592,40.4736707277167],[-111.963100600646,40.473710945039],[-111.963284298037,40.473753737889],[-111.96345071813,40.4738256831443],[-111.963925885593,40.4741138781867],[-111.964362809977,40.4744250029924],[-111.964592073512,40.4746592121286],[-111.96483680963,40.4749935597327],[-111.964947110171,40.4751170512516],[-111.965825329244,40.4762317685832],[-111.966076253855,40.4764538116676],[-111.966358650943,40.4766574835935],[-111.967386318238,40.477348153829],[-111.968359207165,40.478001886209],[-111.968651008716,40.4781858345863],[-111.968806600516,40.4782666006677],[-111.969761233881,40.4786254348852],[-111.970884078578,40.4790474414944],[-111.971052660018,40.4791533204243],[-111.97123638346,40.479433934005],[-111.971881423241,40.4809919969967],[-111.971956078631,40.4811292045072],[-111.973241645956,40.4830276297485],[-111.973459990469,40.4832695699651],[-111.974141845906,40.4838260669374],[-111.974552849403,40.4841483608489],[-111.974857644185,40.4843220936034],[-111.976020230351,40.4848316406324],[-111.976708151213,40.485071499358],[-111.977905995355,40.4854476690723],[-111.978245380666,40.4855730824217],[-111.978663512295,40.4856772880772],[-111.978860046611,40.4856992265927],[-111.97898445699,40.485727091435],[-111.979085104234,40.4857840754934],[-111.979130963229,40.485862604426],[-111.979097966312,40.4859627915729],[-111.979024635039,40.4861210678024],[-111.978862498114,40.4864039670151],[-111.978866170426,40.4865349242859],[-111.978928455117,40.4866638541871],[-111.979741428652,40.4876631613255],[-111.980495218482,40.4887046759981],[-111.981180043749,40.4897083927954],[-111.981256006187,40.4898523398977],[-111.981621722018,40.4909810130556],[-111.981756313902,40.4912532875667],[-111.982048649051,40.4916130484241],[-111.982531877097,40.4921646052586],[-111.982653220628,40.4922724904431],[-111.982792908654,40.4923597692391],[-111.982963197791,40.4924173283532],[-111.983146648145,40.4924469386158],[-111.984105169418,40.4925682371936],[-111.984292637936,40.4925739374801],[-111.984868830834,40.4925251557459],[-111.985071190725,40.4925324396017],[-111.985255863686,40.4925809542152],[-111.985734999008,40.4928264124133],[-111.987033873077,40.4935535092268],[-111.987479273964,40.4938392476933],[-111.987610102806,40.4939655143229],[-111.987799903351,40.4942184813483],[-111.988141864131,40.4947403214544],[-111.988344592332,40.4949893930537],[-111.988471588062,40.4950954217196],[-111.98908034399,40.4954628178219],[-111.989367116772,40.4956809888544],[-111.989730443982,40.4960413838223],[-111.990377764585,40.4967351021556],[-111.991224331519,40.4979281775155],[-111.991327608133,40.4980736849551],[-111.991414352151,40.4982104155786],[-111.991476201159,40.4983554674608],[-111.99151354143,40.4985110893113],[-111.991538848768,40.4990997784288],[-111.991537448295,40.4992451023081],[-111.991526734987,40.4993189766166],[-111.991516648703,40.4993953673491],[-111.991423364949,40.4996803056327],[-111.991400232432,40.4998244649588],[-111.991400282737,40.4998599594687],[-111.991400536961,40.4999573421485],[-111.991433030821,40.5000883221525],[-111.991504739737,40.5002136500795],[-111.99174498877,40.5005002304254],[-111.991745034584,40.5005113106523],[-111.991691599198,40.5005130306454],[-111.991343035799,40.5005245794624],[-111.991034223751,40.5005347962736],[-111.989339370507,40.500523823977],[-111.986248742824,40.5005037571633],[-111.97895650591,40.5005207193831],[-111.976763982406,40.5005257598228],[-111.976644319624,40.5005260501314],[-111.976644333997,40.5005270412789],[-111.976646092898,40.5023326630519],[-111.976465025142,40.5022429074293],[-111.976281819709,40.5021556958146],[-111.976096538418,40.5020710576455],[-111.975909243789,40.5019890214911],[-111.97571999902,40.5019096150426],[-111.975528867969,40.5018328651035],[-111.975335915128,40.5017587975807],[-111.975141205606,40.5016874374757],[-111.974944805104,40.5016188088762],[-111.974746779893,40.5015529349479],[-111.974547196792,40.501489837927],[-111.974346123148,40.501429539112],[-111.974143626808,40.5013720588571],[-111.9739397761,40.5013174165653],[-111.97373463981,40.5012656306813],[-111.973528287157,40.501216718686],[-111.973320787771,40.5011706970901],[-111.973112211669,40.5011275814284],[-111.972902629229,40.5010873862553],[-111.972692111171,40.5010501251389],[-111.972480728531,40.5010158106573],[-111.972268552636,40.5009844543937],[-111.972055655079,40.5009560669327],[-111.971842107699,40.500930657857],[-111.971627982554,40.5009082357437],[-111.971413351894,40.5008888081617],[-111.971198288144,40.5008723816691],[-111.970982863872,40.5008589618108],[-111.970767151769,40.500848553117],[-111.970551224623,40.5008411591011],[-111.970335155293,40.5008367822593],[-111.970119016688,40.5008354240689],[-111.964843298161,40.5008383332887],[-111.964569203157,40.5008360816268],[-111.964295251777,40.5008289695444],[-111.964021593062,40.5008170009093],[-111.963748375894,40.5008001822302],[-111.963475748915,40.5007785226536],[-111.963203860447,40.5007520339587],[-111.962932858408,40.5007207305507],[-111.962662890236,40.5006846294533],[-111.961613139656,40.5005354445154],[-111.960787366924,40.5004180819034],[-111.960523620835,40.5003827152977],[-111.960258883612,40.5003519267831],[-111.959993292673,40.5003257323473],[-111.959726985879,40.5003041455926],[-111.959460101462,40.5002871777283],[-111.959192777953,40.5002748375657],[-111.958925154114,40.5002671315126],[-111.958657368859,40.5002640635707],[-111.951173087409,40.5002444693718],[-111.950936365078,40.5002456397146],[-111.950699721748,40.5002504347883],[-111.950463253399,40.5002588526473],[-111.95022705594,40.500270889876],[-111.949991225169,40.5002865415903],[-111.949755856738,40.5003058014396],[-111.949521046109,40.500328661609],[-111.949286888519,40.5003551128231],[-111.948279571658,40.500476444237],[-111.948278429001,40.4999008797067],[-111.947569607038,40.4998986760735],[-111.947573502133,40.4992948723718],[-111.94680048117,40.4992921994348],[-111.946803431237,40.4986458817771],[-111.946808451023,40.4977606334118],[-111.944731460746,40.4977597938732]]]},"properties":{"OBJECTID":6,"COUNTYNBR":"18","NAME":"Bluffdale","COUNTYSEAT":0,"SHORTDESC":"BLUFFDALE (SL CO)","UPDATED":1542240000000,"FIPS":"06810","ENTITYNBR":3020,"SALESTAXID":"019","IMSCOLOR":4,"MINNAME":null,"POPLASTCENSUS":17014,"POPLASTESTIMATE":19080,"UGRCODE":"BDL","GNIS":"1425844","GlobalID":"2c281d1d-517d-44a1-a8df-1f4dd15b4435","Shape__Area":46710621.670955658,"Shape__Length":38425.717910600921}},{"type":"Feature","id":162,"geometry":{"type":"Polygon","coordinates":[[[-111.940709678965,40.4203618900324],[-111.940320688684,40.4235953033646],[-111.940221857833,40.4244299752984],[-111.940113090699,40.4245325509607],[-111.940006332898,40.4246363425818],[-111.93990160789,40.4247413273482],[-111.939798938688,40.4248474821841],[-111.939698347853,40.4249547837568],[-111.93959985749,40.4250632084814],[-111.939503489241,40.4251727325265],[-111.939409264285,40.425283331819],[-111.938860533783,40.4260220186602],[-111.938631712219,40.4263945945956],[-111.938594035817,40.4264603642022],[-111.938560911101,40.4265275384513],[-111.938532428014,40.4265959349418],[-111.938508663896,40.4266653679544],[-111.938489683273,40.426735648956],[-111.938475537682,40.4268065871114],[-111.938466265533,40.4268779898016],[-111.938461892003,40.426949663147],[-111.93845599866,40.4269937536225],[-111.93845321787,40.4270380211337],[-111.938242809973,40.4282863864316],[-111.938058623899,40.428995893718],[-111.937797458493,40.4297314298661],[-111.937684625601,40.4297900027202],[-111.937659585961,40.4298036287754],[-111.937357006424,40.4299683337645],[-111.937026544977,40.4302818210818],[-111.936895533778,40.4303558553843],[-111.936157872301,40.4306357032175],[-111.9356378286,40.430966036615],[-111.93556887841,40.4310098379278],[-111.935368926004,40.4311285718422],[-111.935152593717,40.4312564470531],[-111.934520902003,40.4316129039626],[-111.934036986746,40.431914109816],[-111.933556229965,40.4321882614789],[-111.93328349875,40.4324156871647],[-111.932983151526,40.4325217141345],[-111.932860245826,40.4325857683961],[-111.932240192684,40.4329331098032],[-111.931846796167,40.4331654690651],[-111.931760724986,40.4332162522259],[-111.931365074596,40.4335077271346],[-111.931164982951,40.433617446053],[-111.930795633435,40.4337645636456],[-111.930344905538,40.4340808017906],[-111.930066532005,40.4344049309954],[-111.921682833037,40.4411567958988],[-111.9209694117,40.440893295709],[-111.920388135236,40.440566486272],[-111.920073357476,40.4401371944582],[-111.919440811463,40.4392745769679],[-111.919221906401,40.4379018248949],[-111.919051478924,40.4368329190909],[-111.919883606338,40.434010106266],[-111.921394382203,40.432137458396],[-111.923989730942,40.4294586549379],[-111.925949407531,40.4277294737093],[-111.930799057813,40.4277028703846],[-111.93164674315,40.4244874155227],[-111.931655316671,40.4239383411846],[-111.931668101494,40.4231220270195],[-111.932242380082,40.4212328152121],[-111.932489725806,40.4204077622436],[-111.932494557843,40.4204077232616],[-111.935476916976,40.4203911969591],[-111.940206384352,40.4203640921728],[-111.940709678965,40.4203618900324]]]},"properties":{"OBJECTID":162,"COUNTYNBR":"25","NAME":"Bluffdale","COUNTYSEAT":0,"SHORTDESC":"BLUFFDALE (UTAH CO)","UPDATED":1323907200000,"FIPS":"06810","ENTITYNBR":3020,"SALESTAXID":"019","IMSCOLOR":4,"MINNAME":null,"POPLASTCENSUS":17014,"POPLASTESTIMATE":19080,"UGRCODE":"BDL","GNIS":"1425844","GlobalID":"fce170ca-c4b7-4465-99e7-03b0ecd5f0f3","Shape__Area":3033724.5618553162,"Shape__Length":8752.8706229566742}}]}