{"type": "FeatureCollection", "features": [{"type": "Feature", "geometry": {"type": "Polygon", "coordinates": [[[-111.915054252591, 40.4955760199645], [-111.916117468018, 40.4940861201797], [-111.916811466881, 40.4931141200945], [-111.917254206959, 40.4924996718084], [-111.917340892587, 40.492379434057], [-111.917483319577, 40.4921817697539], [-111.918162546543, 40.4912390823416], [-111.918220545371, 40.4911550820081], [-111.918452546073, 40.4908240818502], [-111.91893654667, 40.4901500799162], [-111.919104546899, 40.4899180823268], [-111.919593546621, 40.4892240824058], [-111.919821547125, 40.4889010818459], [-111.921046545542, 40.4871660812374], [-111.92115754587, 40.4872020805074], [-111.921170546289, 40.4872070816381], [-111.921400545544, 40.4872050818691], [-111.92150254655, 40.4871730814576], [-111.921595547335, 40.4871430794353], [-111.92160954668, 40.4871340814905], [-111.921661548355, 40.4870110814459], [-111.921853547077, 40.4866670824019], [-111.922033547002, 40.4864820805067], [-111.92225954606, 40.4863300812196], [-111.922558547607, 40.486223081506], [-111.922844547838, 40.4861940806667], [-111.922922546757, 40.4862000814304], [-111.923259547939, 40.4862260808618], [-111.924303546606, 40.4862790806176], [-111.924696547865, 40.4862850806904], [-111.925753546951, 40.4863030815889], [-111.927282547836, 40.4863670804934], [-111.928141548352, 40.4864020806372], [-111.928778550008, 40.4864280806736], [-111.929847549688, 40.4864370807626], [-111.92988254895, 40.4864370821291], [-111.929923548958, 40.4864360805251], [-111.930048550428, 40.4864360812083], [-111.930090548464, 40.4864360812083], [-111.930501547469, 40.4864570800453], [-111.930929548888, 40.4864590798366], [-111.931157548494, 40.4864610803111], [-111.931915473269, 40.4864730790572], [-111.931915550524, 40.4864730811069], [-111.932651548321, 40.4864670803676], [-111.933190548271, 40.4864540800166], [-111.933449548737, 40.4864680806047], [-111.933742547742, 40.4864840802973], [-111.934241549306, 40.4864880798782], [-111.934655548684, 40.4864660801305], [-111.934913549325, 40.4864400801089], [-111.935757549772, 40.4863710800813], [-111.93594727396, 40.4863556214747], [-111.936014849728, 40.4864881413681], [-111.936331135759, 40.4871083919075], [-111.936217858202, 40.4876801855478], [-111.935215705756, 40.4882195747297], [-111.933234280056, 40.4892268179145], [-111.932230949918, 40.489587630818], [-111.931669459747, 40.4895539898354], [-111.931269533375, 40.4891805007623], [-111.930567844036, 40.4891652272653], [-111.930078989841, 40.4895241289316], [-111.930293176951, 40.4901125689728], [-111.930178946281, 40.4905415155323], [-111.929037391473, 40.4912420596116], [-111.928430127646, 40.4913692698071], [-111.927704358066, 40.491246933371], [-111.927330398397, 40.4912840084992], [-111.926633150328, 40.4919829093282], [-111.926145482808, 40.4925381965936], [-111.925655023324, 40.4926471120646], [-111.924835033946, 40.4924179691587], [-111.924201256343, 40.4920453048928], [-111.923428716877, 40.4919231117879], [-111.922611616481, 40.4921581821497], [-111.921725892882, 40.492643466044], [-111.921283962187, 40.4930378725042], [-111.921591522882, 40.4936081366062], [-111.92201558429, 40.4941065584942], [-111.92178325211, 40.4943573689925], [-111.921408831604, 40.4943230049041], [-111.921317485516, 40.4946804402959], [-111.921552573728, 40.4948760027421], [-111.921814140681, 40.4955714170388], [-111.921536350154, 40.4960366545505], [-111.921023241447, 40.4962706188721], [-111.920018313206, 40.4963992131013], [-111.91992391105, 40.49683929936], [-111.915778370168, 40.4968540806328], [-111.915397041618, 40.4968650692412], [-111.915050766229, 40.4968808717669], [-111.915054252591, 40.4955760199645]]]}, "properties": {"PrecinctID": "BLF005", "VistaID": "BLF005", "CountyID": 18, "AliasName": null, "SubPrecinctID": null, "VersionNbr": null, "_county": "Salt Lake", "_intersect_frac": 1.0}}, {"type": "Feature", "geometry": {"type": "Polygon", "coordinates": [[[-111.905462619604, 40.4861731869641], [-111.911746999769, 40.4861439155459], [-111.911853152788, 40.4843580083101], [-111.911473088168, 40.4833772993191], [-111.911480013281, 40.4806454027493], [-111.911525110504, 40.4792240914581], [-111.911535092584, 40.4789095300309], [-111.91427397863, 40.4789002337473], [-111.914262714655, 40.47921311636], [-111.920122304879, 40.4791894059875], [-111.924772723205, 40.4791703775534], [-111.924698940977, 40.4794104799457], [-111.925518219787, 40.4798510342971], [-111.925670902843, 40.4800368901297], [-111.925638353287, 40.4802169908158], [-111.925710488004, 40.4802799309652], [-111.925835820054, 40.4803892824503], [-111.924853548224, 40.4817080799388], [-111.923930546337, 40.4830300805917], [-111.923386546364, 40.4837780802958], [-111.922904546315, 40.4844750813068], [-111.922648546222, 40.4848450813033], [-111.921046545542, 40.4871660812374], [-111.919821547125, 40.4889010818459], [-111.919593546621, 40.4892240824058], [-111.919104546899, 40.4899180823268], [-111.91893654667, 40.4901500799162], [-111.918452546073, 40.4908240818502], [-111.918220545371, 40.4911550820081], [-111.918162546543, 40.4912390823416], [-111.917483319577, 40.4921817697539], [-111.917340892587, 40.492379434057], [-111.917254206959, 40.4924996718084], [-111.916811466881, 40.4931141200945], [-111.916117468018, 40.4940861201797], [-111.915054252591, 40.4955760199645], [-111.915055590182, 40.4950758191797], [-111.91506442152, 40.4934235780818], [-111.915068361531, 40.4908088565497], [-111.915068653483, 40.4906147469874], [-111.915069926396, 40.4897694432274], [-111.90550727845, 40.4897862831376], [-111.905483651859, 40.4897855541757], [-111.905474130616, 40.4881429430824], [-111.905473376031, 40.488012534148], [-111.905462619604, 40.4861731869641]]]}, "properties": {"PrecinctID": "BLF006", "VistaID": "BLF006", "CountyID": 18, "AliasName": null, "SubPrecinctID": null, "VersionNbr": null, "_county": "Salt Lake", "_intersect_frac": 0.994}}, {"type": "Feature", "geometry": {"type": "Polygon", "coordinates": [[[-111.919039167513, 40.4987725772263], [-111.919159828324, 40.4986247255429], [-111.919275035462, 40.4985008441848], [-111.919355160694, 40.4983893356021], [-111.919440192524, 40.4982507015377], [-111.919578834912, 40.4980244297292], [-111.919706906823, 40.4977483928145], [-111.91989272873, 40.4973483182611], [-111.919925601679, 40.4971115268744], [-111.91992434314, 40.4969070542342], [-111.919924341343, 40.4969066669075], [-111.920020791658, 40.4969062993912], [-111.921097162015, 40.4968985508083], [-111.922958500928, 40.4968851323617], [-111.924622254496, 40.4968762060841], [-111.925030664557, 40.496877635163], [-111.925336905627, 40.4968707595991], [-111.92543687644, 40.4968746301352], [-111.925609238889, 40.4968813000807], [-111.925915603028, 40.4968946256243], [-111.926195521664, 40.4969109555084], [-111.926494427092, 40.4969386893191], [-111.926766870846, 40.4969665754531], [-111.926957010954, 40.4970010181121], [-111.927456562287, 40.4970868186469], [-111.92786084908, 40.4971646717339], [-111.928433928417, 40.4973125088741], [-111.92870830355, 40.4973957760358], [-111.928942774619, 40.4974690867655], [-111.929181905249, 40.4975626386246], [-111.929324464291, 40.4976239332947], [-111.929406311593, 40.497659151627], [-111.929677863321, 40.4977506627798], [-111.929940080654, 40.4978557683043], [-111.930188455847, 40.4979781063535], [-111.930237086145, 40.4980024590383], [-111.930437999748, 40.4981030748115], [-111.930685155927, 40.4982263503092], [-111.930932348937, 40.4983540712022], [-111.931178368747, 40.4984791045376], [-111.931436062164, 40.4986410994072], [-111.931604428008, 40.4987443414141], [-111.931607183141, 40.4987460307132], [-111.931633423829, 40.4987174348976], [-111.931498201328, 40.4988860442903], [-111.931400337064, 40.4990307278902], [-111.931418833376, 40.4991476052009], [-111.931418682459, 40.4992824810913], [-111.931412828138, 40.4993853238693], [-111.931425647097, 40.499425965696], [-111.93144623289, 40.4994912349278], [-111.931451594934, 40.4995901216205], [-111.931448401423, 40.4997073135431], [-111.931410102649, 40.499856846647], [-111.931385936172, 40.4999719403508], [-111.931378763124, 40.5000657373622], [-111.931340585623, 40.5002072509658], [-111.931288786069, 40.5002656203136], [-111.931259777671, 40.5003758661773], [-111.931201934252, 40.5005012598257], [-111.929236503055, 40.5005151748306], [-111.925309314771, 40.5005428798283], [-111.925311183267, 40.5008430383144], [-111.924089880519, 40.5005938607101], [-111.920544566063, 40.499900041561], [-111.919812360953, 40.4997802699574], [-111.919147781018, 40.4989137192215], [-111.919055716277, 40.4987936739845], [-111.919039167513, 40.4987725772263]]]}, "properties": {"PrecinctID": "BLF003", "VistaID": "BLF003", "CountyID": 18, "AliasName": null, "SubPrecinctID": null, "VersionNbr": null, "_county": "Salt Lake", "_intersect_frac": 1.0}}, {"type": "Feature", "geometry": {"type": "Polygon", "coordinates": [[[-111.920122304879, 40.4791894059875], [-111.920171053754, 40.4784556163829], [-111.920180850781, 40.4770441203765], [-111.920209966976, 40.4752834560522], [-111.920141301552, 40.4748116498979], [-111.919845729772, 40.4737982985409], [-111.918810523815, 40.4722483380226], [-111.919860220496, 40.4718482166856], [-111.920639300596, 40.4715312111239], [-111.921181181443, 40.471199077507], [-111.921833345763, 40.4706588442534], [-111.92224844468, 40.4701247892689], [-111.92238544854, 40.4696559127939], [-111.923936504863, 40.4699493550343], [-111.9243633232, 40.4701428361876], [-111.925043325412, 40.4699843480201], [-111.925826034706, 40.469916494892], [-111.926691672873, 40.4694972813312], [-111.927659606694, 40.4691036926133], [-111.928289577236, 40.4691143919041], [-111.92880266618, 40.4694895705872], [-111.930046984664, 40.4697320454847], [-111.931087019066, 40.469975259618], [-111.93200947298, 40.4700294483173], [-111.931806547151, 40.4706000780754], [-111.931551547781, 40.4711530786699], [-111.931122545639, 40.4718690779449], [-111.930111546584, 40.4735700787275], [-111.930074638402, 40.473632977957], [-111.930046831951, 40.4736803684506], [-111.92970254633, 40.4742670798085], [-111.92889154819, 40.4755450795796], [-111.928396545925, 40.4763540797723], [-111.928238544843, 40.47661307927], [-111.926899545725, 40.4787970794192], [-111.926378546216, 40.4796330796495], [-111.926111547151, 40.4800190802378], [-111.925835820054, 40.4803892824503], [-111.925710488004, 40.4802799309652], [-111.925638353287, 40.4802169908158], [-111.925670902843, 40.4800368901297], [-111.925518219787, 40.4798510342971], [-111.924698940977, 40.4794104799457], [-111.924772723205, 40.4791703775534], [-111.920122304879, 40.4791894059875]]]}, "properties": {"PrecinctID": "BLF010", "VistaID": "BLF010", "CountyID": 18, "AliasName": null, "SubPrecinctID": null, "VersionNbr": null, "_county": "Salt Lake", "_intersect_frac": 1.0}}, {"type": "Feature", "geometry": {"type": "Polygon", "coordinates": [[[-111.943281884406, 40.4824074111913], [-111.943295550477, 40.4823800785998], [-111.94356255044, 40.481777079977], [-111.94392955176, 40.4809470782985], [-111.944027551669, 40.4807280770072], [-111.944194550277, 40.4803520789958], [-111.944322550324, 40.4800660781169], [-111.94438612769, 40.4799247946666], [-111.944479165305, 40.4797160735676], [-111.944574551117, 40.479502078848], [-111.944613550577, 40.4794170785146], [-111.944789550304, 40.4789980793741], [-111.945284549873, 40.4778650768261], [-111.94536955116, 40.4776630785773], [-111.945485551511, 40.4773750777972], [-111.94573355031, 40.4767570790572], [-111.945969550312, 40.4761390787286], [-111.94624354905, 40.4754230778338], [-111.946550550993, 40.474601078127], [-111.946704550979, 40.47411907778], [-111.946765551078, 40.4739060786283], [-111.946811551109, 40.4736880773467], [-111.946880548909, 40.4732340778288], [-111.946910549046, 40.4730060781895], [-111.946918548544, 40.4727770759681], [-111.946918549442, 40.4725480777494], [-111.946910549945, 40.4723230778079], [-111.946895549876, 40.4720980777959], [-111.946870549762, 40.4719390769318], [-111.946870376387, 40.4719368013098], [-111.946865550637, 40.4718730763465], [-111.946773549677, 40.4714260766702], [-111.946955473794, 40.4714260773536], [-111.947458551014, 40.4714260766702], [-111.948446550503, 40.4714220775586], [-111.948960551237, 40.471416077524], [-111.949743551585, 40.4714210777807], [-111.951149453632, 40.4714190666074], [-111.953217551486, 40.471416077524], [-111.954698552691, 40.471420076636], [-111.955091551255, 40.4714960774856], [-111.955130550714, 40.4715230762382], [-111.955253550738, 40.4715950771866], [-111.955404551249, 40.4716610766783], [-111.955577551502, 40.4717050769868], [-111.955600551068, 40.471709076765], [-111.955725553436, 40.4717710770539], [-111.956078551817, 40.4718980767726], [-111.956344551956, 40.4719470771433], [-111.956797551692, 40.4720020767776], [-111.957667552977, 40.4720950771254], [-111.958350551071, 40.4721610774925], [-111.958494552807, 40.4721720769779], [-111.95862355178, 40.4722210771487], [-111.959161553702, 40.4723070761068], [-111.959378552539, 40.4723420760645], [-111.960076554295, 40.4725610766934], [-111.961097553395, 40.473011076961], [-111.961809553598, 40.4733300757189], [-111.962248552193, 40.4735160773908], [-111.963729554296, 40.4739330764118], [-111.964010554503, 40.4740490769655], [-111.964189553705, 40.4741800761069], [-111.964441554498, 40.4744220762272], [-111.964715554135, 40.474619076692], [-111.964917554699, 40.4749060765846], [-111.96550655398, 40.475745077257], [-111.965780553616, 40.476080078182], [-111.966024555811, 40.4763380769819], [-111.966441554664, 40.4766950758555], [-111.967096554965, 40.4771720770152], [-111.967273555415, 40.4772720769218], [-111.967394553993, 40.477354076119], [-111.968359555712, 40.4780020761687], [-111.968650555067, 40.4781860771601], [-111.968806556499, 40.478267075565], [-111.969583934291, 40.4785584931315], [-111.969504731629, 40.4786816979399], [-111.967387565998, 40.4786852053255], [-111.957882382382, 40.4787004935068], [-111.957877908772, 40.4896796865504], [-111.948280872419, 40.4896784390466], [-111.948354408508, 40.4823606335958], [-111.946534293283, 40.4823672838029], [-111.945693209666, 40.4824809658229], [-111.943470639312, 40.4824131717848], [-111.943281884406, 40.4824074111913]]]}, "properties": {"PrecinctID": "BLF008", "VistaID": "BLF008", "CountyID": 18, "AliasName": null, "SubPrecinctID": null, "VersionNbr": null, "_county": "Salt Lake", "_intersect_frac": 0.999}}, {"type": "Feature", "geometry": {"type": "Polygon", "coordinates": [[[-111.921046545542, 40.4871660812374], [-111.922648546222, 40.4848450813033], [-111.922904546315, 40.4844750813068], [-111.923386546364, 40.4837780802958], [-111.923930546337, 40.4830300805917], [-111.924853548224, 40.4817080799388], [-111.925835820054, 40.4803892824503], [-111.926111547151, 40.4800190802378], [-111.926378546216, 40.4796330796495], [-111.926899545725, 40.4787970794192], [-111.928238544843, 40.47661307927], [-111.928396545925, 40.4763540797723], [-111.92889154819, 40.4755450795796], [-111.92970254633, 40.4742670798085], [-111.930046831951, 40.4736803684506], [-111.930074638402, 40.473632977957], [-111.930111546584, 40.4735700787275], [-111.931122545639, 40.4718690779449], [-111.931551547781, 40.4711530786699], [-111.931806547151, 40.4706000780754], [-111.93200947298, 40.4700294483173], [-111.932072547289, 40.4698520784698], [-111.932153546582, 40.4694610777987], [-111.932290760648, 40.4686809640204], [-111.93402452891, 40.4687378313352], [-111.935198106861, 40.468901197143], [-111.93536018899, 40.4685396490948], [-111.935748892708, 40.4682714184278], [-111.936241738117, 40.4682225028512], [-111.937537945987, 40.4684844539045], [-111.938691441202, 40.4689195519209], [-111.939600293725, 40.4696537279859], [-111.940014995586, 40.4702328219553], [-111.940245372134, 40.4709067676219], [-111.94047424041, 40.4713453187612], [-111.94097014099, 40.4717671709014], [-111.943704239914, 40.4719294714831], [-111.946420253056, 40.4719357646376], [-111.946690328851, 40.4719363865042], [-111.946870376387, 40.4719368013098], [-111.946870549762, 40.4719390769318], [-111.946895549876, 40.4720980777959], [-111.946910549945, 40.4723230778079], [-111.946918549442, 40.4725480777494], [-111.946918548544, 40.4727770759681], [-111.946910549046, 40.4730060781895], [-111.946880548909, 40.4732340778288], [-111.946811551109, 40.4736880773467], [-111.946765551078, 40.4739060786283], [-111.946704550979, 40.47411907778], [-111.946550550993, 40.474601078127], [-111.94624354905, 40.4754230778338], [-111.945969550312, 40.4761390787286], [-111.94573355031, 40.4767570790572], [-111.945485551511, 40.4773750777972], [-111.94536955116, 40.4776630785773], [-111.945284549873, 40.4778650768261], [-111.944789550304, 40.4789980793741], [-111.944613550577, 40.4794170785146], [-111.944574551117, 40.479502078848], [-111.944479165305, 40.4797160735676], [-111.94438612769, 40.4799247946666], [-111.944322550324, 40.4800660781169], [-111.944194550277, 40.4803520789958], [-111.944027551669, 40.4807280770072], [-111.94392955176, 40.4809470782985], [-111.94356255044, 40.481777079977], [-111.943295550477, 40.4823800785998], [-111.943281884406, 40.4824074111913], [-111.94319355037, 40.4825840789608], [-111.943030551061, 40.4829420790737], [-111.942261550957, 40.4846430794603], [-111.942006551587, 40.4852100800308], [-111.941388550198, 40.4849850801608], [-111.941276551841, 40.484876079831], [-111.941265551072, 40.4848650790107], [-111.941057549762, 40.4843870789503], [-111.940783550125, 40.4838430798344], [-111.940309548676, 40.4828220790539], [-111.940209551812, 40.4826850792986], [-111.940093549664, 40.4825250779287], [-111.939935550379, 40.4823720796314], [-111.93971954957, 40.4822400804584], [-111.939600550643, 40.4821620788685], [-111.939434550063, 40.4822130791825], [-111.93941855017, 40.4822360792578], [-111.939301549095, 40.48240507853], [-111.939055550845, 40.4827630789143], [-111.938780549587, 40.4834310795495], [-111.938755549472, 40.4834930799464], [-111.938671549807, 40.4837090795815], [-111.938569551496, 40.4838520795869], [-111.93855055123, 40.4838960794222], [-111.938495549181, 40.4840310795753], [-111.938478549463, 40.484076079566], [-111.938800549678, 40.4842360799719], [-111.938817549397, 40.4843770796846], [-111.93889254974, 40.4849800788645], [-111.938991550372, 40.485777079911], [-111.939000551491, 40.4858720801177], [-111.939053550297, 40.4863720782702], [-111.938907549808, 40.4863330798874], [-111.93888855044, 40.4863280793748], [-111.93845855027, 40.4863220799891], [-111.938308550482, 40.4863200801937], [-111.938055548965, 40.4863160799195], [-111.937595551353, 40.48630907961], [-111.937566549244, 40.48630907961], [-111.937296550704, 40.4863050793351], [-111.937236550429, 40.4863050793351], [-111.937044550809, 40.4863060782082], [-111.936860548889, 40.486307079131], [-111.936707549626, 40.48630907961], [-111.936308550317, 40.4863310794091], [-111.936247551116, 40.4863350796824], [-111.936125550019, 40.4863420806724], [-111.936106549752, 40.4863430809114], [-111.936027548313, 40.4863490809785], [-111.93594727396, 40.4863556214747], [-111.935757549772, 40.4863710800813], [-111.934913549325, 40.4864400801089], [-111.934655548684, 40.4864660801305], [-111.934241549306, 40.4864880798782], [-111.933742547742, 40.4864840802973], [-111.933449548737, 40.4864680806047], [-111.933190548271, 40.4864540800166], [-111.932651548321, 40.4864670803676], [-111.931915550524, 40.4864730811069], [-111.931915473269, 40.4864730790572], [-111.931157548494, 40.4864610803111], [-111.930929548888, 40.4864590798366], [-111.930501547469, 40.4864570800453], [-111.930090548464, 40.4864360812083], [-111.930048550428, 40.4864360812083], [-111.929923548958, 40.4864360805251], [-111.92988254895, 40.4864370821291], [-111.929847549688, 40.4864370807626], [-111.928778550008, 40.4864280806736], [-111.928141548352, 40.4864020806372], [-111.927282547836, 40.4863670804934], [-111.925753546951, 40.4863030815889], [-111.924696547865, 40.4862850806904], [-111.924303546606, 40.4862790806176], [-111.923259547939, 40.4862260808618], [-111.922922546757, 40.4862000814304], [-111.922844547838, 40.4861940806667], [-111.922558547607, 40.486223081506], [-111.92225954606, 40.4863300812196], [-111.922033547002, 40.4864820805067], [-111.921853547077, 40.4866670824019], [-111.921661548355, 40.4870110814459], [-111.92160954668, 40.4871340814905], [-111.921595547335, 40.4871430794353], [-111.92150254655, 40.4871730814576], [-111.921400545544, 40.4872050818691], [-111.921170546289, 40.4872070816381], [-111.92115754587, 40.4872020805074], [-111.921046545542, 40.4871660812374]]]}, "properties": {"PrecinctID": "BLF009", "VistaID": "BLF009", "CountyID": 18, "AliasName": null, "SubPrecinctID": null, "VersionNbr": null, "_county": "Salt Lake", "_intersect_frac": 1.0}}, {"type": "Feature", "geometry": {"type": "Polygon", "coordinates": [[[-111.89876373341, 40.4839139333798], [-111.89999654178, 40.4826980817461], [-111.900486541326, 40.4821790826215], [-111.900854541572, 40.4817540817942], [-111.90108054063, 40.4815110811426], [-111.901291541415, 40.4812560813013], [-111.901492542155, 40.4810370823847], [-111.901700541669, 40.4807700823459], [-111.90190354116, 40.4805320818102], [-111.902353543219, 40.47995108146], [-111.902633540906, 40.4795920821384], [-111.902796542011, 40.4793530818663], [-111.902921541685, 40.4791960811073], [-111.903362541726, 40.4785300820875], [-111.903551541872, 40.4782910814511], [-111.903695543608, 40.4780760811438], [-111.90383554335, 40.4778130803591], [-111.904029542621, 40.4775790817516], [-111.904173542561, 40.4773350820138], [-111.904340542067, 40.4771240815171], [-111.904452543119, 40.476940081715], [-111.904593540889, 40.4767480817701], [-111.904676542526, 40.4766240814427], [-111.904750541248, 40.4765130817985], [-111.904897540662, 40.4763060809561], [-111.905070540915, 40.4760510811603], [-111.905253541213, 40.4757920815447], [-111.905419540894, 40.4755310801298], [-111.905596541345, 40.4752970804022], [-111.90579454261, 40.4749940811202], [-111.905846543387, 40.4749230808088], [-111.905962542839, 40.4747690811746], [-111.906286540908, 40.4742910809747], [-111.911761541697, 40.4664650796989], [-111.911974542133, 40.4661480794806], [-111.912121541547, 40.4659380792279], [-111.912159542081, 40.4658830794111], [-111.912316542439, 40.465637079133], [-111.9124735419, 40.4653600786305], [-111.912618541665, 40.46513107904], [-111.912725542693, 40.4649320790126], [-111.912879542679, 40.4646220795982], [-111.913083541097, 40.4642130785677], [-111.913205540397, 40.4639450793977], [-111.913306541578, 40.4636970797538], [-111.913445541495, 40.4633780789785], [-111.913624542494, 40.4628800795624], [-111.913851542274, 40.4621620782559], [-111.913911541651, 40.4618990800701], [-111.913983541621, 40.4616140791142], [-111.914038543669, 40.4613630785995], [-111.914142540731, 40.4608390789137], [-111.914175541241, 40.4605720785245], [-111.914218540899, 40.4602880787173], [-111.914245541561, 40.4600230780838], [-111.914282543168, 40.4595030780198], [-111.91429754144, 40.4592020784792], [-111.914285542643, 40.4587710786851], [-111.9142755408, 40.4584020771369], [-111.91426254128, 40.4582360782042], [-111.914257540359, 40.458157078144], [-111.914244540838, 40.4578970785703], [-111.914184540564, 40.4574180785931], [-111.914131541759, 40.45707707895], [-111.914053541042, 40.4566450785125], [-111.913960541156, 40.4561180789201], [-111.913833540036, 40.4554080786106], [-111.913454541716, 40.4532780784649], [-111.913365008428, 40.4527742800045], [-111.913321477866, 40.4525293274794], [-111.913324540223, 40.4525290779773], [-111.913364539508, 40.4525260777998], [-111.913606541154, 40.4524560790877], [-111.913675540751, 40.4524460784845], [-111.913852540303, 40.4524180774713], [-111.913942540714, 40.4524030779246], [-111.914821541322, 40.4522520787926], [-111.914865540804, 40.4522440782859], [-111.914877541398, 40.4521960772763], [-111.914914541208, 40.4520180779327], [-111.915133540593, 40.4516200775256], [-111.915279541081, 40.4513100782034], [-111.91534654013, 40.4511660771718], [-111.915531540976, 40.4507750771009], [-111.915662541396, 40.4505040780579], [-111.915712540726, 40.4503990774867], [-111.915751541084, 40.4502370776117], [-111.915990541459, 40.4497510770108], [-111.916061540705, 40.4496080775264], [-111.916276540791, 40.4489980764133], [-111.916565540496, 40.4485770772862], [-111.916737540923, 40.4482810779464], [-111.916844541053, 40.4480530776862], [-111.91687654084, 40.4479510770855], [-111.916891540909, 40.4479030777948], [-111.917178540066, 40.4473030769322], [-111.917188540111, 40.4471040760501], [-111.917341539374, 40.4466610761958], [-111.917442540555, 40.4466200770138], [-111.917643540396, 40.4461170763433], [-111.917663541386, 40.4460680769548], [-111.917691540077, 40.4460210764753], [-111.917807541326, 40.4458330769632], [-111.917839540215, 40.4456300765505], [-111.917970541533, 40.4452190757808], [-111.918413539427, 40.4444400751191], [-111.918459542152, 40.4443410764148], [-111.918654541248, 40.4439980749838], [-111.918909541516, 40.4436680770216], [-111.919131540375, 40.4431970763283], [-111.920711541315, 40.4419280776317], [-111.920826540942, 40.4418350772214], [-111.921103446629, 40.4419713303332], [-111.921141539688, 40.4419900753269], [-111.921231539202, 40.4420340766118], [-111.921394541205, 40.4421220756768], [-111.921536541495, 40.4422140754773], [-111.921668540841, 40.442325076429], [-111.921830540325, 40.4424640755329], [-111.92193454098, 40.4425700757189], [-111.921980541909, 40.4426190762901], [-111.9220655414, 40.442708076162], [-111.922208540616, 40.4428880766411], [-111.922249541523, 40.4429430761406], [-111.922372540648, 40.4431110749672], [-111.922413542453, 40.4431670751664], [-111.922426541075, 40.4431890747436], [-111.922457541037, 40.4432400766257], [-111.922466540359, 40.4432550761665], [-111.9224805424, 40.4432770763986], [-111.92251054074, 40.4433300765551], [-111.922556542568, 40.4434120761731], [-111.922662541076, 40.4436690758453], [-111.922698541061, 40.4437560759985], [-111.922760541884, 40.4439410766573], [-111.922803540643, 40.444156076857], [-111.922841541176, 40.4443740769107], [-111.92285354177, 40.4447800771896], [-111.922832540956, 40.4449420765457], [-111.922830541306, 40.4449600769058], [-111.922741542516, 40.445366077747], [-111.922332542262, 40.4463700766917], [-111.922137540471, 40.4468560757646], [-111.922112542154, 40.4469200767197], [-111.921922543081, 40.44746207664], [-111.921868541756, 40.447760076429], [-111.921826541025, 40.4481590765782], [-111.921857542784, 40.4484770763526], [-111.921980541011, 40.4490100763855], [-111.922177541553, 40.4494490760596], [-111.922289542604, 40.449631077832], [-111.922486542247, 40.4498720781248], [-111.922764542082, 40.4502790767307], [-111.923150541871, 40.4507730769303], [-111.9234325437, 40.4511670765676], [-111.923548544051, 40.451329076935], [-111.923675543374, 40.4515030764389], [-111.923783541533, 40.451662077831], [-111.923999543239, 40.4519590787528], [-111.924212543675, 40.4522240770149], [-111.924277542175, 40.4523040765944], [-111.92429854299, 40.4523820766396], [-111.924312543234, 40.4524360758291], [-111.924326542579, 40.4524890755991], [-111.924612541013, 40.4526750775693], [-111.924817542849, 40.452927077102], [-111.924941543596, 40.4533820772254], [-111.92518254362, 40.4536440772673], [-111.925342542556, 40.453671077044], [-111.925506542587, 40.453699076168], [-111.92578654297, 40.4537040770601], [-111.926599542556, 40.4541590780742], [-111.926730542976, 40.4542890770168], [-111.926808545488, 40.4545580764595], [-111.926876543464, 40.4549730769432], [-111.926974543373, 40.4554130780084], [-111.927103544143, 40.4556160775798], [-111.927333544297, 40.4557390770419], [-111.927582543819, 40.4557640773218], [-111.92795354354, 40.4557260755256], [-111.928478545043, 40.4555180768969], [-111.92869154458, 40.4554560759586], [-111.928871544505, 40.4554620767355], [-111.929022544118, 40.4555230769701], [-111.929113544354, 40.4555600775], [-111.929359544401, 40.4558520768661], [-111.92974954349, 40.4567110769744], [-111.929790544397, 40.4569400765614], [-111.929798543894, 40.4569840755779], [-111.929927544664, 40.4573220770967], [-111.930237546082, 40.4579230773426], [-111.930242544308, 40.4579320764684], [-111.930451546342, 40.4584630767529], [-111.9306775454, 40.458795076504], [-111.931184545563, 40.4591000770301], [-111.931388543981, 40.4592670772044], [-111.931732543937, 40.4596330782423], [-111.931914544411, 40.4600250772956], [-111.932325544314, 40.4602690777343], [-111.932354545525, 40.4602860781464], [-111.932749546433, 40.4605420776004], [-111.932868546259, 40.4606700766199], [-111.932928545635, 40.460799077382], [-111.932930547082, 40.4609140767663], [-111.932892544752, 40.461057078163], [-111.932938545681, 40.4611140763263], [-111.932992546108, 40.4613360771295], [-111.933010546549, 40.4614050769156], [-111.933096545865, 40.46165207758], [-111.933103546436, 40.4621190777627], [-111.933145544472, 40.4622170777021], [-111.933204547616, 40.4623550781276], [-111.933308544679, 40.462467077165], [-111.933295545158, 40.4626200777634], [-111.933289547107, 40.4626940771371], [-111.933283546361, 40.4627680771128], [-111.933272544694, 40.4628470772185], [-111.933214542272, 40.4632820777973], [-111.933138110015, 40.4637535138786], [-111.933083546344, 40.4640900789004], [-111.932982546062, 40.4646310778267], [-111.932866545711, 40.4652480789492], [-111.932766546152, 40.4657980789224], [-111.932385547284, 40.4681420773268], [-111.932290760648, 40.4686809640204], [-111.932153546582, 40.4694610777987], [-111.932072547289, 40.4698520784698], [-111.93200947298, 40.4700294483173], [-111.931087019066, 40.469975259618], [-111.930046984664, 40.4697320454847], [-111.92880266618, 40.4694895705872], [-111.928289577236, 40.4691143919041], [-111.927659606694, 40.4691036926133], [-111.926691672873, 40.4694972813312], [-111.925826034706, 40.469916494892], [-111.925043325412, 40.4699843480201], [-111.9243633232, 40.4701428361876], [-111.923936504863, 40.4699493550343], [-111.92238544854, 40.4696559127939], [-111.92224844468, 40.4701247892689], [-111.921833345763, 40.4706588442534], [-111.921181181443, 40.471199077507], [-111.920639300596, 40.4715312111239], [-111.919860220496, 40.4718482166856], [-111.918810523815, 40.4722483380226], [-111.917466691761, 40.4702447450127], [-111.914589443602, 40.472290186709], [-111.913006238372, 40.4737121354381], [-111.912233873179, 40.4743074334427], [-111.911318214121, 40.4751342324067], [-111.910732420928, 40.4761406558478], [-111.909609417228, 40.4774904396562], [-111.908566365386, 40.4790207177198], [-111.911535092584, 40.4789095300309], [-111.911525110504, 40.4792240914581], [-111.911480013281, 40.4806454027493], [-111.911473088168, 40.4833772993191], [-111.911853152788, 40.4843580083101], [-111.911746999769, 40.4861439155459], [-111.905462619604, 40.4861731869641], [-111.898863504797, 40.4861854214743], [-111.899182783117, 40.48608151996], [-111.899566218216, 40.4859145297516], [-111.899959928245, 40.4856858919935], [-111.900245553878, 40.4855314579156], [-111.900497276194, 40.4853811406453], [-111.900521269297, 40.4853655034868], [-111.899134268702, 40.4842199690578], [-111.89876373341, 40.4839139333798]]]}, "properties": {"PrecinctID": "BLF013", "VistaID": "BLF013", "CountyID": 18, "AliasName": null, "SubPrecinctID": null, "VersionNbr": null, "_county": "Salt Lake", "_intersect_frac": 0.984}}, {"type": "Feature", "geometry": {"type": "Polygon", "coordinates": [[[-111.957877908772, 40.4896796865504], [-111.957882382382, 40.4787004935068], [-111.967387565998, 40.4786852053255], [-111.967260608895, 40.483641159699], [-111.967334330936, 40.489721985524], [-111.957877908772, 40.4896796865504]]]}, "properties": {"PrecinctID": "BLF007", "VistaID": "BLF007", "CountyID": 18, "AliasName": null, "SubPrecinctID": null, "VersionNbr": null, "_county": "Salt Lake", "_intersect_frac": 1.0}}, {"type": "Feature", "geometry": {"type": "Polygon", "coordinates": [[[-111.938722551657, 40.5007092940049], [-111.938722551657, 40.5006677034779], [-111.938722552555, 40.5006590809901], [-111.938722551657, 40.5005820817076], [-111.938722552555, 40.5005090810821], [-111.938722552555, 40.5004820810084], [-111.93872355238, 40.5004230820492], [-111.938707551589, 40.4998030809454], [-111.938697550644, 40.4993840813276], [-111.938671552502, 40.4982830819363], [-111.938671550705, 40.4982720812643], [-111.938691550797, 40.4979450816395], [-111.938729550431, 40.4973270810106], [-111.938735551178, 40.497156080219], [-111.938753551619, 40.4966440807798], [-111.938760550394, 40.4964740803847], [-111.938759551467, 40.4959580808234], [-111.938759551467, 40.4958000812338], [-111.938757550021, 40.4944400816956], [-111.938757550919, 40.4944120817932], [-111.938760550394, 40.4938970808464], [-111.938761551117, 40.4937610805985], [-111.938763551665, 40.4933550805194], [-111.938765551315, 40.4932200813589], [-111.938765550417, 40.493181080807], [-111.93876655114, 40.4930650805203], [-111.938767550965, 40.4930270807009], [-111.938783550858, 40.492788080444], [-111.938821551391, 40.492539080603], [-111.938878550394, 40.4923030804248], [-111.93889055009, 40.4922560808663], [-111.93895855076, 40.4920450801314], [-111.939027550357, 40.4918720805945], [-111.939751551154, 40.4902830807934], [-111.939814550005, 40.4901460798703], [-111.940068551346, 40.4896210798074], [-111.939562551906, 40.4896480794697], [-111.939133552459, 40.4895880810404], [-111.939053550297, 40.4894670797295], [-111.939029550007, 40.4893060799844], [-111.939024549086, 40.4889430793373], [-111.939007550266, 40.4884560798079], [-111.939040551674, 40.4881470805719], [-111.939057551393, 40.4879870799243], [-111.939107550723, 40.4876510794405], [-111.939105551073, 40.4874910803432], [-111.939095550129, 40.4871880793892], [-111.939081550784, 40.4870180803158], [-111.939076549863, 40.486951079976], [-111.939053550297, 40.4863720782702], [-111.939000551491, 40.4858720801177], [-111.938991550372, 40.485777079911], [-111.93889254974, 40.4849800788645], [-111.938817549397, 40.4843770796846], [-111.938800549678, 40.4842360799719], [-111.938478549463, 40.484076079566], [-111.938495549181, 40.4840310795753], [-111.93855055123, 40.4838960794222], [-111.938569551496, 40.4838520795869], [-111.938671549807, 40.4837090795815], [-111.938755549472, 40.4834930799464], [-111.938780549587, 40.4834310795495], [-111.939055550845, 40.4827630789143], [-111.939301549095, 40.48240507853], [-111.93941855017, 40.4822360792578], [-111.939434550063, 40.4822130791825], [-111.939600550643, 40.4821620788685], [-111.93971954957, 40.4822400804584], [-111.939935550379, 40.4823720796314], [-111.940093549664, 40.4825250779287], [-111.940209551812, 40.4826850792986], [-111.940309548676, 40.4828220790539], [-111.940783550125, 40.4838430798344], [-111.941057549762, 40.4843870789503], [-111.941265551072, 40.4848650790107], [-111.941276551841, 40.484876079831], [-111.941388550198, 40.4849850801608], [-111.942006551587, 40.4852100800308], [-111.942261550957, 40.4846430794603], [-111.943030551061, 40.4829420790737], [-111.94319355037, 40.4825840789608], [-111.943281884406, 40.4824074111913], [-111.943470639312, 40.4824131717848], [-111.945693209666, 40.4824809658229], [-111.946534293283, 40.4823672838029], [-111.948354408508, 40.4823606335958], [-111.948280872419, 40.4896784390466], [-111.957877908772, 40.4896796865504], [-111.9578736283, 40.500183369042], [-111.957873489959, 40.5005264893512], [-111.957720556274, 40.5005260801869], [-111.957697156059, 40.5005260521806], [-111.956917224356, 40.5005251259255], [-111.953558555561, 40.5005210793657], [-111.953521731821, 40.500520986467], [-111.953165556099, 40.5005200807042], [-111.952621554329, 40.5005200807042], [-111.951546553904, 40.5005180806489], [-111.950477555122, 40.5005180806489], [-111.949796554882, 40.5005150812488], [-111.949353553394, 40.500514080538], [-111.948514554767, 40.5005130805102], [-111.948282553166, 40.5005510808715], [-111.94826255577, 40.5005540809531], [-111.94824855373, 40.5005560810074], [-111.948248557323, 40.5005558760838], [-111.948249552656, 40.5005080803712], [-111.948249554453, 40.5003950812283], [-111.948254554476, 40.5002090802599], [-111.948262553973, 40.5000300810702], [-111.948264554521, 40.4999040806444], [-111.947688553863, 40.49989908046], [-111.947568554212, 40.4998980804231], [-111.947569554037, 40.4995870798275], [-111.947569553139, 40.4993550807111], [-111.947540553725, 40.4992920819431], [-111.94679955321, 40.4992910818971], [-111.946802553583, 40.498471080847], [-111.946805553058, 40.4977640803701], [-111.944701553135, 40.4977590807093], [-111.944699552587, 40.4980910815603], [-111.944692552914, 40.4987170810532], [-111.944675553196, 40.5004960827683], [-111.944674553371, 40.5006750813976], [-111.944674553371, 40.5007910808229], [-111.944674552473, 40.5008450848092], [-111.944674553371, 40.5008500828739], [-111.944456552913, 40.5008600803682], [-111.944187552401, 40.5008730806607], [-111.943498553561, 40.5008940804448], [-111.942911553032, 40.500896080489], [-111.942337552023, 40.5008900810394], [-111.941686553717, 40.5008770814333], [-111.940820553528, 40.500832081779], [-111.940323553411, 40.5008120819988], [-111.939988553675, 40.5008000824011], [-111.939330552103, 40.5007680809587], [-111.938957001167, 40.5007379764053], [-111.938722553454, 40.5007190811326], [-111.938722551657, 40.5007092940049]]]}, "properties": {"PrecinctID": "BLF002", "VistaID": "BLF002", "CountyID": 18, "AliasName": null, "SubPrecinctID": null, "VersionNbr": null, "_county": "Salt Lake", "_intersect_frac": 0.99}}, {"type": "Feature", "geometry": {"type": "Polygon", "coordinates": [[[-111.911535092584, 40.4789095300309], [-111.908566365386, 40.4790207177198], [-111.909609417228, 40.4774904396562], [-111.910732420928, 40.4761406558478], [-111.911318214121, 40.4751342324067], [-111.912233873179, 40.4743074334427], [-111.913006238372, 40.4737121354381], [-111.914589443602, 40.472290186709], [-111.917466691761, 40.4702447450127], [-111.918810523815, 40.4722483380226], [-111.919845729772, 40.4737982985409], [-111.920141301552, 40.4748116498979], [-111.920209966976, 40.4752834560522], [-111.920180850781, 40.4770441203765], [-111.920171053754, 40.4784556163829], [-111.920122304879, 40.4791894059875], [-111.914262714655, 40.47921311636], [-111.91427397863, 40.4789002337473], [-111.911535092584, 40.4789095300309]]]}, "properties": {"PrecinctID": "BLF011", "VistaID": "BLF011", "CountyID": 18, "AliasName": null, "SubPrecinctID": null, "VersionNbr": null, "_county": "Salt Lake", "_intersect_frac": 1.0}}, {"type": "Feature", "geometry": {"type": "Polygon", "coordinates": [[[-111.931633423829, 40.4987174348976], [-111.931607183141, 40.4987460307132], [-111.931604428008, 40.4987443414141], [-111.931436062164, 40.4986410994072], [-111.931178368747, 40.4984791045376], [-111.930932348937, 40.4983540712022], [-111.930685155927, 40.4982263503092], [-111.930437999748, 40.4981030748115], [-111.930237086145, 40.4980024590383], [-111.930188455847, 40.4979781063535], [-111.929940080654, 40.4978557683043], [-111.929677863321, 40.4977506627798], [-111.929406311593, 40.497659151627], [-111.929324464291, 40.4976239332947], [-111.929181905249, 40.4975626386246], [-111.928942774619, 40.4974690867655], [-111.92870830355, 40.4973957760358], [-111.928433928417, 40.4973125088741], [-111.92786084908, 40.4971646717339], [-111.927456562287, 40.4970868186469], [-111.926957010954, 40.4970010181121], [-111.926766870846, 40.4969665754531], [-111.926494427092, 40.4969386893191], [-111.926195521664, 40.4969109555084], [-111.925915603028, 40.4968946256243], [-111.925609238889, 40.4968813000807], [-111.92543687644, 40.4968746301352], [-111.925336905627, 40.4968707595991], [-111.925030664557, 40.496877635163], [-111.924622254496, 40.4968762060841], [-111.922958500928, 40.4968851323617], [-111.921097162015, 40.4968985508083], [-111.920020791658, 40.4969062993912], [-111.919924341343, 40.4969066669075], [-111.91992391105, 40.49683929936], [-111.920018313206, 40.4963992131013], [-111.921023241447, 40.4962706188721], [-111.921536350154, 40.4960366545505], [-111.921814140681, 40.4955714170388], [-111.921552573728, 40.4948760027421], [-111.921317485516, 40.4946804402959], [-111.921408831604, 40.4943230049041], [-111.92178325211, 40.4943573689925], [-111.92201558429, 40.4941065584942], [-111.921591522882, 40.4936081366062], [-111.921283962187, 40.4930378725042], [-111.921725892882, 40.492643466044], [-111.922611616481, 40.4921581821497], [-111.923428716877, 40.4919231117879], [-111.924201256343, 40.4920453048928], [-111.924835033946, 40.4924179691587], [-111.925655023324, 40.4926471120646], [-111.926145482808, 40.4925381965936], [-111.926633150328, 40.4919829093282], [-111.927330398397, 40.4912840084992], [-111.927704358066, 40.491246933371], [-111.928430127646, 40.4913692698071], [-111.929037391473, 40.4912420596116], [-111.930178946281, 40.4905415155323], [-111.930293176951, 40.4901125689728], [-111.930078989841, 40.4895241289316], [-111.930567844036, 40.4891652272653], [-111.931269533375, 40.4891805007623], [-111.931669459747, 40.4895539898354], [-111.932230949918, 40.489587630818], [-111.933234280056, 40.4892268179145], [-111.935215705756, 40.4882195747297], [-111.936217858202, 40.4876801855478], [-111.936331135759, 40.4871083919075], [-111.936014849728, 40.4864881413681], [-111.93594727396, 40.4863556214747], [-111.936027548313, 40.4863490809785], [-111.936106549752, 40.4863430809114], [-111.936125550019, 40.4863420806724], [-111.936247551116, 40.4863350796824], [-111.936308550317, 40.4863310794091], [-111.936707549626, 40.48630907961], [-111.936860548889, 40.486307079131], [-111.937044550809, 40.4863060782082], [-111.937236550429, 40.4863050793351], [-111.937296550704, 40.4863050793351], [-111.937566549244, 40.48630907961], [-111.937595551353, 40.48630907961], [-111.938055548965, 40.4863160799195], [-111.938308550482, 40.4863200801937], [-111.93845855027, 40.4863220799891], [-111.93888855044, 40.4863280793748], [-111.938907549808, 40.4863330798874], [-111.939053550297, 40.4863720782702], [-111.939076549863, 40.486951079976], [-111.939081550784, 40.4870180803158], [-111.939095550129, 40.4871880793892], [-111.939105551073, 40.4874910803432], [-111.939107550723, 40.4876510794405], [-111.939057551393, 40.4879870799243], [-111.939040551674, 40.4881470805719], [-111.939007550266, 40.4884560798079], [-111.939024549086, 40.4889430793373], [-111.939029550007, 40.4893060799844], [-111.939053550297, 40.4894670797295], [-111.939133552459, 40.4895880810404], [-111.939562551906, 40.4896480794697], [-111.940068551346, 40.4896210798074], [-111.939814550005, 40.4901460798703], [-111.939751551154, 40.4902830807934], [-111.939027550357, 40.4918720805945], [-111.93895855076, 40.4920450801314], [-111.93889055009, 40.4922560808663], [-111.938878550394, 40.4923030804248], [-111.938821551391, 40.492539080603], [-111.938783550858, 40.492788080444], [-111.938767550965, 40.4930270807009], [-111.93876655114, 40.4930650805203], [-111.938765550417, 40.493181080807], [-111.938765551315, 40.4932200813589], [-111.938763551665, 40.4933550805194], [-111.938761551117, 40.4937610805985], [-111.938760550394, 40.4938970808464], [-111.938757550919, 40.4944120817932], [-111.938757550021, 40.4944400816956], [-111.938759551467, 40.4958000812338], [-111.938759551467, 40.4959580808234], [-111.938760550394, 40.4964740803847], [-111.938753551619, 40.4966440807798], [-111.938735551178, 40.497156080219], [-111.938729550431, 40.4973270810106], [-111.938691550797, 40.4979450816395], [-111.938671550705, 40.4982720812643], [-111.938671552502, 40.4982830819363], [-111.938697550644, 40.4993840813276], [-111.938707551589, 40.4998030809454], [-111.93872355238, 40.5004230820492], [-111.938722552555, 40.5004820810084], [-111.938722552555, 40.5005090810821], [-111.938722551657, 40.5005820817076], [-111.938722552555, 40.5006590809901], [-111.938722551657, 40.5006677034779], [-111.938596695889, 40.5006613481246], [-111.937516183401, 40.5006067797678], [-111.937159210873, 40.5005835482769], [-111.936372357651, 40.5004861706046], [-111.935356951461, 40.5002656121166], [-111.934075961053, 40.4999109429188], [-111.933402038638, 40.4996108444724], [-111.933364923844, 40.499594318516], [-111.933303959677, 40.4995666377178], [-111.933178846816, 40.4995098306701], [-111.933015303129, 40.4994355774568], [-111.932767366314, 40.499312505693], [-111.932575887716, 40.4992174589358], [-111.932247442987, 40.4990432346602], [-111.932135665616, 40.4989839400218], [-111.931633423829, 40.4987174348976]]]}, "properties": {"PrecinctID": "BLF004", "VistaID": "BLF004", "CountyID": 18, "AliasName": null, "SubPrecinctID": null, "VersionNbr": null, "_county": "Salt Lake", "_intersect_frac": 1.0}}, {"type": "Feature", "geometry": {"type": "Polygon", "coordinates": [[[-111.967177956703, 40.5009026769456], [-111.966222558872, 40.5008990791889], [-111.96617355757, 40.5008980791669], [-111.966026557257, 40.5008980791669], [-111.965977556853, 40.5008980791669], [-111.965898556312, 40.5008970791449], [-111.965661558282, 40.500897079828], [-111.965583557566, 40.5008970791449], [-111.964480557551, 40.5008930790565], [-111.964190557123, 40.5008920790345], [-111.963510557606, 40.5008460800505], [-111.96269055655, 40.5007570800111], [-111.962647774285, 40.500750972623], [-111.961548557974, 40.5005940813444], [-111.961194555276, 40.5005470793965], [-111.961102556113, 40.5005350811175], [-111.957873489959, 40.5005264893512], [-111.9578736283, 40.500183369042], [-111.957877908772, 40.4896796865504], [-111.967334330936, 40.489721985524], [-111.967260608895, 40.483641159699], [-111.967387565998, 40.4786852053255], [-111.969504731629, 40.4786816979399], [-111.969583934291, 40.4785584931315], [-111.969761555477, 40.4786250761517], [-111.969886797696, 40.478672182285], [-111.97088355486, 40.4790470772968], [-111.971052555813, 40.4791530771708], [-111.971236555936, 40.4794340768134], [-111.97188155709, 40.4809920769403], [-111.971955557608, 40.4811290774177], [-111.9726955574, 40.4822220771037], [-111.972742557256, 40.482293076529], [-111.973241557023, 40.4830280765987], [-111.973459557481, 40.4832700762567], [-111.974141556648, 40.4838260771862], [-111.974552556552, 40.484148077302], [-111.974857557049, 40.4843220772055], [-111.976020558236, 40.4848320765388], [-111.976708558149, 40.485071077118], [-111.977905558774, 40.4854480762789], [-111.978245557634, 40.4855730762727], [-111.978670557782, 40.4856780765247], [-111.978859558826, 40.4856990776486], [-111.978984557601, 40.4857270770872], [-111.979084558957, 40.4857840761767], [-111.979130558988, 40.4858630758535], [-111.979097557579, 40.4859630771618], [-111.979024558682, 40.4861210766844], [-111.978862558301, 40.4864040763307], [-111.978866558499, 40.486535075961], [-111.978928557525, 40.4866640762337], [-111.97974155801, 40.4876630772907], [-111.980495558943, 40.4887050763529], [-111.980543386147, 40.4887751636826], [-111.981030558696, 40.4894890764439], [-111.981179559557, 40.4897080771621], [-111.981255559725, 40.4898520775537], [-111.981621560321, 40.4909810779574], [-111.98175656004, 40.4912530771493], [-111.98204855922, 40.4916130778004], [-111.98253156089, 40.4921650786913], [-111.982653559292, 40.4922720764463], [-111.98279255921, 40.4923600773452], [-111.982859560055, 40.4923820778934], [-111.983136559166, 40.4925100770277], [-111.984136560147, 40.4926030769766], [-111.984639559214, 40.4926140765287], [-111.985172559317, 40.4925700776266], [-111.985467560666, 40.4926900766139], [-111.985933560821, 40.4929270769382], [-111.986006561515, 40.4929650768143], [-111.986999561026, 40.4935460772382], [-111.987215561835, 40.4936450778988], [-111.987755560712, 40.494029075539], [-111.987949562677, 40.4942540778799], [-111.98806556213, 40.4944900766614], [-111.988101561216, 40.4946280783953], [-111.988288560814, 40.4948200770683], [-111.98840356134, 40.4949680778622], [-111.98856956192, 40.4951270774697], [-111.988878561716, 40.4953140769211], [-111.989130560713, 40.4954840775228], [-111.989238560668, 40.4955440768286], [-111.989548562086, 40.4957360776624], [-111.990008561495, 40.4961590772084], [-111.990622200666, 40.4969850086308], [-111.990774563023, 40.4971900773911], [-111.991175561983, 40.4977290772718], [-111.991241563003, 40.4978240776371], [-111.991377561649, 40.4980200776709], [-111.991571561818, 40.4982560775511], [-111.991780562953, 40.4985250778206], [-111.99196056198, 40.4986570763877], [-111.991974562224, 40.4986900768427], [-111.991873561941, 40.4988870757647], [-111.991514563713, 40.4995140781192], [-111.991428563499, 40.4997330782242], [-111.991414562357, 40.4997740784607], [-111.991341563461, 40.5000070788958], [-111.991420563103, 40.5001660774911], [-111.991449563416, 40.5002380777749], [-111.991571563614, 40.500430076788], [-111.991608563424, 40.5004800782196], [-111.99154156168, 40.5004800775365], [-111.991340562737, 40.5004810775647], [-111.991274563513, 40.5004820769099], [-111.991086564091, 40.5004830783043], [-111.990522564026, 40.5004870770509], [-111.990335562632, 40.5004890777902], [-111.989576562573, 40.5004990780707], [-111.989003563186, 40.5005050782383], [-111.988658562506, 40.5005100776945], [-111.988571563366, 40.5005100783776], [-111.988312563798, 40.5005100770114], [-111.988226561788, 40.5005110784054], [-111.987830561953, 40.5005120777501], [-111.986641561724, 40.5005150785165], [-111.986246560816, 40.5005170778888], [-111.985536561161, 40.500517079255], [-111.984950938648, 40.5005170819873], [-111.983406560401, 40.5005170785719], [-111.982696562543, 40.5005170778888], [-111.982556561903, 40.5005160785442], [-111.982139560355, 40.5005160778611], [-111.982000561336, 40.5005160785442], [-111.981741559972, 40.5005150791996], [-111.981542604696, 40.5005150791996], [-111.980964561268, 40.5005150778334], [-111.980706561525, 40.5005150785165], [-111.980332560533, 40.5005140784887], [-111.979210560252, 40.5005130777779], [-111.978837559983, 40.500513079144], [-111.978420560231, 40.5005120791163], [-111.977169560079, 40.5005100790607], [-111.976753559254, 40.5005100790607], [-111.976748560129, 40.5009090794083], [-111.976738560083, 40.5018370782524], [-111.976737560258, 40.5019330789546], [-111.976737558462, 40.5021080785152], [-111.976737558462, 40.5022970790032], [-111.976737560258, 40.5025074020077], [-111.976737262018, 40.5025072531008], [-111.976680470526, 40.5024791021938], [-111.976605560014, 40.5024410790176], [-111.976454934999, 40.5023628939388], [-111.975871559172, 40.5020600789895], [-111.975853604544, 40.5020534163895], [-111.974537559178, 40.5015650782488], [-111.974222757163, 40.5014845881567], [-111.974204317445, 40.50147987293], [-111.974138430511, 40.5014630263914], [-111.973831557027, 40.5013845621631], [-111.973616642282, 40.501329611192], [-111.97321955818, 40.5012280794771], [-111.972447559499, 40.5010650792225], [-111.971758559761, 40.5009860796816], [-111.971737558048, 40.5009840796401], [-111.971447559417, 40.5009510782643], [-111.970594558749, 40.5009000785278], [-111.969417558216, 40.500911078769], [-111.967177956703, 40.5009026769456]]]}, "properties": {"PrecinctID": "BLF001", "VistaID": "BLF001", "CountyID": 18, "AliasName": null, "SubPrecinctID": null, "VersionNbr": null, "_county": "Salt Lake", "_intersect_frac": 0.993}}, {"type": "Feature", "geometry": {"type": "Polygon", "coordinates": [[[-111.932290760648, 40.4686809640204], [-111.932385547284, 40.4681420773268], [-111.932766546152, 40.4657980789224], [-111.932866545711, 40.4652480789492], [-111.932982546062, 40.4646310778267], [-111.933083546344, 40.4640900789004], [-111.933138110015, 40.4637535138786], [-111.933214542272, 40.4632820777973], [-111.933272544694, 40.4628470772185], [-111.933283546361, 40.4627680771128], [-111.933289547107, 40.4626940771371], [-111.933295545158, 40.4626200777634], [-111.933308544679, 40.462467077165], [-111.933204547616, 40.4623550781276], [-111.933145544472, 40.4622170777021], [-111.933103546436, 40.4621190777627], [-111.933096545865, 40.46165207758], [-111.933010546549, 40.4614050769156], [-111.932992546108, 40.4613360771295], [-111.932938545681, 40.4611140763263], [-111.932892544752, 40.461057078163], [-111.932930547082, 40.4609140767663], [-111.932928545635, 40.460799077382], [-111.932868546259, 40.4606700766199], [-111.932749546433, 40.4605420776004], [-111.932354545525, 40.4602860781464], [-111.932325544314, 40.4602690777343], [-111.931914544411, 40.4600250772956], [-111.931732543937, 40.4596330782423], [-111.931388543981, 40.4592670772044], [-111.931184545563, 40.4591000770301], [-111.9306775454, 40.458795076504], [-111.930451546342, 40.4584630767529], [-111.930242544308, 40.4579320764684], [-111.930237546082, 40.4579230773426], [-111.929927544664, 40.4573220770967], [-111.929798543894, 40.4569840755779], [-111.929790544397, 40.4569400765614], [-111.92974954349, 40.4567110769744], [-111.929359544401, 40.4558520768661], [-111.929113544354, 40.4555600775], [-111.929022544118, 40.4555230769701], [-111.928871544505, 40.4554620767355], [-111.92869154458, 40.4554560759586], [-111.928478545043, 40.4555180768969], [-111.92795354354, 40.4557260755256], [-111.927582543819, 40.4557640773218], [-111.927333544297, 40.4557390770419], [-111.927103544143, 40.4556160775798], [-111.926974543373, 40.4554130780084], [-111.926876543464, 40.4549730769432], [-111.926808545488, 40.4545580764595], [-111.926730542976, 40.4542890770168], [-111.926599542556, 40.4541590780742], [-111.92578654297, 40.4537040770601], [-111.925506542587, 40.453699076168], [-111.925342542556, 40.453671077044], [-111.92518254362, 40.4536440772673], [-111.924941543596, 40.4533820772254], [-111.924817542849, 40.452927077102], [-111.924612541013, 40.4526750775693], [-111.924326542579, 40.4524890755991], [-111.924312543234, 40.4524360758291], [-111.92429854299, 40.4523820766396], [-111.924277542175, 40.4523040765944], [-111.924212543675, 40.4522240770149], [-111.923999543239, 40.4519590787528], [-111.923783541533, 40.451662077831], [-111.923675543374, 40.4515030764389], [-111.923548544051, 40.451329076935], [-111.9234325437, 40.4511670765676], [-111.923150541871, 40.4507730769303], [-111.922764542082, 40.4502790767307], [-111.922486542247, 40.4498720781248], [-111.922289542604, 40.449631077832], [-111.922177541553, 40.4494490760596], [-111.921980541011, 40.4490100763855], [-111.921857542784, 40.4484770763526], [-111.921826541025, 40.4481590765782], [-111.921868541756, 40.447760076429], [-111.921922543081, 40.44746207664], [-111.922112542154, 40.4469200767197], [-111.922137540471, 40.4468560757646], [-111.922332542262, 40.4463700766917], [-111.922741542516, 40.445366077747], [-111.922830541306, 40.4449600769058], [-111.922832540956, 40.4449420765457], [-111.92285354177, 40.4447800771896], [-111.922841541176, 40.4443740769107], [-111.922803540643, 40.444156076857], [-111.922760541884, 40.4439410766573], [-111.922698541061, 40.4437560759985], [-111.922662541076, 40.4436690758453], [-111.922556542568, 40.4434120761731], [-111.92251054074, 40.4433300765551], [-111.9224805424, 40.4432770763986], [-111.922466540359, 40.4432550761665], [-111.922457541037, 40.4432400766257], [-111.922426541075, 40.4431890747436], [-111.922413542453, 40.4431670751664], [-111.922372540648, 40.4431110749672], [-111.922249541523, 40.4429430761406], [-111.922208540616, 40.4428880766411], [-111.9220655414, 40.442708076162], [-111.921980541909, 40.4426190762901], [-111.92193454098, 40.4425700757189], [-111.921830540325, 40.4424640755329], [-111.921668540841, 40.442325076429], [-111.921536541495, 40.4422140754773], [-111.921394541205, 40.4421220756768], [-111.921231539202, 40.4420340766118], [-111.921141539688, 40.4419900753269], [-111.921103446629, 40.4419713303332], [-111.920826540942, 40.4418350772214], [-111.920935539824, 40.4417480759493], [-111.920954541887, 40.4417330760722], [-111.921049541423, 40.4416570764156], [-111.921113540099, 40.4416060767508], [-111.921146539711, 40.4415790769126], [-111.92121854058, 40.4415210756282], [-111.921387541532, 40.441386076158], [-111.921402539804, 40.4413730745995], [-111.921489541639, 40.4413030752097], [-111.921598541419, 40.4412160766675], [-111.921676541237, 40.4411530759789], [-111.921757541428, 40.44108807614], [-111.921944540128, 40.4409380750621], [-111.922057541004, 40.4408470757993], [-111.923194541354, 40.4399350752196], [-111.923618541676, 40.4395940764226], [-111.923629540649, 40.4395850755247], [-111.923799542325, 40.4394490753314], [-111.923950540141, 40.4393270750245], [-111.92462954163, 40.4387820757188], [-111.925324541216, 40.438224075981], [-111.92556154194, 40.4380330757163], [-111.926220541541, 40.4375030749498], [-111.926260540826, 40.4374700758669], [-111.92679454255, 40.4370390747963], [-111.927628542053, 40.4363680753736], [-111.929417541433, 40.4349280742764], [-111.929668540605, 40.4347250737517], [-111.930066540988, 40.4344050738996], [-111.930179540966, 40.4342780744101], [-111.930344542619, 40.4340810739251], [-111.930795541807, 40.4337650757805], [-111.93116454098, 40.4336170727201], [-111.931364541895, 40.4335080744852], [-111.931754541882, 40.4332200751495], [-111.931846541045, 40.4331650745331], [-111.932085542318, 40.4330210742849], [-111.932240541231, 40.4329330728798], [-111.93286054227, 40.4325860740414], [-111.932983541395, 40.432522073798], [-111.93309854282, 40.4324810741977], [-111.933283541869, 40.4324160741797], [-111.933556542579, 40.4321880734409], [-111.93403654208, 40.4319140735758], [-111.934520541778, 40.4316130735401], [-111.935152542513, 40.4312560737071], [-111.935380542119, 40.4311320741893], [-111.935575543011, 40.4310170737539], [-111.936157542619, 40.4306360731479], [-111.936273542072, 40.430605073517], [-111.936895540964, 40.4303560735143], [-111.93702654318, 40.4302820734016], [-111.937356542893, 40.4299680739216], [-111.937684543855, 40.4297900724677], [-111.93793154193, 40.4296620734359], [-111.938155542236, 40.4295740724217], [-111.938075542769, 40.4298130734004], [-111.936956055973, 40.432673232813], [-111.936397543717, 40.4341000734244], [-111.936712542463, 40.4347890739495], [-111.936714542113, 40.435220074401], [-111.938575543259, 40.435215073501], [-111.938578543632, 40.4354570738321], [-111.938603542848, 40.437158074973], [-111.938610543419, 40.4376580748387], [-111.938611543244, 40.4377240748549], [-111.938631543336, 40.4389580740432], [-111.938633543884, 40.439138074308], [-111.938659543823, 40.4419240753966], [-111.938663544021, 40.4423510743896], [-111.9346435427, 40.4424090749578], [-111.934338544899, 40.4424190756873], [-111.933348542167, 40.442434076095], [-111.933363544032, 40.4424660745835], [-111.933390543796, 40.4425240750525], [-111.933470543264, 40.4426980761592], [-111.933791544552, 40.4433970753], [-111.933899544507, 40.4436300752214], [-111.934369543064, 40.4446520752447], [-111.934914542862, 40.4458330762795], [-111.935795545814, 40.4477120749511], [-111.936273543868, 40.4487310754526], [-111.936312544226, 40.448817076459], [-111.936432543877, 40.4490750760836], [-111.936472545857, 40.4491620753919], [-111.936642544838, 40.4495250751094], [-111.937154545024, 40.4506150762568], [-111.937325544728, 40.4509790764112], [-111.937504546625, 40.4513610752904], [-111.938042545852, 40.4525080753646], [-111.938068544893, 40.4525620771871], [-111.938222544878, 40.4528910758594], [-111.938333547003, 40.4531280772479], [-111.938667546914, 40.4538410764772], [-111.938779546169, 40.4540790766018], [-111.939512545389, 40.4556430765641], [-111.939724546898, 40.4560920767152], [-111.942576548805, 40.4621260764938], [-111.942695547732, 40.462378076804], [-111.942817548829, 40.4626600775273], [-111.942943546531, 40.462947077271], [-111.943183547629, 40.4634230764094], [-111.94338254782, 40.4638740769724], [-111.94349854907, 40.4641510767688], [-111.943562548644, 40.4643040776322], [-111.943649548682, 40.4645100766361], [-111.943780548204, 40.4647520774324], [-111.943852548174, 40.4648830769406], [-111.943863547146, 40.4648970772433], [-111.94398054822, 40.4651590774888], [-111.944019549477, 40.4652440774194], [-111.944119548137, 40.4654600763086], [-111.944344548268, 40.4659400775801], [-111.944466549365, 40.4662010766353], [-111.944730548956, 40.4667660767665], [-111.944947548691, 40.4672280763643], [-111.945526547926, 40.4684610752953], [-111.945792548963, 40.4690270780969], [-111.945908549314, 40.469275077196], [-111.946257549293, 40.4700190778827], [-111.946374549469, 40.470268077214], [-111.946438549942, 40.4704180770655], [-111.946495548945, 40.47054907714], [-111.946615548595, 40.4708780772542], [-111.9466565504, 40.4709900777977], [-111.946669549022, 40.4710330787622], [-111.946720550872, 40.4712130771766], [-111.946773549677, 40.4714260766702], [-111.946865550637, 40.4718730763465], [-111.946870376387, 40.4719368013098], [-111.946690328851, 40.4719363865042], [-111.946420253056, 40.4719357646376], [-111.943704239914, 40.4719294714831], [-111.94097014099, 40.4717671709014], [-111.94047424041, 40.4713453187612], [-111.940245372134, 40.4709067676219], [-111.940014995586, 40.4702328219553], [-111.939600293725, 40.4696537279859], [-111.938691441202, 40.4689195519209], [-111.937537945987, 40.4684844539045], [-111.936241738117, 40.4682225028512], [-111.935748892708, 40.4682714184278], [-111.93536018899, 40.4685396490948], [-111.935198106861, 40.468901197143], [-111.93402452891, 40.4687378313352], [-111.932290760648, 40.4686809640204]]]}, "properties": {"PrecinctID": "BLF012", "VistaID": "BLF012", "CountyID": 18, "AliasName": null, "SubPrecinctID": null, "VersionNbr": null, "_county": "Salt Lake", "_intersect_frac": 0.997}}, {"type": "Feature", "geometry": {"type": "Polygon", "coordinates": [[[-111.912000307612, 40.4480489520819], [-111.912415962585, 40.4479287017119], [-111.912416577033, 40.4479292198915], [-111.912417504992, 40.4479282546282], [-111.912425818002, 40.4479258489896], [-111.912422501422, 40.4479230536909], [-111.913115544477, 40.4472017205321], [-111.914444785196, 40.4476865015391], [-111.914665865978, 40.4473326359966], [-111.915345569949, 40.4475807145069], [-111.915532211119, 40.4473256227356], [-111.915533996072, 40.4473233831953], [-111.915535776533, 40.4473209775351], [-111.91553755879, 40.4473185657223], [-111.915539338353, 40.4473161600619], [-111.915541123305, 40.4473137502997], [-111.915542905563, 40.4473115148607], [-111.915544686024, 40.4473091050984], [-111.915546921032, 40.4473066967032], [-111.915548700595, 40.4473044598967], [-111.915550481954, 40.447302052185], [-111.915552264211, 40.4472996417387], [-111.915554049164, 40.4472974069828], [-111.915556278782, 40.4472949965363], [-111.91555806104, 40.4472927597294], [-111.915559845094, 40.4472903506501], [-111.915562076509, 40.4472881131594], [-111.915563858767, 40.4472858756687], [-111.91556609108, 40.447283466589], [-111.915567874236, 40.4472812290982], [-111.915569655595, 40.4472789929744], [-111.915571888807, 40.4472765845781], [-111.915573671065, 40.447274347087], [-111.915575901581, 40.4472721095958], [-111.915578132997, 40.4472698686865], [-111.915579917051, 40.4472676346132], [-111.915582148466, 40.4472653943873], [-111.915583930723, 40.4472631596303], [-111.915586164834, 40.4472609200879], [-111.915588396249, 40.4472586819126], [-111.915590625867, 40.4472564416864], [-111.915592412616, 40.4472542069291], [-111.915594643133, 40.4472519673864], [-111.915596874548, 40.4472497298944], [-111.915599109557, 40.447247664675], [-111.915601339175, 40.447245425132], [-111.915603123229, 40.4472431896907], [-111.91560535734, 40.4472411217365], [-111.915607588755, 40.4472388842442], [-111.91560982017, 40.447236644701], [-111.915612055178, 40.4472345787975], [-111.915614285695, 40.4472323392541], [-111.915616521602, 40.4472302747177], [-111.915618753017, 40.4472282081304], [-111.915620984432, 40.4472259692704], [-111.915623221237, 40.4472239026829], [-111.915625900912, 40.4472218326773], [-111.915628129632, 40.4472195951843], [-111.915630367335, 40.4472175279131], [-111.915632598751, 40.447215462009], [-111.915634831064, 40.4472133967884], [-111.915637514332, 40.4472113267825], [-111.915639746645, 40.4472092601946], [-111.915641982552, 40.4472071922394], [-111.915644663125, 40.4472051256513], [-111.915646895438, 40.4472030597469], [-111.915649130447, 40.4472009911078], [-111.91565181102, 40.4471989245196], [-111.915654044231, 40.4471970274695], [-111.916372179927, 40.4466005191106], [-111.916368726803, 40.4460324753815], [-111.917702853459, 40.4460277241284], [-111.917702907358, 40.446027724812], [-111.917766282603, 40.4460274985293], [-111.917801873855, 40.4460273713735], [-111.917813811567, 40.4460273289882], [-111.917820479761, 40.446027305061], [-111.917820559711, 40.446027305061], [-111.917820542643, 40.4460273419772], [-111.917819534733, 40.4460294817502], [-111.917818595994, 40.4460314765929], [-111.917813272577, 40.4460427797887], [-111.917803144971, 40.4460642916779], [-111.917785254124, 40.4461022818474], [-111.917781512641, 40.4461102304455], [-111.917773240953, 40.4461277963861], [-111.917773046019, 40.4461281894749], [-111.917514616881, 40.4466770382036], [-111.91729843102, 40.4471361481975], [-111.917241646714, 40.4472567363271], [-111.917207987739, 40.4473282163912], [-111.916920220523, 40.4479393257598], [-111.916920004927, 40.4479397543859], [-111.916732769072, 40.4483373951351], [-111.916579169735, 40.4486635720538], [-111.915792931859, 40.4503331439183], [-111.915083909572, 40.4518386726885], [-111.91496211329, 40.4520972848141], [-111.914886538026, 40.4522577551597], [-111.913920758365, 40.4524473424022], [-111.913917068086, 40.4524480669846], [-111.913844079969, 40.4524623952574], [-111.913839848904, 40.4524632264762], [-111.913613455486, 40.4525076679583], [-111.913349772103, 40.4525594269974], [-111.913348229695, 40.4525451732542], [-111.913347036733, 40.4525342389112], [-111.913310506742, 40.4522002668817], [-111.913306677224, 40.4521652571116], [-111.913271936677, 40.451847642552], [-111.913271221618, 40.4518410986942], [-111.913248240018, 40.4517130910568], [-111.913158212657, 40.4513940846439], [-111.912966233697, 40.450821092628], [-111.91284921286, 40.4505640922754], [-111.91268523349, 40.4502650617604], [-111.912439211883, 40.4498430964477], [-111.912292244808, 40.4496120752024], [-111.911967219965, 40.4492030709725], [-111.911641261772, 40.4488300649565], [-111.911546210134, 40.4487210756623], [-111.911376232712, 40.448527089143], [-111.911197253273, 40.4483650840718], [-111.911126960103, 40.4483016081382], [-111.911127047239, 40.4483015835282], [-111.912000307612, 40.4480489520819]]]}, "properties": {"PrecinctID": "25NW04", "VistaID": "25NW04", "CountyID": 25, "AliasName": null, "SubPrecinctID": null, "VersionNbr": null, "_county": "Utah", "_intersect_frac": 0.027}}, {"type": "Feature", "geometry": {"type": "Polygon", "coordinates": [[[-111.920022983548, 40.4400173333134], [-111.919832396079, 40.4397574105478], [-111.919831013571, 40.4397555249104], [-111.919477401641, 40.4392732683617], [-111.919088237087, 40.4368331255765], [-111.919088103238, 40.436832282541], [-111.919189228386, 40.4364892571547], [-111.919189715273, 40.4364876025267], [-111.919348162818, 40.4359501341197], [-111.919348782656, 40.43594803505], [-111.919920008768, 40.4340103031877], [-111.921430373205, 40.4321381859325], [-111.9240249988, 40.4294601442588], [-111.925066531591, 40.4285312891771], [-111.925066653762, 40.4285311811349], [-111.925962183371, 40.4277325064494], [-111.927289009418, 40.4277255027686], [-111.930809412694, 40.4277068454296], [-111.931656849197, 40.4244922934432], [-111.931678182388, 40.4231272982622], [-111.932257784392, 40.4212366757467], [-111.932388189229, 40.420803032713], [-111.93250525049, 40.4204137613622], [-111.935488665143, 40.4203972220672], [-111.939925326652, 40.4203716669882], [-111.940218101976, 40.4203699743494], [-111.940515927629, 40.4203683418932], [-111.94072120974, 40.420367215519], [-111.940721243875, 40.420367215519], [-111.940721288791, 40.4203672162029], [-111.940691320993, 40.4206130293198], [-111.940424321928, 40.4228200295324], [-111.940332321866, 40.4236010293382], [-111.940229321934, 40.4244390295141], [-111.940229385715, 40.4244397126834], [-111.940288322384, 40.4250670300832], [-111.939687323408, 40.4256980309511], [-111.939168597535, 40.4267147317222], [-111.939112328862, 40.426825032037], [-111.939112292031, 40.4268251058906], [-111.93878132124, 40.427739030772], [-111.938351337239, 40.429028295894], [-111.938176221454, 40.4295533525677], [-111.938167412574, 40.4295800105483], [-111.938088553967, 40.4298186976425], [-111.937982296744, 40.4298797669664], [-111.937704166654, 40.430039621603], [-111.930086147617, 40.434417483993], [-111.929080276146, 40.435223795333], [-111.921712156743, 40.4411433382792], [-111.921702050696, 40.4411514583846], [-111.921701988713, 40.4411514891503], [-111.921699219207, 40.441150454054], [-111.921699143748, 40.4411504267067], [-111.921699084459, 40.4411504034615], [-111.921005533856, 40.4408915058196], [-111.920424411004, 40.4405647886719], [-111.920022983548, 40.4400173333134]]]}, "properties": {"PrecinctID": "25BL01", "VistaID": "25BL01", "CountyID": 25, "AliasName": null, "SubPrecinctID": null, "VersionNbr": null, "_county": "Utah", "_intersect_frac": 0.986}}]}