{"type":"FeatureCollection","features":[{"type":"Feature","id":1,"geometry":{"type":"Polygon","coordinates":[[[-111.885413241596,40.7126583428223],[-111.885362111446,40.7126581049323],[-111.882637790611,40.7126453974934],[-111.881285111466,40.7126556669463],[-111.880785910615,40.7126594256407],[-111.879749166654,40.7126611874694],[-111.878712474058,40.7126592074071],[-111.878434860877,40.7126574116986],[-111.878234526263,40.7126580564965],[-111.87790073148,40.7126591300916],[-111.87719043743,40.7126583503026],[-111.877001145561,40.7126556873092],[-111.877001548547,40.7125699140897],[-111.876881204259,40.7125703000045],[-111.876763476485,40.7125706774094],[-111.876751781217,40.7094174270863],[-111.876017778366,40.7094187536181],[-111.876017787555,40.7094187031605],[-111.876012878691,40.7078427419952],[-111.874009301128,40.7078463384684],[-111.874011731605,40.7086342940166],[-111.874011720049,40.7086343444816],[-111.874879178445,40.7086327912864],[-111.874881340251,40.7093301703058],[-111.8748813287,40.7093302216714],[-111.871263642158,40.709336655074],[-111.871183228051,40.7093367964802],[-111.871226342864,40.6998816814005],[-111.871341472848,40.6998819543365],[-111.871563653764,40.6998824794879],[-111.8715636631,40.6998824294154],[-111.871563813361,40.6998824706823],[-111.871573708891,40.6998851681151],[-111.871596769109,40.699885625137],[-111.871657645533,40.6998868316021],[-111.871973795251,40.6998887958503],[-111.872604228381,40.6998941541157],[-111.873096840586,40.6998896268043],[-111.874765963407,40.6998890932481],[-111.875729402734,40.699879264123],[-111.876941256144,40.6998832881603],[-111.877931543263,40.6998636401953],[-111.878810025958,40.6998688264039],[-111.879818438526,40.6998789658346],[-111.882714923667,40.699869569127],[-111.883421825848,40.6998645751587],[-111.884014362907,40.6998646711483],[-111.884962999279,40.6998651363076],[-111.885351444601,40.6998710547161],[-111.885491288057,40.6998813004286],[-111.886791547504,40.6998680807806],[-111.88792348735,40.6998368514669],[-111.888264901358,40.6998274299821],[-111.889820246371,40.6998060276073],[-111.891138201193,40.699787875726],[-111.891489662655,40.6997842335801],[-111.892235635977,40.6997879507485],[-111.89305593704,40.6997975614838],[-111.893996395477,40.6997807975817],[-111.896312728147,40.6998280293914],[-111.897359121566,40.6998490644029],[-111.897658719858,40.6998551418835],[-111.897659294172,40.6999332297542],[-111.897669239201,40.7012853981337],[-111.897667517333,40.7013611042225],[-111.897686832853,40.7014077535898],[-111.897765577998,40.701478357041],[-111.897871862311,40.7015585287546],[-111.89793571262,40.7016227582924],[-111.897959358354,40.7016822404873],[-111.897968368281,40.7017675717721],[-111.897966220702,40.7024364748969],[-111.897958344343,40.7038778248187],[-111.897714306278,40.7038879828275],[-111.897623333862,40.7038871101266],[-111.897542649853,40.7038860689593],[-111.897079650071,40.7038810697093],[-111.896926649011,40.7038800693145],[-111.896340649206,40.7038790689196],[-111.894582648889,40.7038780692057],[-111.894207692721,40.7038780699782],[-111.893997384196,40.7038780698877],[-111.893983012292,40.7046490604484],[-111.893982472287,40.7046780290367],[-111.893982474403,40.7046780697772],[-111.893984575097,40.7047185091405],[-111.894004471629,40.7051015244623],[-111.893992154801,40.7059556216599],[-111.893990649236,40.7060780701261],[-111.893991648162,40.7063230691193],[-111.893991325404,40.7063230691205],[-111.893725648922,40.7063230698003],[-111.893218648759,40.7063240694775],[-111.892927649404,40.7063240694775],[-111.892661650163,40.7063240694775],[-111.892596648968,40.7063240694775],[-111.892449648655,40.7063120699455],[-111.892357648593,40.7063200707687],[-111.892303649065,40.7063250698356],[-111.891901648484,40.7063250698356],[-111.891444648549,40.7063250691547],[-111.891140648775,40.7063260695128],[-111.891139169443,40.7063260695164],[-111.890565647942,40.7063260695128],[-111.890131648472,40.7063270705519],[-111.888883647794,40.7063870702199],[-111.888842647786,40.7063810701193],[-111.888272648772,40.7063090702324],[-111.888273648597,40.7061500702629],[-111.888272702732,40.705659173609],[-111.888271889855,40.705516669514],[-111.88825860205,40.7051220182445],[-111.887486254825,40.7051207246282],[-111.885464605075,40.7051172163902],[-111.885447653418,40.7053592485953],[-111.885446899393,40.7055700476582],[-111.885461494526,40.7057779975936],[-111.885470388719,40.7058330271124],[-111.885469053044,40.7066542596509],[-111.885468644134,40.7074354155007],[-111.885451254757,40.7082244206323],[-111.885453924667,40.7084793986407],[-111.885450762194,40.7090163354364],[-111.885426842719,40.7092384637205],[-111.885425105005,40.7095555962276],[-111.885422947642,40.7100410377806],[-111.885415318451,40.7109739455185],[-111.885408969831,40.7118019995307],[-111.885413241596,40.7126583428223]]]},"properties":{"OBJECTID":1,"AREA_":12970569,"PERIMETER":20774.94140625,"CITY_COUNC":3,"LABEL":"South Salt Lake Dist #3","LABEL_SHORT":"District #3","Shape__Area":23136209.182617188,"Shape__Length":26521.883879184687}},{"type":"Feature","id":2,"geometry":{"type":"Polygon","coordinates":[[[-111.888264901358,40.6998274299821],[-111.88792348735,40.6998368514669],[-111.886791547504,40.6998680807806],[-111.885491288057,40.6998813004286],[-111.885351444601,40.6998710547161],[-111.884962999279,40.6998651363076],[-111.884014362907,40.6998646711483],[-111.883421825848,40.6998645751587],[-111.882714923667,40.699869569127],[-111.879818438526,40.6998789658346],[-111.878810025958,40.6998688264039],[-111.877931543263,40.6998636401953],[-111.876941256144,40.6998832881603],[-111.875729402734,40.699879264123],[-111.874765963407,40.6998890932481],[-111.873096840586,40.6998896268043],[-111.872604228381,40.6998941541157],[-111.871973795251,40.6998887958503],[-111.871657645533,40.6998868316021],[-111.871573708891,40.6998851681151],[-111.871563813361,40.6998824706823],[-111.871563665612,40.6998824297929],[-111.87162911142,40.687077594425],[-111.871629204091,40.6870594614229],[-111.879252121355,40.6870678756353],[-111.879409112724,40.6870707893535],[-111.879885393595,40.6870736782282],[-111.879895813367,40.6895358645329],[-111.881198549281,40.6895365299182],[-111.88278126994,40.6895415407176],[-111.882779580327,40.690600970717],[-111.882778330438,40.6914560224917],[-111.88277800248,40.691654196246],[-111.882777465976,40.6919947683949],[-111.882756787282,40.6929350261716],[-111.882761427314,40.6934137510191],[-111.882770169299,40.6936986844009],[-111.885278645677,40.6936900694156],[-111.885530247953,40.6940629482218],[-111.885524631281,40.6945484044282],[-111.885513762,40.6947813613937],[-111.885507595342,40.696196836303],[-111.885503381683,40.6971641181398],[-111.888264471912,40.6971598595594],[-111.888276771158,40.6986080616251],[-111.888269499903,40.6989896615395],[-111.888266145709,40.6992236903259],[-111.888264901358,40.6998274299821]]]},"properties":{"OBJECTID":2,"AREA_":18576358,"PERIMETER":25393.56640625,"CITY_COUNC":4,"LABEL":"South Salt Lake Dist #4","LABEL_SHORT":"District #4","Shape__Area":16206715.798828125,"Shape__Length":18521.325325810478}},{"type":"Feature","id":3,"geometry":{"type":"Polygon","coordinates":[[[-111.885278645677,40.6936900694156],[-111.882770169299,40.6936986844009],[-111.882761427314,40.6934137510191],[-111.882756787282,40.6929350261716],[-111.882777465976,40.6919947683949],[-111.88277800248,40.691654196246],[-111.882778330438,40.6914560224917],[-111.882779580327,40.690600970717],[-111.88278126994,40.6895415407176],[-111.881198549281,40.6895365299182],[-111.879895813367,40.6895358645329],[-111.879885393595,40.6870736782282],[-111.882462296232,40.6870723826078],[-111.882809125821,40.6870718481427],[-111.885310092622,40.6870525324055],[-111.894082723104,40.6870519583623],[-111.897457440917,40.6867033928051],[-111.900283910897,40.6866996533351],[-111.902706467223,40.6867329316736],[-111.902981573058,40.6867367076062],[-111.903037096788,40.6867416606962],[-111.903544317862,40.6867869069768],[-111.90390989192,40.6868195155839],[-111.904153879018,40.6868558624218],[-111.905504571633,40.6870570661979],[-111.911183671721,40.687061345677],[-111.911654920118,40.6870614278147],[-111.912245082076,40.6870615280131],[-111.917102617243,40.6870622401262],[-111.917360810447,40.6870453313194],[-111.917398349349,40.6886767124295],[-111.917415915372,40.6889656742824],[-111.917393501436,40.6891325262513],[-111.917301053794,40.6893455738204],[-111.917061793678,40.6896793096255],[-111.91697268643,40.6898255368722],[-111.916948914681,40.6899833910804],[-111.916937167288,40.6903850479487],[-111.916928971491,40.6906845434032],[-111.916911085997,40.6913381006342],[-111.916901337313,40.6916943193307],[-111.916922241972,40.695015997127],[-111.916922718006,40.6950916023293],[-111.91496880211,40.6950888566742],[-111.913031949672,40.6950812431517],[-111.911200035267,40.6950973291259],[-111.911209772959,40.6974138176986],[-111.911215529565,40.6983666131194],[-111.91121673165,40.6996840275009],[-111.910981099682,40.69971376344],[-111.91070880678,40.699748125241],[-111.910022731435,40.6998250279751],[-111.909341730927,40.699864028309],[-111.90861964216,40.6998664471614],[-111.907255932719,40.6998285046119],[-111.90595130174,40.6998140631526],[-111.904503730457,40.6998420282418],[-111.902372893485,40.6998755795503],[-111.902013141523,40.6999155082508],[-111.8997417295,40.6998990286831],[-111.898044910215,40.6998627009155],[-111.897658719858,40.6998551418835],[-111.897359121566,40.6998490644029],[-111.896312728147,40.6998280293914],[-111.893996395477,40.6997807975817],[-111.89305593704,40.6997975614838],[-111.892235635977,40.6997879507485],[-111.891489662655,40.6997842335801],[-111.891138201193,40.699787875726],[-111.889820246371,40.6998060276073],[-111.888264901358,40.6998274299821],[-111.888266145709,40.6992236903259],[-111.888269499903,40.6989896615395],[-111.888276771158,40.6986080616251],[-111.888264471912,40.6971598595594],[-111.885503381683,40.6971641181398],[-111.885507595342,40.696196836303],[-111.885513762,40.6947813613937],[-111.885524631281,40.6945484044282],[-111.885530247953,40.6940629482218],[-111.885278645677,40.6936900694156]]]},"properties":{"OBJECTID":3,"AREA_":46921928,"PERIMETER":34724.37890625,"CITY_COUNC":5,"LABEL":"South Salt Lake Dist #5","LABEL_SHORT":"District #5","Shape__Area":40035919.271484375,"Shape__Length":29928.625537997392}},{"type":"Feature","id":4,"geometry":{"type":"Polygon","coordinates":[[[-111.8997417295,40.6998990286831],[-111.902013141523,40.6999155082508],[-111.902372893485,40.6998755795503],[-111.904503730457,40.6998420282418],[-111.90595130174,40.6998140631526],[-111.907255932719,40.6998285046119],[-111.90861964216,40.6998664471614],[-111.909341730927,40.699864028309],[-111.910022731435,40.6998250279751],[-111.91070880678,40.699748125241],[-111.910981099682,40.69971376344],[-111.91121673165,40.6996840275009],[-111.911215529565,40.6983666131194],[-111.911209772959,40.6974138176986],[-111.911200035267,40.6950973291259],[-111.913031949672,40.6950812431517],[-111.91496880211,40.6950888566742],[-111.916922718006,40.6950916023293],[-111.916922241972,40.695015997127],[-111.916901337313,40.6916943193307],[-111.916911085997,40.6913381006342],[-111.916928971491,40.6906845434032],[-111.916937167288,40.6903850479487],[-111.916948914681,40.6899833910804],[-111.91697268643,40.6898255368722],[-111.917061793678,40.6896793096255],[-111.917301053794,40.6893455738204],[-111.917393501436,40.6891325262513],[-111.917415915372,40.6889656742824],[-111.917398349349,40.6886767124295],[-111.917360810447,40.6870453313194],[-111.91766992655,40.687025086867],[-111.918229118288,40.6869433654019],[-111.91841266654,40.6869063599852],[-111.918432317246,40.6869021197347],[-111.918854982472,40.6868109156516],[-111.91941675216,40.6866896924162],[-111.921090399872,40.6863285219008],[-111.921103041257,40.6863370472871],[-111.921104536045,40.686338052458],[-111.921716001023,40.6867504141953],[-111.921720153772,40.6867532146919],[-111.921738624124,40.6867656705698],[-111.921805035947,40.6868469516907],[-111.921806474579,40.6868486423401],[-111.922002357026,40.6870720929966],[-111.922121312164,40.6871865504818],[-111.922379733556,40.6873381506426],[-111.922548773532,40.6874165011358],[-111.922564281203,40.6874223308449],[-111.922811859385,40.6875341992029],[-111.922836505261,40.6875453354085],[-111.922959327214,40.6876008322091],[-111.922966043075,40.6876024603276],[-111.922966078166,40.6876024722201],[-111.923154077525,40.6876480465114],[-111.923278864496,40.6876782934209],[-111.923342474893,40.687693701006],[-111.923517647927,40.6877595734548],[-111.923704460251,40.6878149257614],[-111.923996476972,40.6878883205403],[-111.924145356026,40.6879781367841],[-111.924180422368,40.6879992958629],[-111.924335380149,40.688092774537],[-111.924572753082,40.688185995174],[-111.924594857376,40.6881946758917],[-111.924665719812,40.6883078933452],[-111.924666043447,40.6883084104186],[-111.92470841912,40.6884080173863],[-111.924744016011,40.6885150770375],[-111.924776898579,40.6886307768501],[-111.924809001185,40.6888451651005],[-111.924763370595,40.6890051356816],[-111.924763333007,40.6890052674747],[-111.924715300923,40.6890763885276],[-111.924666723069,40.6891483175269],[-111.92453359992,40.6892526911015],[-111.924475137693,40.6892953560574],[-111.924421370334,40.6893230274082],[-111.924326993002,40.6893715985523],[-111.924110638146,40.6894454435404],[-111.923900645722,40.6894588142656],[-111.923751280916,40.6894496525151],[-111.923528447022,40.6894181673572],[-111.923244602645,40.6893682070573],[-111.923054025092,40.6894014241268],[-111.922890099253,40.6895147516253],[-111.922803671146,40.6897186480827],[-111.922803581606,40.689718866757],[-111.922803672052,40.689719049154],[-111.922864903171,40.6898493596966],[-111.923027172004,40.6900412003708],[-111.923035499755,40.6900501269382],[-111.923352188987,40.6903510004634],[-111.92364594907,40.6906444355882],[-111.923722347597,40.6907078850121],[-111.923732644353,40.6907164322347],[-111.923823589932,40.6907918829528],[-111.923824054323,40.6907922879676],[-111.923900414722,40.6908588848836],[-111.923990768381,40.6909376856378],[-111.924056022312,40.6910118026836],[-111.924128883862,40.6910834044593],[-111.924136431505,40.6911031337464],[-111.924174705255,40.6912031873596],[-111.924153153462,40.6912928353526],[-111.924141736774,40.6913403138435],[-111.924141723736,40.6913403644401],[-111.924050449788,40.6913955092582],[-111.924050408202,40.6913955390728],[-111.923884029151,40.6914669883782],[-111.923883902136,40.6914670429166],[-111.923701789439,40.6915300267399],[-111.923501854012,40.6916138357662],[-111.923303595611,40.6916474148614],[-111.9231516848,40.6916531536969],[-111.9229931716,40.6916547286659],[-111.922770374438,40.691629866691],[-111.922769267559,40.6916297660487],[-111.922680365387,40.6916198361473],[-111.922580422939,40.6916125953108],[-111.922577849646,40.6916123613315],[-111.92240749794,40.691600018597],[-111.922353411585,40.6916028904831],[-111.922179286138,40.691612136054],[-111.922179062609,40.6916121553455],[-111.92203959849,40.691635594428],[-111.921971361038,40.6917044219377],[-111.921971130287,40.6918129335631],[-111.922113769324,40.6921326983716],[-111.922195581141,40.6924651788331],[-111.922258913994,40.692874884972],[-111.922310422749,40.6931470419647],[-111.922319566044,40.6931676484622],[-111.92247227556,40.6934710467805],[-111.922605636136,40.6936657081405],[-111.922727239889,40.693776934202],[-111.922829337362,40.6938770748841],[-111.922894097086,40.6939405422524],[-111.922953070365,40.6940197200788],[-111.922865916463,40.6939129528188],[-111.923054352876,40.6941577716135],[-111.923053184896,40.6941541465988],[-111.923084545235,40.6941969976849],[-111.923117647868,40.6943556036741],[-111.923117733384,40.6943558709567],[-111.923117949343,40.6943570481372],[-111.923127643674,40.6944098914025],[-111.92311966468,40.6943652668795],[-111.923146719338,40.6945113224616],[-111.923166117061,40.6946250292041],[-111.923166122638,40.6946250776756],[-111.923153726821,40.694726449915],[-111.923145977475,40.6947898927684],[-111.923145971069,40.6947899438415],[-111.923150925036,40.6949576376255],[-111.923056650331,40.6951308804184],[-111.923056630177,40.6951309283989],[-111.923052490317,40.6951354378401],[-111.92305243938,40.6951355638722],[-111.922922486,40.6952770849715],[-111.922922425429,40.6952771145671],[-111.922724618202,40.6953807533769],[-111.92257325175,40.6955405555805],[-111.922630959715,40.6954579947908],[-111.922568259526,40.6955458260087],[-111.922568226825,40.6955458655806],[-111.922556712894,40.6955620006481],[-111.92246906854,40.6956888703331],[-111.922430723306,40.695744173597],[-111.922397284908,40.6957860842795],[-111.922298399346,40.6959100241082],[-111.922298072436,40.6959104338452],[-111.922297774517,40.6959107042451],[-111.922263324431,40.6959482037159],[-111.92228391983,40.6959232791532],[-111.922149350881,40.6960454178831],[-111.922115722134,40.6960759396631],[-111.921983054191,40.6961873591445],[-111.921916903158,40.6963482477064],[-111.92193080847,40.6965378607228],[-111.921962021748,40.6966210301496],[-111.922053657261,40.6967673195551],[-111.922087787483,40.6968135946354],[-111.922101539987,40.6968354682939],[-111.922101716693,40.6968357125032],[-111.922131118509,40.6968825135269],[-111.922166534278,40.6969388429221],[-111.922182484859,40.6969642769325],[-111.922205374424,40.6970007117809],[-111.922206314822,40.6970022749782],[-111.922212062919,40.6970114405942],[-111.922216518604,40.6970192364438],[-111.922300430306,40.6971587201907],[-111.922387978141,40.6973298189041],[-111.922413172595,40.6973789734167],[-111.922452038007,40.6974547998909],[-111.922496706497,40.6975673059357],[-111.922496777511,40.6975674741463],[-111.922543507122,40.697685181741],[-111.922547838951,40.6976969131785],[-111.922581931859,40.6977833444186],[-111.922653688578,40.6979909469926],[-111.922654117414,40.6979922428831],[-111.922669448632,40.6980365581128],[-111.9226701629,40.69804073036],[-111.922692897845,40.6981735313841],[-111.922987089467,40.6984295684421],[-111.923178778568,40.6984887622494],[-111.923398296798,40.6984947254077],[-111.923865698379,40.6985205961459],[-111.924158667148,40.6985794230245],[-111.924370514381,40.6986833875198],[-111.924486598464,40.6988183148974],[-111.924596519686,40.6989894649089],[-111.924771001876,40.6993055436198],[-111.924781173168,40.6994300104031],[-111.924781366673,40.6994323888497],[-111.924789462648,40.6995316353542],[-111.924789462957,40.6995316848812],[-111.924784879423,40.6997260710046],[-111.924784876194,40.6997261223453],[-111.924768646323,40.6999499062492],[-111.924768644271,40.6999499566851],[-111.924744723566,40.7004963316361],[-111.924744726242,40.7004963811544],[-111.924766880282,40.7007118838499],[-111.924774688681,40.7007875884332],[-111.924810521495,40.7008983115671],[-111.924855040413,40.7010357483988],[-111.925002526102,40.701215136811],[-111.925186597247,40.7013602633915],[-111.925342859503,40.7014669485515],[-111.925545135084,40.7015901263129],[-111.925706124091,40.7016578018432],[-111.925928923516,40.701751548013],[-111.926084282834,40.7018081671697],[-111.926226952649,40.7018601494967],[-111.926458478671,40.701930089584],[-111.92667336839,40.701988653154],[-111.926827528769,40.702004842844],[-111.927157413642,40.7020040945787],[-111.927372900577,40.7019691819068],[-111.927776323863,40.7019589792785],[-111.928249947097,40.7020857570059],[-111.928419385753,40.7021793326771],[-111.92851034629,40.7023247033519],[-111.928608054548,40.7026584357082],[-111.928631566336,40.7028039459585],[-111.92846412583,40.7030273584662],[-111.92830700343,40.7031050146733],[-111.928037398024,40.7032088349139],[-111.927475885438,40.7034079097569],[-111.927262814922,40.7035457418611],[-111.927083477154,40.7036663413426],[-111.926960446993,40.7038038456521],[-111.926905174332,40.7039496090234],[-111.92690515926,40.7039496586061],[-111.926928876857,40.7041466035571],[-111.926978231267,40.7043370617493],[-111.927015339232,40.7044804201255],[-111.927015348998,40.704480467817],[-111.927006311939,40.7048316481644],[-111.927006301606,40.7048316986304],[-111.927041110882,40.7049858290851],[-111.927132125342,40.7051396652236],[-111.927234273969,40.7052763511715],[-111.927280065556,40.705387577461],[-111.927280657071,40.7054818079913],[-111.927280650293,40.7054818593449],[-111.92723697535,40.7057046622109],[-111.927236961467,40.7057047126898],[-111.927203898935,40.7058075303022],[-111.927203883869,40.7058075807852],[-111.927114319956,40.705885079749],[-111.926968108142,40.7059112754381],[-111.926821789494,40.7059204517497],[-111.926686872369,40.7059551608877],[-111.926507366422,40.7060500954977],[-111.926284739655,40.7060677291263],[-111.926282174308,40.7060679320395],[-111.925876865893,40.7060266272653],[-111.925673739572,40.7059588345252],[-111.92543645022,40.7058397461488],[-111.925154594356,40.7057465730103],[-111.924963472758,40.7056681096314],[-111.924692085303,40.7056025430976],[-111.92452307064,40.7055774892382],[-111.924343081568,40.7055952488437],[-111.924108416379,40.7056498561154],[-111.923837424467,40.7057426853639],[-111.923449287124,40.7057980247486],[-111.923299842418,40.705799283477],[-111.923128535439,40.7058052133081],[-111.923016377514,40.7058655907887],[-111.922915827342,40.7059858992475],[-111.922853556799,40.7061303358561],[-111.922853544096,40.7061303863302],[-111.922725807133,40.7067100003637],[-111.92272580863,40.7067100507867],[-111.922731371264,40.7068270065751],[-111.92275288368,40.7069374213437],[-111.922792201547,40.7069995949634],[-111.922866533943,40.7071169336916],[-111.922991278243,40.7072535418921],[-111.923235066583,40.7074090822357],[-111.923556407344,40.7076284586669],[-111.923726120182,40.7077649040081],[-111.923850828097,40.7079522098924],[-111.92396097223,40.7081380373038],[-111.924033264845,40.7082693404473],[-111.924078991697,40.7083718340523],[-111.924058309703,40.7084692020316],[-111.924058291084,40.7084692525271],[-111.923924159653,40.7088179124453],[-111.923924144578,40.7088179620275],[-111.923931454425,40.7089656186011],[-111.923962567667,40.7093250782745],[-111.923989763144,40.709587477531],[-111.924002423965,40.709743981125],[-111.924026306016,40.7100395794995],[-111.92405464076,40.7104087744605],[-111.924075247733,40.7106772307273],[-111.924094950197,40.7109334433559],[-111.92411155278,40.7111099724599],[-111.924137132649,40.7113787708934],[-111.924164002537,40.7117595874089],[-111.924201121805,40.7122848077753],[-111.924252354743,40.7129667548433],[-111.924302758185,40.7134775188937],[-111.924350247915,40.7141282316012],[-111.924366792253,40.714463919236],[-111.924366791384,40.7144639696673],[-111.924360732245,40.7147447180947],[-111.924360717174,40.7147447685773],[-111.924273157262,40.7149914128323],[-111.924273137452,40.7149914624314],[-111.92418731396,40.7152126160851],[-111.924187290589,40.7152126638961],[-111.924085800812,40.7154070407911],[-111.924085770323,40.7154070859262],[-111.923994082166,40.7155428568414],[-111.923826162946,40.7156976285082],[-111.923567094991,40.7158683070891],[-111.923309060215,40.7160150279849],[-111.922995882577,40.716163207442],[-111.922648750635,40.7162944886334],[-111.92237812807,40.7163967678717],[-111.922124829203,40.7165063683938],[-111.921912851793,40.7165997911155],[-111.921749154676,40.7166731391366],[-111.921603567037,40.7167850535342],[-111.921491760535,40.7169053113484],[-111.92143024132,40.7169854965241],[-111.921346529045,40.717094397187],[-111.921280136247,40.717283060741],[-111.921280125908,40.7172831112062],[-111.921247611592,40.7174973158203],[-111.921247609538,40.7174973662558],[-111.921227736109,40.7179000915734],[-111.921227734054,40.7179001420089],[-111.921218686078,40.718139747572],[-111.921218684023,40.7181397980075],[-111.921205916336,40.718485946234],[-111.921205914281,40.7184859966695],[-111.921198818684,40.7186968691693],[-111.921198809534,40.7186969205307],[-111.921179572126,40.718799775417],[-111.921179562976,40.7187998267784],[-111.921144404598,40.7189883763947],[-111.921144391891,40.7189884268683],[-111.921087566338,40.7191747136674],[-111.921087551264,40.7191747641495],[-111.921044993586,40.7193142637799],[-111.921044969027,40.7193143115945],[-111.92093717011,40.7195241974836],[-111.920937145551,40.7195242452981],[-111.920864661912,40.7196652054441],[-111.920864634981,40.7196652523666],[-111.92073752252,40.7198907858482],[-111.920737494404,40.7198908327748],[-111.920671207005,40.7199998046104],[-111.920671178884,40.7199998506366],[-111.920566228577,40.7201727162273],[-111.920566208757,40.7201727649253],[-111.920527947845,40.7202794715925],[-111.920527929215,40.7202795211868],[-111.920486991663,40.7203936215179],[-111.920486973032,40.7203936711121],[-111.920455460143,40.7204815331385],[-111.920455452169,40.7204815835951],[-111.920447546427,40.7205611648226],[-111.920447540827,40.7205612161712],[-111.92043429341,40.7206957470516],[-111.920434280702,40.7206957975251],[-111.920452006827,40.7207871349637],[-111.920469123421,40.7208755929737],[-111.920533422188,40.7209763091195],[-111.920605608289,40.7210892438171],[-111.920850303985,40.7213078201111],[-111.921071600878,40.7214746108581],[-111.921216675196,40.7215839522221],[-111.921491960941,40.7217914314344],[-111.921929567096,40.7221211557875],[-111.922227381607,40.7223725868502],[-111.923068273713,40.7230678116128],[-111.924856439274,40.72435738861],[-111.925224247573,40.7246748987431],[-111.925574835727,40.7249713488153],[-111.925802685959,40.7251817692577],[-111.926280876837,40.725664808453],[-111.926281132942,40.7256650668681],[-111.926281182977,40.7256651180152],[-111.926166975801,40.7256655878824],[-111.926068276527,40.7256659933348],[-111.926069393592,40.7258443970668],[-111.922830550251,40.7258560899656],[-111.91869022506,40.7257249879492],[-111.916985899325,40.7255606500147],[-111.916985840616,40.7255164942668],[-111.913281260157,40.7252568149396],[-111.903567289054,40.7252494574749],[-111.89970250866,40.7252463070644],[-111.899702336859,40.7253351435823],[-111.897315479848,40.725338907592],[-111.897261937208,40.7253389914716],[-111.896862060418,40.7253396171453],[-111.896862653031,40.7252960718655],[-111.896869652703,40.7248560722776],[-111.896872653076,40.7247100720501],[-111.89686865198,40.7245750710652],[-111.896856652285,40.7241710720035],[-111.89685365281,40.7240370720598],[-111.89685365281,40.7239750717709],[-111.89685365281,40.7237890712386],[-111.896853651912,40.7237270713995],[-111.896854651736,40.7234500719511],[-111.896859650861,40.7227110709257],[-111.896860652483,40.7226200722487],[-111.896863651059,40.722344071034],[-111.89686865198,40.7222330721985],[-111.896886651524,40.7219020721067],[-111.89689265227,40.7217920712983],[-111.896895651744,40.7216210720389],[-111.896904651067,40.7211120714879],[-111.896908651265,40.7209420713009],[-111.896904651965,40.720827071609],[-111.896895651744,40.7204850704158],[-111.89689265227,40.7203710714432],[-111.896887651348,40.720182071283],[-111.896875652551,40.7196160711452],[-111.89687265128,40.7194280710451],[-111.896873651105,40.7192060716339],[-111.896873651105,40.7191590706883],[-111.896880650777,40.7185430708436],[-111.896881628514,40.718502976265],[-111.896881650602,40.7185020704815],[-111.896881693198,40.718498259274],[-111.89688364666,40.7183234733004],[-111.89688365115,40.7183230715603],[-111.89688365115,40.7181222893728],[-111.89688365115,40.718122070224],[-111.896884651874,40.7180370711327],[-111.896897651394,40.7171790713284],[-111.896902651417,40.7168940702706],[-111.896899651044,40.7165310711269],[-111.896893651196,40.7154420706718],[-111.896892651371,40.7150800699657],[-111.896888650275,40.7149270698429],[-111.896876651478,40.7144680707693],[-111.896873651105,40.71431607084],[-111.896876651478,40.7141510701611],[-111.896888651173,40.7136560704372],[-111.896892650473,40.7134920704158],[-111.896892650473,40.7133220705152],[-111.896892650473,40.7130202216457],[-111.896892650473,40.7128120702522],[-111.896892650473,40.7126420699773],[-111.896354298655,40.712641489082],[-111.895969689859,40.7126400540163],[-111.89398952804,40.7126517028681],[-111.892828686848,40.7126511971778],[-111.891685376128,40.7126507305709],[-111.891124583579,40.7126579225705],[-111.889699918499,40.7126573297154],[-111.888299202227,40.7126818329791],[-111.888267969064,40.7126823791623],[-111.887629283823,40.7126658045843],[-111.886920516491,40.7126474072279],[-111.885796699629,40.7126555625875],[-111.885413241596,40.7126583428223],[-111.885408969831,40.7118019995307],[-111.885415318451,40.7109739455185],[-111.885422947642,40.7100410377806],[-111.885425105005,40.7095555962276],[-111.885426842719,40.7092384637205],[-111.885450762194,40.7090163354364],[-111.885453924667,40.7084793986407],[-111.885451254757,40.7082244206323],[-111.885468644134,40.7074354155007],[-111.885469053044,40.7066542596509],[-111.885470388719,40.7058330271124],[-111.885461494526,40.7057779975936],[-111.885446899393,40.7055700476582],[-111.885447653418,40.7053592485953],[-111.885464605075,40.7051172163902],[-111.887486254825,40.7051207246282],[-111.88825860205,40.7051220182445],[-111.888271889855,40.705516669514],[-111.888272702732,40.705659173609],[-111.888273648597,40.7061500702629],[-111.888272648772,40.7063090702324],[-111.888842647786,40.7063810701193],[-111.888883647794,40.7063870702199],[-111.890131648472,40.7063270705519],[-111.890565647942,40.7063260695128],[-111.891139169443,40.7063260695164],[-111.891140648775,40.7063260695128],[-111.891444648549,40.7063250691547],[-111.891901648484,40.7063250698356],[-111.892303649065,40.7063250698356],[-111.892357648593,40.7063200707687],[-111.892449648655,40.7063120699455],[-111.892596648968,40.7063240694775],[-111.892661650163,40.7063240694775],[-111.892927649404,40.7063240694775],[-111.893218648759,40.7063240694775],[-111.893725648922,40.7063230698003],[-111.893991325404,40.7063230691205],[-111.893991648162,40.7063230691193],[-111.893990649236,40.7060780701261],[-111.893992154801,40.7059556216599],[-111.894004471629,40.7051015244623],[-111.893984575097,40.7047185091405],[-111.893982474403,40.7046780697772],[-111.893982472287,40.7046780290367],[-111.893983012292,40.7046490604484],[-111.893997384196,40.7038780698877],[-111.894207692721,40.7038780699782],[-111.894582648889,40.7038780692057],[-111.896340649206,40.7038790689196],[-111.896926649011,40.7038800693145],[-111.897079650071,40.7038810697093],[-111.897542649853,40.7038860689593],[-111.897623333862,40.7038871101266],[-111.897714306278,40.7038879828275],[-111.897958344343,40.7038778248187],[-111.897966220702,40.7024364748969],[-111.897968368281,40.7017675717721],[-111.897959358354,40.7016822404873],[-111.89793571262,40.7016227582924],[-111.897871862311,40.7015585287546],[-111.897765577998,40.701478357041],[-111.897686832853,40.7014077535898],[-111.897667517333,40.7013611042225],[-111.897669239201,40.7012853981337],[-111.897658719858,40.6998551418835],[-111.899559953259,40.6998953465763],[-111.8997417295,40.6998990286831]]]},"properties":{"OBJECTID":4,"AREA_":88031496,"PERIMETER":46473.9609375,"CITY_COUNC":2,"LABEL":"South Salt Lake Dist #2","LABEL_SHORT":"District #2","Shape__Area":88739908.998046875,"Shape__Length":56356.612630089614}},{"type":"Feature","id":5,"geometry":{"type":"Polygon","coordinates":[[[-111.896665189098,40.7253399246704],[-111.876938581549,40.7253690670277],[-111.876982371375,40.718399552395],[-111.876982552919,40.7183707177658],[-111.876983911908,40.7181548692032],[-111.876983912533,40.7181547411609],[-111.876986103122,40.7178058246107],[-111.876990023994,40.7178058012309],[-111.877823082508,40.7178009304112],[-111.87782308816,40.7178008826666],[-111.877819679055,40.716942724076],[-111.877624733125,40.7169420501509],[-111.877624742313,40.7169419996934],[-111.877626339888,40.7166747179143],[-111.877630258532,40.7166747314405],[-111.87763581636,40.7166747514074],[-111.877635825475,40.7166746878928],[-111.877636650254,40.7165368838935],[-111.877474752613,40.7165364799609],[-111.877474761802,40.7165364295034],[-111.877475612842,40.7163388623372],[-111.876981920347,40.7163373317733],[-111.876981929535,40.7163372813158],[-111.876982562413,40.7162195046053],[-111.87698689788,40.7159025045317],[-111.876986907069,40.7159024540741],[-111.876986906834,40.7159024117513],[-111.876986918478,40.7158997523535],[-111.876980799528,40.7158997550467],[-111.876983418751,40.7151054165405],[-111.877580963045,40.7151062097965],[-111.877593382494,40.713279171498],[-111.87699820531,40.7132807072509],[-111.876998210948,40.7132806568048],[-111.876998215208,40.7132805712435],[-111.877001135567,40.7126577287796],[-111.87719043743,40.7126583503026],[-111.87790073148,40.7126591300916],[-111.878234526263,40.7126580564965],[-111.878434860877,40.7126574116986],[-111.878712474058,40.7126592074071],[-111.879749166654,40.7126611874694],[-111.880785910615,40.7126594256407],[-111.881285111466,40.7126556669463],[-111.882637790611,40.7126453974934],[-111.885362111446,40.7126581049323],[-111.885413241596,40.7126583428223],[-111.885796699629,40.7126555625875],[-111.886920516491,40.7126474072279],[-111.887629283823,40.7126658045843],[-111.888267969064,40.7126823791623],[-111.888299202227,40.7126818329791],[-111.889699918499,40.7126573297154],[-111.891124583579,40.7126579225705],[-111.891685376128,40.7126507305709],[-111.892828686848,40.7126511971778],[-111.89398952804,40.7126517028681],[-111.895969689859,40.7126400540163],[-111.896354298655,40.712641489082],[-111.896892650473,40.7126420699773],[-111.896892650473,40.7128120702522],[-111.896892650473,40.7130202216457],[-111.896892650473,40.7133220705152],[-111.896892650473,40.7134920704158],[-111.896888651173,40.7136560704372],[-111.896876651478,40.7141510701611],[-111.896873651105,40.71431607084],[-111.896876651478,40.7144680707693],[-111.896888650275,40.7149270698429],[-111.896892651371,40.7150800699657],[-111.896893651196,40.7154420706718],[-111.896899651044,40.7165310711269],[-111.896902651417,40.7168940702706],[-111.896897651394,40.7171790713284],[-111.896884651874,40.7180370711327],[-111.89688365115,40.718122070224],[-111.896883650674,40.7181222894769],[-111.89688365115,40.7183230715603],[-111.89688364666,40.7183234733004],[-111.896881693198,40.718498259274],[-111.896881650602,40.7185020704815],[-111.896881628514,40.718502976265],[-111.896880650777,40.7185430708436],[-111.896873651105,40.7191590706883],[-111.896873651105,40.7192060716339],[-111.89687265128,40.7194280710451],[-111.896875652551,40.7196160711452],[-111.896887651348,40.720182071283],[-111.89689265227,40.7203710714432],[-111.896895651744,40.7204850704158],[-111.896904651965,40.720827071609],[-111.896908651265,40.7209420713009],[-111.896904651067,40.7211120714879],[-111.896895651744,40.7216210720389],[-111.89689265227,40.7217920712983],[-111.896886651524,40.7219020721067],[-111.89686865198,40.7222330721985],[-111.896863651059,40.722344071034],[-111.896860652483,40.7226200722487],[-111.896859650861,40.7227110709257],[-111.896854651736,40.7234500719511],[-111.896853651912,40.7237270713995],[-111.89685365281,40.7237890712386],[-111.89685365281,40.7239750717709],[-111.89685365281,40.7240370720598],[-111.896856652285,40.7241710720035],[-111.89686865198,40.7245750710652],[-111.896872653076,40.7247100720501],[-111.896869652703,40.7248560722776],[-111.896862653031,40.7252960718655],[-111.896862060418,40.7253396171453],[-111.896665189098,40.7253399246704]]]},"properties":{"OBJECTID":5,"AREA_":26541098,"PERIMETER":25695.07226562,"CITY_COUNC":1,"LABEL":"South Salt Lake Dist #1","LABEL_SHORT":"District #1","Shape__Area":25317500.370117188,"Shape__Length":21096.36691220391}}]}