{"type": "FeatureCollection", "features": [{"type": "Feature", "geometry": {"type": "Polygon", "coordinates": [[[-111.896869578141, 40.7254429857791], [-111.896867063757, 40.7253304794084], [-111.896863116559, 40.7246198596962], [-111.896862854251, 40.7245729265679], [-111.896858309674, 40.7237544668255], [-111.896857024185, 40.7222001308924], [-111.896856372008, 40.7214099649666], [-111.896855818646, 40.7207414067128], [-111.896855798883, 40.7207158258237], [-111.89685575217, 40.720660595362], [-111.896855708153, 40.7206074175657], [-111.896854423562, 40.7190528222695], [-111.89685254249, 40.7187154853308], [-111.896851055778, 40.7184487200648], [-111.896851000083, 40.7184387026444], [-111.896850356889, 40.7183231913897], [-111.896874252974, 40.7183231335169], [-111.896883571198, 40.7183231103678], [-111.896883572096, 40.7181221090315], [-111.899328572501, 40.7179371107102], [-111.899700572047, 40.7179051095904], [-111.899767571095, 40.7179001093502], [-111.899825572618, 40.7178951084288], [-111.900206572385, 40.7178641108778], [-111.90033357081, 40.717855109895], [-111.900670571992, 40.7178271087964], [-111.900737571939, 40.7178221092312], [-111.901648573232, 40.7178021089241], [-111.901961573226, 40.7178111085524], [-111.902213573121, 40.7178141091091], [-111.902681572926, 40.7178631086505], [-111.903197574209, 40.7179691084103], [-111.903766574296, 40.7181721098881], [-111.903965574488, 40.7182831086869], [-111.90427057229, 40.7185061099895], [-111.904316573219, 40.7196121099987], [-111.9043035728, 40.7207141094467], [-111.904277573759, 40.7212971100038], [-111.904278573584, 40.7214811090693], [-111.904278572686, 40.7214941094021], [-111.904259574216, 40.7218551105085], [-111.90424957417, 40.7220091091286], [-111.904247573622, 40.7220321105808], [-111.904234574101, 40.7222151095375], [-111.904230573005, 40.7223341100252], [-111.904209574885, 40.7226201103729], [-111.904193573195, 40.7232881091971], [-111.904186573522, 40.7241731103069], [-111.904178574923, 40.724440109291], [-111.904189574794, 40.7249481095026], [-111.904191573545, 40.725104109288], [-111.904186573522, 40.725424110374], [-111.904175752417, 40.7254242145339], [-111.904096409617, 40.7254249831387], [-111.903566573381, 40.7254301108009], [-111.902706573939, 40.725424110374], [-111.902112573737, 40.7254201100891], [-111.901991574262, 40.7254191093371], [-111.901949573531, 40.7254211108411], [-111.901537575599, 40.7254181099466], [-111.900176573146, 40.725409110666], [-111.899723573409, 40.7254061111324], [-111.899150574022, 40.7254131102708], [-111.897432572092, 40.7254351104755], [-111.896869578141, 40.7254429857791]]]}, "properties": {"PrecinctID": "SSL002", "VistaID": "SSL002", "CountyID": 18, "SubPrecinctID": null, "AliasName": null, "VersionNbr": null}}, {"type": "Feature", "geometry": {"type": "Polygon", "coordinates": [[[-111.882769562153, 40.6936991070379], [-111.882764565723, 40.6935461075114], [-111.882761564452, 40.6934131077801], [-111.88275756605, 40.6930871075051], [-111.882756564429, 40.6929351078136], [-111.882760565525, 40.6927471073034], [-111.882772566119, 40.6921831087198], [-111.88277656452, 40.6919951067688], [-111.882777565244, 40.6915041067908], [-111.882777564345, 40.6914161073946], [-111.882778565967, 40.6906721068016], [-111.882779564893, 40.6900321075478], [-111.882781564543, 40.6895421093817], [-111.88278056382, 40.6893811076701], [-111.88278056382, 40.6890171077861], [-111.882780564718, 40.6889021074487], [-111.882780564718, 40.6887421082188], [-111.883056563106, 40.6887421075377], [-111.883884566355, 40.6887441081009], [-111.884161565466, 40.6887451073607], [-111.884432565627, 40.6887451066796], [-111.884855566125, 40.688747108605], [-111.885245564316, 40.6887481078648], [-111.885517566997, 40.6887491071246], [-111.885516566274, 40.6885991076412], [-111.885513564104, 40.6881501077961], [-111.885512565178, 40.6880011075977], [-111.885510566426, 40.6878141067447], [-111.88550656533, 40.6874651072425], [-111.885504564782, 40.6872561070579], [-111.885503934165, 40.6871387263804], [-111.885503608974, 40.6870783422206], [-111.885503564059, 40.6870701081676], [-111.886054564603, 40.6870681082353], [-111.887441565198, 40.6870631063607], [-111.887709565885, 40.6870471082614], [-111.888260565531, 40.6870161065687], [-111.888260629311, 40.6870243603825], [-111.888261089249, 40.6870848828699], [-111.888262652317, 40.6872912120287], [-111.888273986361, 40.6887772396532], [-111.888289429299, 40.6897654678158], [-111.888277567944, 40.691997496157], [-111.888270720985, 40.692959556464], [-111.888270503593, 40.6946411634366], [-111.888271091989, 40.6947442544178], [-111.888264315099, 40.6971599370731], [-111.886622781359, 40.6971559630138], [-111.885597615872, 40.6971635018075], [-111.885574497728, 40.6971636713946], [-111.885503222699, 40.6971641958206], [-111.885507489696, 40.6961845629986], [-111.885513602732, 40.6947814389196], [-111.885524471449, 40.6945484822198], [-111.885530088614, 40.6940630261765], [-111.885508140077, 40.693936239842], [-111.885507941549, 40.6936846804862], [-111.885424208683, 40.6936871099991], [-111.884190326826, 40.6936897411201], [-111.884146903164, 40.6936898337508], [-111.882769562153, 40.6936991070379]]]}, "properties": {"PrecinctID": "SSL019", "VistaID": "SSL019", "CountyID": 18, "SubPrecinctID": null, "AliasName": null, "VersionNbr": null}}, {"type": "Feature", "geometry": {"type": "Polygon", "coordinates": [[[-111.876940564056, 40.699883368527], [-111.876940564954, 40.699883110411], [-111.876940565852, 40.6996271099247], [-111.876941564779, 40.6988611096331], [-111.876942565502, 40.6986061097796], [-111.876943564429, 40.6984461079711], [-111.876945564977, 40.6979681093796], [-111.876947565525, 40.6978091092489], [-111.876947565525, 40.6974161084543], [-111.876947563728, 40.6968311082336], [-111.876946564802, 40.696237109868], [-111.876946563903, 40.6958451084884], [-111.876947563728, 40.6956851082215], [-111.876949564276, 40.6952081080529], [-111.876951565723, 40.6950501079922], [-111.876953564474, 40.6948921096002], [-111.876959564322, 40.694421108338], [-111.876962565594, 40.6942641096748], [-111.876963565418, 40.6940361075647], [-111.87696756382, 40.6933521094942], [-111.876969565266, 40.6931251075441], [-111.876968564543, 40.6930891093001], [-111.876968563645, 40.6929841086348], [-111.876968564543, 40.6929491081493], [-111.876968562746, 40.6928741077279], [-111.87696956347, 40.692649108682], [-111.876970565091, 40.6925751078065], [-111.876970565091, 40.6925241089594], [-111.876971564018, 40.6923721086647], [-111.876972563843, 40.6923221075061], [-111.876974565289, 40.6920171077998], [-111.876982563888, 40.6911021077968], [-111.876985563363, 40.6907981078654], [-111.876985563363, 40.6906611084489], [-111.876985563363, 40.6902511084281], [-111.876986564985, 40.6901151078075], [-111.876986034979, 40.6901144913715], [-111.876986037674, 40.6900994251298], [-111.876986037674, 40.6900988073314], [-111.876975368383, 40.690097447085], [-111.876985563363, 40.6900511087817], [-111.876985563363, 40.689860107854], [-111.876985562465, 40.6897971078274], [-111.87698756481, 40.689626108136], [-111.876987563013, 40.6895841084315], [-111.876993563759, 40.689078107997], [-111.876994563584, 40.688948107335], [-111.876997563059, 40.6887361078912], [-111.876997563957, 40.6884021076432], [-111.876997563957, 40.687462108043], [-111.876997563059, 40.6874011083963], [-111.876998562884, 40.6870681075541], [-111.877221564263, 40.6870691082014], [-111.877890563011, 40.687075107998], [-111.878114564216, 40.6870771072489], [-111.878467563495, 40.6870761079641], [-111.8789925641, 40.6870741066696], [-111.879337564779, 40.6870731087471], [-111.879530563327, 40.6870731087471], [-111.879884564227, 40.6870731087471], [-111.879885720359, 40.6870731026165], [-111.87988523437, 40.6870737565453], [-111.879895654828, 40.6895359429253], [-111.880853254429, 40.6895364326725], [-111.881019122058, 40.6895365171352], [-111.881198390754, 40.6895366077283], [-111.882781110894, 40.6895416182721], [-111.882781564543, 40.6895421093817], [-111.882779564893, 40.6900321075478], [-111.882778565967, 40.6906721068016], [-111.882777564345, 40.6914161073946], [-111.882777565244, 40.6915041067908], [-111.88277656452, 40.6919951067688], [-111.882772566119, 40.6921831087198], [-111.882760565525, 40.6927471073034], [-111.882756564429, 40.6929351078136], [-111.88275756605, 40.6930871075051], [-111.882761564452, 40.6934131077801], [-111.882764565723, 40.6935461075114], [-111.882769562153, 40.6936991070379], [-111.882766565373, 40.6937611075963], [-111.882760564627, 40.6939471075629], [-111.882758564079, 40.6940101077525], [-111.882758565875, 40.6940601069632], [-111.882760564627, 40.6942101070947], [-111.882761564452, 40.6942601081986], [-111.882759564802, 40.6944731069504], [-111.882754565677, 40.6951121086556], [-111.882753564954, 40.6953261086124], [-111.882753334087, 40.6953261079313], [-111.882752495061, 40.6954833751658], [-111.882746078394, 40.6966900776647], [-111.882747279442, 40.6969039989968], [-111.882726288509, 40.697711574388], [-111.882728767859, 40.6981523186659], [-111.882727584778, 40.6983654800066], [-111.882728847809, 40.6986154688768], [-111.882714764022, 40.6998696461528], [-111.881773602692, 40.6998727006395], [-111.881642977768, 40.6998731235685], [-111.879818278441, 40.69987904253], [-111.878809867432, 40.6998689038138], [-111.877931384254, 40.6998637176559], [-111.876951384263, 40.6998831621704], [-111.876940564056, 40.699883368527]]]}, "properties": {"PrecinctID": "SSL011", "VistaID": "SSL011", "CountyID": 18, "SubPrecinctID": null, "AliasName": null, "VersionNbr": null}}, {"type": "Feature", "geometry": {"type": "Polygon", "coordinates": [[[-111.87156349131, 40.6998825574026], [-111.871628601202, 40.687144346075], [-111.871628951545, 40.6870757210562], [-111.871629302786, 40.6870757156068], [-111.871692562148, 40.6870751073168], [-111.87262956338, 40.6870671089503], [-111.872942562476, 40.6870651083367], [-111.873327562441, 40.6870651090179], [-111.874484562882, 40.6870651083367], [-111.874870562672, 40.6870661083029], [-111.875295562819, 40.6870661076217], [-111.876572562911, 40.6870671075879], [-111.876987746269, 40.6870680823506], [-111.876998562884, 40.6870681075541], [-111.876997563059, 40.6874011083963], [-111.876997563957, 40.687462108043], [-111.876997563957, 40.6884021076432], [-111.876997563059, 40.6887361078912], [-111.876994563584, 40.688948107335], [-111.876993563759, 40.689078107997], [-111.876987563013, 40.6895841084315], [-111.87698756481, 40.689626108136], [-111.876985562465, 40.6897971078274], [-111.876985563363, 40.689860107854], [-111.876985563363, 40.6900511087817], [-111.876975368383, 40.690097447085], [-111.876986037674, 40.6900988073314], [-111.876986037674, 40.6900994251298], [-111.876986034979, 40.6901144913715], [-111.876986564985, 40.6901151078075], [-111.876985563363, 40.6902511084281], [-111.876985563363, 40.6906611084489], [-111.876985563363, 40.6907981078654], [-111.876982563888, 40.6911021077968], [-111.876974565289, 40.6920171077998], [-111.876972563843, 40.6923221075061], [-111.876971564018, 40.6923721086647], [-111.876970565091, 40.6925241089594], [-111.876970565091, 40.6925751078065], [-111.87696956347, 40.692649108682], [-111.876968562746, 40.6928741077279], [-111.876968564543, 40.6929491081493], [-111.876968563645, 40.6929841086348], [-111.876968564543, 40.6930891093001], [-111.876969565266, 40.6931251075441], [-111.87696756382, 40.6933521094942], [-111.876963565418, 40.6940361075647], [-111.876962565594, 40.6942641096748], [-111.876959564322, 40.694421108338], [-111.876953564474, 40.6948921096002], [-111.876951565723, 40.6950501079922], [-111.876949564276, 40.6952081080529], [-111.876947563728, 40.6956851082215], [-111.876946563903, 40.6958451084884], [-111.876946564802, 40.696237109868], [-111.876947563728, 40.6968311082336], [-111.876947565525, 40.6974161084543], [-111.876947565525, 40.6978091092489], [-111.876945564977, 40.6979681093796], [-111.876943564429, 40.6984461079711], [-111.876942565502, 40.6986061097796], [-111.876941564779, 40.6988611096331], [-111.876940565852, 40.6996271099247], [-111.876940564954, 40.699883110411], [-111.876940564056, 40.699883368527], [-111.876929744746, 40.6998833637597], [-111.87156349131, 40.6998825574026]]]}, "properties": {"PrecinctID": "SSL012", "VistaID": "SSL012", "CountyID": 18, "SubPrecinctID": null, "AliasName": null, "VersionNbr": null}}, {"type": "Feature", "geometry": {"type": "Polygon", "coordinates": [[[-111.906839293167, 40.7073716990786], [-111.90626562184, 40.7056897038719], [-111.906020066458, 40.7057658679692], [-111.905341116173, 40.7059764512615], [-111.905341114377, 40.7059777253798], [-111.905540510725, 40.7078846868574], [-111.904444982897, 40.7078792895441], [-111.904409606343, 40.7070969931808], [-111.904684751331, 40.7068408454101], [-111.904667674358, 40.706239342696], [-111.904667592611, 40.706239342696], [-111.904312149914, 40.7062399821361], [-111.904311986421, 40.7061563788671], [-111.904119274436, 40.7061565961], [-111.90374432123, 40.7061582958278], [-111.903073097355, 40.7061931347911], [-111.903075452737, 40.7062632941156], [-111.899636333521, 40.7062663673765], [-111.899636507794, 40.7062926872325], [-111.899586036848, 40.7062926347971], [-111.89958573681, 40.7063475285176], [-111.897086230228, 40.7062445052042], [-111.89399090705, 40.7062410825995], [-111.893990361773, 40.7060689538246], [-111.894004311711, 40.7051016022088], [-111.893982313766, 40.7046781072302], [-111.893997227596, 40.7038779636487], [-111.896927278728, 40.7038805099227], [-111.897714146323, 40.7038880608944], [-111.89795818445, 40.7038779030394], [-111.897966060878, 40.7024365526663], [-111.89796820875, 40.7017676492865], [-111.897959198648, 40.7016823187686], [-111.897935554091, 40.7016228365289], [-111.897871703638, 40.7015586054298], [-111.897765419465, 40.7014784347976], [-111.897686673147, 40.7014078318498], [-111.897670251944, 40.7013681734607], [-111.897667357572, 40.7013611820097], [-111.89766908054, 40.7012854752951], [-111.897658859509, 40.699895897708], [-111.897658561269, 40.6998552195751], [-111.897655387521, 40.6998291893437], [-111.897694531609, 40.6998289605124], [-111.898645576204, 40.6998879124581], [-111.899710268462, 40.6999332584491], [-111.902201088335, 40.6998795233476], [-111.906050220208, 40.6998140946516], [-111.908854046364, 40.6998727190278], [-111.909649417411, 40.6998475945933], [-111.909918181666, 40.6998194422211], [-111.91121683475, 40.6996834005179], [-111.911645829706, 40.6996200338411], [-111.911975681196, 40.6995736980742], [-111.912490848842, 40.6995069505674], [-111.913436253814, 40.6994268285446], [-111.913902079696, 40.6994186566309], [-111.914779301639, 40.6994187478916], [-111.915456913434, 40.6994135548881], [-111.916949806536, 40.6994227054707], [-111.919835015566, 40.6994239613261], [-111.921223676248, 40.6994319486747], [-111.922614186561, 40.6994240464573], [-111.924183839807, 40.6994367500733], [-111.924583575735, 40.6994399809717], [-111.924583575735, 40.6994401056037], [-111.924559575445, 40.7006841049255], [-111.924690574068, 40.7011351049489], [-111.924954576354, 40.7014441055019], [-111.925112576538, 40.7015731058706], [-111.925403574994, 40.7018101064512], [-111.925917575728, 40.701998105904], [-111.926168576697, 40.702090105269], [-111.9270065755, 40.7021791066508], [-111.927599574978, 40.7021551060909], [-111.928069574433, 40.7022221056459], [-111.928322575052, 40.7023531053436], [-111.928413576186, 40.7028751055048], [-111.928181576383, 40.7031061058242], [-111.927166575333, 40.7034961052175], [-111.926952575971, 40.703721106448], [-111.926781575369, 40.7040851056789], [-111.926762576, 40.704486106308], [-111.927067576497, 40.7053751062206], [-111.927067576497, 40.7056871065933], [-111.92680157546, 40.7058171059199], [-111.926283577223, 40.7058531061391], [-111.925822575294, 40.7058181056047], [-111.925436577301, 40.7057191054139], [-111.925065575784, 40.7055571070128], [-111.924671575598, 40.7054711064909], [-111.924339575337, 40.7055101059653], [-111.924189574651, 40.7055271061307], [-111.923978575662, 40.705553106215], [-111.923719575196, 40.705631105726], [-111.923360574273, 40.7056401056375], [-111.922949576166, 40.7058981062154], [-111.922840835101, 40.7061270122483], [-111.922730575883, 40.7063591071984], [-111.922744576126, 40.7068421065734], [-111.922952574742, 40.7073251065311], [-111.923232575125, 40.7076101070115], [-111.923335575955, 40.707715107096], [-111.923379590709, 40.7077600105792], [-111.923297923968, 40.7078205503224], [-111.923231203397, 40.7078377807446], [-111.922933234912, 40.7079147261734], [-111.921396307293, 40.7083116064159], [-111.920498224672, 40.7085478244333], [-111.920051112494, 40.7085072809662], [-111.917094618554, 40.7082466653981], [-111.917094621248, 40.7082376992059], [-111.916948104229, 40.7082243006467], [-111.916801059898, 40.7082108544177], [-111.914466036641, 40.7079973017063], [-111.912849736578, 40.7078494538203], [-111.911494318951, 40.7077431839488], [-111.91087003205, 40.7077080352764], [-111.910419218813, 40.7076826516259], [-111.906839293167, 40.7073716990786]]]}, "properties": {"PrecinctID": "SSL007", "VistaID": "SSL007", "CountyID": 18, "SubPrecinctID": null, "AliasName": null, "VersionNbr": null}}, {"type": "Feature", "geometry": {"type": "Polygon", "coordinates": [[[-111.885412858469, 40.7183543603025], [-111.884806568416, 40.7183591099536], [-111.883948568624, 40.718367111372], [-111.883678570084, 40.7183661105139], [-111.882870569622, 40.7183651110174], [-111.882601570008, 40.7183651103366], [-111.882192569754, 40.7183601108118], [-111.881448568866, 40.7183621118473], [-111.878871568217, 40.7183711113999], [-111.877989568135, 40.7183711113999], [-111.876837566818, 40.7183711127616], [-111.876838566643, 40.7182711133524], [-111.876841566118, 40.7181551115892], [-111.876844567389, 40.7179721103216], [-111.876847567762, 40.7178731111786], [-111.876848652029, 40.717873084625], [-111.87686561312, 40.7178726815554], [-111.876889566697, 40.7178721116748], [-111.877017567642, 40.7178721116748], [-111.877060567299, 40.717872110994], [-111.877136567467, 40.717871112171], [-111.877364567971, 40.7178691118016], [-111.877440568139, 40.7178681116169], [-111.877807567662, 40.7178601115003], [-111.877811566962, 40.7174811104922], [-111.877801567814, 40.7169931110395], [-111.877627567737, 40.7169931103586], [-111.87762856846, 40.7168021104191], [-111.877626567912, 40.7165261102729], [-111.87746656718, 40.7165301110923], [-111.87746656718, 40.7164761109035], [-111.877472567028, 40.7162771125784], [-111.877472637097, 40.7162688773679], [-111.877473099729, 40.7162150648894], [-111.877816591239, 40.7162149116919], [-111.877817616217, 40.7158994622776], [-111.876986768902, 40.7158998299534], [-111.876980639697, 40.7158998326769], [-111.876879378005, 40.7159001295411], [-111.876868556001, 40.7159001608616], [-111.876868566781, 40.7158971111952], [-111.87686943635, 40.7154747926701], [-111.876869567504, 40.7154121116903], [-111.87687056643, 40.7151571105195], [-111.876870568227, 40.7151111117076], [-111.876870700279, 40.7151111117076], [-111.876925049252, 40.7151109591884], [-111.87699020406, 40.7151107760292], [-111.87758256843, 40.7151091112552], [-111.877591567752, 40.7148811124051], [-111.877593566504, 40.7132741107812], [-111.876878566826, 40.7132811118762], [-111.876879566651, 40.7132131116164], [-111.876877567001, 40.7130791100401], [-111.876876567176, 40.7128771103149], [-111.87687556825, 40.7126576111642], [-111.876886391152, 40.71265764521], [-111.877055924806, 40.7126581715566], [-111.877110754378, 40.7126583411043], [-111.877784925625, 40.712659081258], [-111.877818755281, 40.7126591180274], [-111.877900572938, 40.7126592079081], [-111.878234368033, 40.7126581341063], [-111.878434702223, 40.7126574899615], [-111.878712313985, 40.7126592848514], [-111.878922568271, 40.7126596879526], [-111.878952073436, 40.7126597424257], [-111.879749007553, 40.7126612656308], [-111.880785751425, 40.7126595047867], [-111.881284951517, 40.7126557440974], [-111.882637629282, 40.7126454765906], [-111.885413043522, 40.7126503526181], [-111.892949358089, 40.7126632620712], [-111.896816404164, 40.7126633819121], [-111.896819244637, 40.7127427076853], [-111.896819537488, 40.7127952823472], [-111.89682814784, 40.7143397476754], [-111.896828554777, 40.7144127745228], [-111.896828781152, 40.7144533906547], [-111.896836858803, 40.7159020434977], [-111.896837615185, 40.7160376503538], [-111.896837943968, 40.7160966894035], [-111.896845431426, 40.717440028453], [-111.896849143265, 40.7181058290256], [-111.89684923669, 40.7181225849515], [-111.896883572096, 40.7181221090315], [-111.896883571198, 40.7183231103678], [-111.896874252974, 40.7183231335169], [-111.896850356889, 40.7183231913897], [-111.893985571057, 40.7183301109318], [-111.893413570597, 40.7183371108142], [-111.893378572233, 40.718338110311], [-111.89169957156, 40.718338110311], [-111.891128571823, 40.7183381089493], [-111.890597570472, 40.7183351104588], [-111.889431569809, 40.7183301109318], [-111.889007570385, 40.7183381096302], [-111.888477568859, 40.7183491115836], [-111.8884305708, 40.7183491102219], [-111.888289571233, 40.7183401113472], [-111.888243569406, 40.7183521100735], [-111.887383569963, 40.7183521107544], [-111.885444569897, 40.7183541111092], [-111.885412858469, 40.7183543603025]]]}, "properties": {"PrecinctID": "SSL004", "VistaID": "SSL004", "CountyID": 18, "SubPrecinctID": null, "AliasName": null, "VersionNbr": null}}, {"type": "Feature", "geometry": {"type": "Polygon", "coordinates": [[[-111.882637629282, 40.7126454765906], [-111.882650424885, 40.7117902842005], [-111.882651764273, 40.7116068636914], [-111.882651986157, 40.711576424976], [-111.882656371732, 40.7109746926632], [-111.882648814205, 40.7102591095392], [-111.882650582988, 40.709854262977], [-111.882650894704, 40.7097830281401], [-111.882654239131, 40.7090168770305], [-111.88266466947, 40.7082290469347], [-111.882664929083, 40.7075053137753], [-111.882665384529, 40.7074448711239], [-111.882671823653, 40.7066528814177], [-111.882675882242, 40.70632284099], [-111.882684808801, 40.7057809994477], [-111.882683247529, 40.705502907929], [-111.882686139205, 40.7050291548887], [-111.882686413192, 40.7049918875778], [-111.88279629871, 40.7049919801929], [-111.883144865702, 40.7049922696147], [-111.883281366506, 40.7049923833405], [-111.883417869107, 40.7049924977473], [-111.883565166762, 40.7049926196449], [-111.88366215427, 40.7049926986401], [-111.883878299707, 40.7049928770601], [-111.884223966039, 40.7053816042145], [-111.884443918536, 40.7054792354409], [-111.884666700726, 40.7055075774594], [-111.884978404452, 40.7056160307353], [-111.88509629935, 40.7056570492479], [-111.885294687789, 40.7057260766588], [-111.88535277555, 40.7057261229659], [-111.88536406378, 40.7057261318187], [-111.885446774363, 40.7057262005982], [-111.885445734114, 40.7057612440829], [-111.885445142124, 40.7057612488497], [-111.885461335155, 40.7057780759809], [-111.885469024734, 40.7058256577187], [-111.885470228477, 40.7058331042794], [-111.885469534079, 40.7062595568993], [-111.885468894479, 40.7066543373436], [-111.885468485745, 40.7074354928383], [-111.885451096158, 40.7082244988059], [-111.885453764154, 40.7084794768183], [-111.885450603881, 40.7090164133026], [-111.885426682643, 40.7092385413443], [-111.885424945302, 40.7095556742926], [-111.885422789345, 40.7100411161709], [-111.885415159055, 40.7109740233076], [-111.885408809762, 40.7118020777876], [-111.885413043522, 40.7126503526181], [-111.882637629282, 40.7126454765906]]]}, "properties": {"PrecinctID": "SSL014", "VistaID": "SSL014", "CountyID": 18, "SubPrecinctID": null, "AliasName": null, "VersionNbr": null}}, {"type": "Feature", "geometry": {"type": "Polygon", "coordinates": [[[-111.882714764022, 40.6998696461528], [-111.882728847809, 40.6986154688768], [-111.882727584778, 40.6983654800066], [-111.882728767859, 40.6981523186659], [-111.882726288509, 40.697711574388], [-111.882747279442, 40.6969039989968], [-111.882746078394, 40.6966900776647], [-111.882752495061, 40.6954833751658], [-111.882753334087, 40.6953261079313], [-111.882753564954, 40.6953261086124], [-111.882754565677, 40.6951121086556], [-111.882759564802, 40.6944731069504], [-111.882761564452, 40.6942601081986], [-111.882760564627, 40.6942101070947], [-111.882758565875, 40.6940601069632], [-111.882758564079, 40.6940101077525], [-111.882760564627, 40.6939471075629], [-111.882766565373, 40.6937611075963], [-111.882769562153, 40.6936991070379], [-111.884146903164, 40.6936898337508], [-111.884190326826, 40.6936897411201], [-111.885424208683, 40.6936871099991], [-111.885507941549, 40.6936846804862], [-111.885508140077, 40.693936239842], [-111.885530088614, 40.6940630261765], [-111.885524471449, 40.6945484822198], [-111.885513602732, 40.6947814389196], [-111.885507489696, 40.6961845629986], [-111.885503222699, 40.6971641958206], [-111.885574497728, 40.6971636713946], [-111.885597615872, 40.6971635018075], [-111.886622781359, 40.6971559630138], [-111.888264315099, 40.6971599370731], [-111.888276611238, 40.6986081400132], [-111.888269340274, 40.6989897377002], [-111.888265985965, 40.6992237685529], [-111.888264741799, 40.6998275071615], [-111.88679138885, 40.6998681580695], [-111.885491127782, 40.6998813778329], [-111.885351284347, 40.699871132193], [-111.88496284114, 40.6998652145929], [-111.884014203132, 40.699864747396], [-111.883421665387, 40.6998646520497], [-111.882714764022, 40.6998696461528]]]}, "properties": {"PrecinctID": "SSL010", "VistaID": "SSL010", "CountyID": 18, "SubPrecinctID": null, "AliasName": null, "VersionNbr": null}}, {"type": "Feature", "geometry": {"type": "Polygon", "coordinates": [[[-111.897655387521, 40.6998291893437], [-111.896916949001, 40.6998334949126], [-111.896270957904, 40.6998198910301], [-111.895325896089, 40.6997926818946], [-111.894775606112, 40.6997926825756], [-111.893214459912, 40.6997745435998], [-111.891820792021, 40.6997790786848], [-111.890014407545, 40.6997926825756], [-111.888264741799, 40.6998275071615], [-111.888265985965, 40.6992237685529], [-111.888269340274, 40.6989897377002], [-111.888276611238, 40.6986081400132], [-111.888264315099, 40.6971599370731], [-111.888271091989, 40.6947442544178], [-111.888270503593, 40.6946411634366], [-111.888270720985, 40.692959556464], [-111.888277567944, 40.691997496157], [-111.888289429299, 40.6897654678158], [-111.888273986361, 40.6887772396532], [-111.888262652317, 40.6872912120287], [-111.888261089249, 40.6870848828699], [-111.888260629311, 40.6870243603825], [-111.888260565531, 40.6870161065687], [-111.888830566341, 40.6870141073159], [-111.890542566627, 40.6870101067668], [-111.891113565466, 40.6870091061185], [-111.891399567493, 40.6870101060856], [-111.891687566474, 40.6870071075468], [-111.892447567256, 40.6870001057333], [-111.893296567726, 40.6869921066766], [-111.893409565907, 40.6869921080389], [-111.893693568284, 40.686990106742], [-111.893984567639, 40.6869871061587], [-111.894458567292, 40.6869841069377], [-111.895148568652, 40.6869821070028], [-111.895363566042, 40.6869741079439], [-111.895595567642, 40.6869621056072], [-111.895879568223, 40.6869371064087], [-111.896023566366, 40.6869251054278], [-111.896351567327, 40.6868841053522], [-111.896528567778, 40.6868571061858], [-111.896601567573, 40.686847107173], [-111.897062567705, 40.6867931060746], [-111.897241567805, 40.6867731059846], [-111.897558567998, 40.686741106237], [-111.897718567831, 40.6867201075224], [-111.898143568877, 40.6866681069466], [-111.898898568737, 40.6866311059228], [-111.89915656848, 40.6866341065221], [-111.899637567806, 40.6866401056766], [-111.899679567639, 40.6866401063578], [-111.899807567685, 40.6866411056492], [-111.899850568241, 40.6866421056218], [-111.900215567216, 40.6866461055119], [-111.901312568281, 40.6866581058619], [-111.901678567979, 40.6866631057233], [-111.901883568917, 40.6866661049587], [-111.901907569206, 40.6866671062933], [-111.90242556924, 40.6866841044558], [-111.902499567962, 40.6866891063588], [-111.902704568899, 40.6867061051968], [-111.903036568262, 40.6867331064679], [-111.903080568643, 40.6867361063814], [-111.903265568591, 40.6867561058013], [-111.904948569462, 40.6869441061853], [-111.904994570391, 40.6869501066743], [-111.905510568979, 40.6869951065784], [-111.905922569606, 40.686998105799], [-111.906698570281, 40.6870061062173], [-111.907158570588, 40.6870121067008], [-111.907571570142, 40.6870191057883], [-111.9077895706, 40.6870171058544], [-111.908446569653, 40.6870131053055], [-111.908666571557, 40.6870131059866], [-111.908856568833, 40.6870141059536], [-111.909427569469, 40.687018104459], [-111.909618569265, 40.6870201057552], [-111.909667569668, 40.6870191051071], [-111.909817570354, 40.6870191051071], [-111.909867570583, 40.6870191051071], [-111.910130569451, 40.687020105074], [-111.910919570544, 40.6870241049414], [-111.911183571033, 40.6870261055562], [-111.911183627627, 40.6870343396146], [-111.911184046242, 40.6870947204084], [-111.911184571757, 40.6871701040245], [-111.911189571779, 40.6876021050556], [-111.911191571429, 40.6877461043228], [-111.911193570181, 40.6879311054603], [-111.911199570029, 40.6884891056257], [-111.911201570577, 40.6886751053237], [-111.911198569305, 40.6890131059948], [-111.911197571277, 40.6891491054587], [-111.911195569831, 40.6895741064221], [-111.911187570333, 40.6900281051364], [-111.911182571208, 40.6903671063541], [-111.911187570333, 40.6906321055383], [-111.911203569328, 40.6914291054241], [-111.911205571673, 40.6914881056708], [-111.911224570143, 40.6916941058339], [-111.91122057264, 40.6922151058543], [-111.911212572244, 40.6933031062192], [-111.911204570051, 40.6937781073548], [-111.911199570927, 40.6940951061841], [-111.911196798726, 40.6943695714717], [-111.911199875456, 40.6950974065668], [-111.911209614092, 40.6974138970197], [-111.911215369598, 40.6983666909319], [-111.91121683475, 40.6996834005179], [-111.909918181666, 40.6998194422211], [-111.909649417411, 40.6998475945933], [-111.908854046364, 40.6998727190278], [-111.906050220208, 40.6998140946516], [-111.902201088335, 40.6998795233476], [-111.899710268462, 40.6999332584491], [-111.898645576204, 40.6998879124581], [-111.897694531609, 40.6998289605124], [-111.897655387521, 40.6998291893437]]]}, "properties": {"PrecinctID": "SSL009", "VistaID": "SSL009", "CountyID": 18, "SubPrecinctID": null, "AliasName": null, "VersionNbr": null}}, {"type": "Feature", "geometry": {"type": "Polygon", "coordinates": [[[-111.888226570586, 40.7254611109556], [-111.887894761666, 40.7253533598946], [-111.886607123724, 40.7253552354556], [-111.882568225443, 40.7253610309726], [-111.882568682685, 40.7228378310803], [-111.885262985344, 40.7228469872949], [-111.885422711191, 40.7228138406892], [-111.885407970736, 40.7211346633904], [-111.885407970736, 40.720223542429], [-111.885432135417, 40.7194268734374], [-111.885420053077, 40.7186530892752], [-111.885414841051, 40.7184366879941], [-111.885413056997, 40.7183625932125], [-111.885412858469, 40.7183543603025], [-111.885444569897, 40.7183541111092], [-111.887383569963, 40.7183521107544], [-111.888243569406, 40.7183521100735], [-111.888289571233, 40.7183401113472], [-111.8884305708, 40.7183491102219], [-111.888477568859, 40.7183491115836], [-111.889007570385, 40.7183381096302], [-111.889431569809, 40.7183301109318], [-111.890597570472, 40.7183351104588], [-111.891128571823, 40.7183381089493], [-111.89169957156, 40.718338110311], [-111.893378572233, 40.718338110311], [-111.893413570597, 40.7183371108142], [-111.893985571057, 40.7183301109318], [-111.896850356889, 40.7183231913897], [-111.896851000083, 40.7184387026444], [-111.896851055778, 40.7184487200648], [-111.89685254249, 40.7187154853308], [-111.896854423562, 40.7190528222695], [-111.896855708153, 40.7206074175657], [-111.89685575217, 40.720660595362], [-111.896855798883, 40.7207158258237], [-111.896855818646, 40.7207414067128], [-111.896856372008, 40.7214099649666], [-111.896857024185, 40.7222001308924], [-111.896858309674, 40.7237544668255], [-111.896862854251, 40.7245729265679], [-111.896863116559, 40.7246198596962], [-111.896867063757, 40.7253304794084], [-111.896869578141, 40.7254429857791], [-111.89686057253, 40.725443111724], [-111.896733573207, 40.7254421109724], [-111.896353572367, 40.7254421102916], [-111.896227573767, 40.7254421116531], [-111.895780573878, 40.7254411115822], [-111.89444257189, 40.7254401101496], [-111.893996571826, 40.7254401108304], [-111.893758571277, 40.7254381113693], [-111.893044572322, 40.7254351097947], [-111.892806571773, 40.7254341110852], [-111.892626570949, 40.7254391107595], [-111.892478572608, 40.7254381106885], [-111.892034571296, 40.7254371112983], [-111.891887570983, 40.7254371112983], [-111.891729572595, 40.7254351104755], [-111.891509571589, 40.7254341110852], [-111.891258571519, 40.7254371106175], [-111.89110157116, 40.7254391107595], [-111.891015570946, 40.7254431110433], [-111.890890570375, 40.7254491114684], [-111.89075957265, 40.7254521116808], [-111.890674571363, 40.7254541118223], [-111.890446571757, 40.7254531110708], [-111.889763569172, 40.72545011222], [-111.889536571188, 40.7254501115393], [-111.889274570349, 40.7254521123616], [-111.888487570701, 40.7254581107436], [-111.888229525144, 40.7254610762357], [-111.888226570586, 40.7254611109556]]]}, "properties": {"PrecinctID": "SSL013", "VistaID": "SSL013", "CountyID": 18, "SubPrecinctID": null, "AliasName": null, "VersionNbr": null}}, {"type": "Feature", "geometry": {"type": "Polygon", "coordinates": [[[-111.925116579431, 40.725978108706], [-111.924829578477, 40.7259771093238], [-111.922570577846, 40.7259871092712], [-111.922083579571, 40.7259841090829], [-111.921844578298, 40.7259831090201], [-111.921072578719, 40.7259821089573], [-111.920218579124, 40.725941107731], [-111.919547578031, 40.7259091084167], [-111.918779575956, 40.7258651089942], [-111.918228578106, 40.725820110158], [-111.91766357642, 40.7257621090716], [-111.91752157613, 40.7257481081446], [-111.916813576125, 40.7256861101304], [-111.916810703313, 40.7256859113424], [-111.916596575492, 40.725671108439], [-111.915947576835, 40.7256261101525], [-111.915731576925, 40.7256121085161], [-111.91571057611, 40.7256101097408], [-111.915648577983, 40.7256061087863], [-111.915628576095, 40.7256051100794], [-111.915299577105, 40.7255821091813], [-111.914831576402, 40.725559108956], [-111.914752577657, 40.7255581088868], [-111.912121575683, 40.7255441099591], [-111.911245575449, 40.7255401096814], [-111.91066157709, 40.7255441092783], [-111.909041574171, 40.7255531092215], [-111.908465574411, 40.7255571101792], [-111.908453574715, 40.7255571101792], [-111.908408574509, 40.7255571101792], [-111.90816257536, 40.7255581095676], [-111.908093573967, 40.7255591096367], [-111.907427575592, 40.7255631105941], [-111.907182574471, 40.7255651093707], [-111.907080574364, 40.7255631099133], [-111.906461574047, 40.7255381102233], [-111.90522357611, 40.7254771100416], [-111.905052574609, 40.7254731097599], [-111.904786573572, 40.7254691108395], [-111.90475357396, 40.725468110769], [-111.904672574668, 40.7254661106278], [-111.904460574955, 40.7254451098235], [-111.904186573522, 40.725424110374], [-111.904191573545, 40.725104109288], [-111.904189574794, 40.7249481095026], [-111.904178574923, 40.724440109291], [-111.904186573522, 40.7241731103069], [-111.904193573195, 40.7232881091971], [-111.904209574885, 40.7226201103729], [-111.904230573005, 40.7223341100252], [-111.904234574101, 40.7222151095375], [-111.904247573622, 40.7220321105808], [-111.90424957417, 40.7220091091286], [-111.904259574216, 40.7218551105085], [-111.904278572686, 40.7214941094021], [-111.904278573584, 40.7214811090693], [-111.904277573759, 40.7212971100038], [-111.9043035728, 40.7207141094467], [-111.904316573219, 40.7196121099987], [-111.90427057229, 40.7185061099895], [-111.903965574488, 40.7182831086869], [-111.903766574296, 40.7181721098881], [-111.903197574209, 40.7179691084103], [-111.902681572926, 40.7178631086505], [-111.902213573121, 40.7178141091091], [-111.901961573226, 40.7178111085524], [-111.901648573232, 40.7178021089241], [-111.900737571939, 40.7178221092312], [-111.900670571992, 40.7178271087964], [-111.90033357081, 40.717855109895], [-111.900206572385, 40.7178641108778], [-111.899825572618, 40.7178951084288], [-111.899767571095, 40.7179001093502], [-111.899700572047, 40.7179051095904], [-111.899328572501, 40.7179371107102], [-111.896883572096, 40.7181221090315], [-111.89684923669, 40.7181225849515], [-111.896849143265, 40.7181058290256], [-111.896845431426, 40.717440028453], [-111.896837943968, 40.7160966894035], [-111.896837615185, 40.7160376503538], [-111.896836858803, 40.7159020434977], [-111.896828781152, 40.7144533906547], [-111.896828554777, 40.7144127745228], [-111.89682814784, 40.7143397476754], [-111.896819537488, 40.7127952823472], [-111.896819244637, 40.7127427076853], [-111.896816404164, 40.7126633819121], [-111.892949358089, 40.7126632620712], [-111.885413043522, 40.7126503526181], [-111.885408809762, 40.7118020777876], [-111.885415159055, 40.7109740233076], [-111.885422789345, 40.7100411161709], [-111.885424945302, 40.7095556742926], [-111.885426682643, 40.7092385413443], [-111.885450603881, 40.7090164133026], [-111.885453764154, 40.7084794768183], [-111.885451096158, 40.7082244988059], [-111.885468485745, 40.7074354928383], [-111.885468894479, 40.7066543373436], [-111.885469534079, 40.7062595568993], [-111.885470228477, 40.7058331042794], [-111.885469024734, 40.7058256577187], [-111.885461335155, 40.7057780759809], [-111.885445142124, 40.7057612488497], [-111.885445734114, 40.7057612440829], [-111.885446774363, 40.7057262005982], [-111.885464426258, 40.7051306887115], [-111.888286904135, 40.7051094336106], [-111.888286897847, 40.7051222212663], [-111.888498443011, 40.7051231487765], [-111.888498421452, 40.7052178071781], [-111.888498391807, 40.7053550436093], [-111.88849836396, 40.7054785551342], [-111.888498344197, 40.7055608980665], [-111.888498284908, 40.7058259287504], [-111.888498213043, 40.7061470616884], [-111.88849818789, 40.7062568506861], [-111.889374524992, 40.7062551230406], [-111.889435940113, 40.7062550025072], [-111.889580210446, 40.7062547171767], [-111.889735196782, 40.7062544100548], [-111.890058498656, 40.7062537699339], [-111.890972409592, 40.7062519558039], [-111.891271160509, 40.7062539796757], [-111.8923646824, 40.7062512666524], [-111.892545016498, 40.7062508165248], [-111.893878929355, 40.7062522649687], [-111.893990940288, 40.7062518100742], [-111.89399090705, 40.7062410825995], [-111.897086230228, 40.7062445052042], [-111.89958573681, 40.7063475285176], [-111.899586036848, 40.7062926347971], [-111.899636507794, 40.7062926872325], [-111.899636333521, 40.7062663673765], [-111.903075452737, 40.7062632941156], [-111.903073097355, 40.7061931347911], [-111.90374432123, 40.7061582958278], [-111.904119274436, 40.7061565961], [-111.904311986421, 40.7061563788671], [-111.904312149914, 40.7062399821361], [-111.904667592611, 40.706239342696], [-111.904667674358, 40.706239342696], [-111.904684751331, 40.7068408454101], [-111.904409606343, 40.7070969931808], [-111.904444982897, 40.7078792895441], [-111.905540510725, 40.7078846868574], [-111.905341114377, 40.7059777253798], [-111.905341116173, 40.7059764512615], [-111.906020066458, 40.7057658679692], [-111.90626562184, 40.7056897038719], [-111.906839293167, 40.7073716990786], [-111.910419218813, 40.7076826516259], [-111.91087003205, 40.7077080352764], [-111.911494318951, 40.7077431839488], [-111.912849736578, 40.7078494538203], [-111.914466036641, 40.7079973017063], [-111.916801059898, 40.7082108544177], [-111.916948104229, 40.7082243006467], [-111.917094621248, 40.7082376992059], [-111.917094618554, 40.7082466653981], [-111.920051112494, 40.7085072809662], [-111.920498224672, 40.7085478244333], [-111.921396307293, 40.7083116064159], [-111.922933234912, 40.7079147261734], [-111.923231203397, 40.7078377807446], [-111.923297923968, 40.7078205503224], [-111.923379590709, 40.7077600105792], [-111.923434576588, 40.7078161077151], [-111.923571575957, 40.7079561075849], [-111.923621577084, 40.7080521075396], [-111.923691576506, 40.708184106996], [-111.92383857592, 40.7084641069369], [-111.92383857592, 40.7084761074432], [-111.923856575464, 40.7091961059387], [-111.923890575799, 40.709460106864], [-111.923932575632, 40.7097871063114], [-111.923967470689, 40.7106263674002], [-111.923971576888, 40.7107251069885], [-111.92402457749, 40.7119881070486], [-111.924090575815, 40.713542106751], [-111.924107576432, 40.7139331065557], [-111.924112578252, 40.7140521068694], [-111.924100058432, 40.7142668787161], [-111.924099896735, 40.7142748908397], [-111.924099576935, 40.7142751073652], [-111.924087576341, 40.7144811071961], [-111.92407657647, 40.7146651080795], [-111.924051576356, 40.7151031078552], [-111.923964577215, 40.7152341074086], [-111.923901577466, 40.715330107765], [-111.923584576375, 40.715813107436], [-111.922061576236, 40.7164561081494], [-111.921692576165, 40.7167231074499], [-111.921316576421, 40.7169971077456], [-111.921138576146, 40.7173881076858], [-111.921117577128, 40.7174331088184], [-111.921072576024, 40.7175341083144], [-111.921066576176, 40.7175721093862], [-111.921060576328, 40.7176221079323], [-111.920972577363, 40.7182781077942], [-111.920867577781, 40.7190631085328], [-111.920457576804, 40.7201861093274], [-111.92037157659, 40.7204241078133], [-111.92036057672, 40.7208341079923], [-111.920355576697, 40.7210351086288], [-111.920995578726, 40.7216251079535], [-111.921957576479, 40.722512107577], [-111.923402576801, 40.7237571090131], [-111.923973578334, 40.7242491075719], [-111.924193578443, 40.7244381084382], [-111.924207577788, 40.7244631092222], [-111.924215578184, 40.7244771090581], [-111.924268579684, 40.7245031078701], [-111.924396578832, 40.7246131096444], [-111.924603577623, 40.7247471084284], [-111.92518157883, 40.7251221079305], [-111.925763578438, 40.7256471088575], [-111.926128578311, 40.7259761092609], [-111.926020578356, 40.725977108643], [-111.925913578225, 40.7259781080252], [-111.925618578673, 40.7259811088945], [-111.925116579431, 40.725978108706]]]}, "properties": {"PrecinctID": "SSL001", "VistaID": "SSL001", "CountyID": 18, "SubPrecinctID": null, "AliasName": null, "VersionNbr": null}}, {"type": "Feature", "geometry": {"type": "Polygon", "coordinates": [[[-111.876808407504, 40.7253693297328], [-111.876808414691, 40.7253686176325], [-111.876808418284, 40.725368256136], [-111.876808517997, 40.725359883851], [-111.876809568128, 40.7252711122401], [-111.876815568874, 40.724767112776], [-111.876818569247, 40.7245991125603], [-111.87681856745, 40.724438112523], [-111.876820567998, 40.7239571116224], [-111.876822568546, 40.7237971114893], [-111.876823567473, 40.7236381117504], [-111.876825568021, 40.7231641126127], [-111.876827568569, 40.72300611215], [-111.876827569468, 40.7229861113581], [-111.876827568569, 40.7229331110684], [-111.876827568569, 40.7227761128916], [-111.876828568394, 40.7227241118657], [-111.876829568219, 40.7223291121601], [-111.876831567869, 40.7216461120057], [-111.876832567694, 40.7215231118114], [-111.876837567717, 40.7211571116322], [-111.87684056809, 40.7210361114893], [-111.876840566293, 40.7208771126438], [-111.87684256774, 40.720401111933], [-111.876843569361, 40.7202431117198], [-111.876842566841, 40.7200851111316], [-111.876840567191, 40.7196121120412], [-111.87684056809, 40.7194551114779], [-111.87684056809, 40.7193961114913], [-111.876840567191, 40.7192201120633], [-111.87684056809, 40.7191621120337], [-111.876839567367, 40.7190651122706], [-111.876838566643, 40.7187751116232], [-111.876838567542, 40.7186791114687], [-111.876837568615, 40.7186171116357], [-111.876837568615, 40.7185724456027], [-111.876837567717, 40.7184534642624], [-111.876837566818, 40.7183793463503], [-111.876837566818, 40.7183711127616], [-111.877989568135, 40.7183711113999], [-111.878871568217, 40.7183711113999], [-111.881448568866, 40.7183621118473], [-111.882192569754, 40.7183601108118], [-111.882601570008, 40.7183651103366], [-111.882870569622, 40.7183651110174], [-111.883678570084, 40.7183661105139], [-111.883948568624, 40.718367111372], [-111.884806568416, 40.7183591099536], [-111.885412858469, 40.7183543603025], [-111.885413056997, 40.7183625932125], [-111.885414841051, 40.7184366879941], [-111.885420053077, 40.7186530892752], [-111.885432135417, 40.7194268734374], [-111.885407970736, 40.720223542429], [-111.885407970736, 40.7211346633904], [-111.885422711191, 40.7228138406892], [-111.885262985344, 40.7228469872949], [-111.882568682685, 40.7228378310803], [-111.882568225443, 40.7253610309726], [-111.882562326206, 40.7253610384612], [-111.882562259731, 40.7253610377804], [-111.882356890484, 40.7253613346024], [-111.881062435228, 40.7253631992706], [-111.880584729126, 40.7253638882243], [-111.876988802688, 40.7253690737579], [-111.876808407504, 40.7253693297328]]]}, "properties": {"PrecinctID": "SSL003", "VistaID": "SSL003", "CountyID": 18, "SubPrecinctID": null, "AliasName": null, "VersionNbr": null}}, {"type": "Feature", "geometry": {"type": "Polygon", "coordinates": [[[-111.885446774363, 40.7057262005982], [-111.88536406378, 40.7057261318187], [-111.88535277555, 40.7057261229659], [-111.885294687789, 40.7057260766588], [-111.88509629935, 40.7056570492479], [-111.884978404452, 40.7056160307353], [-111.884666700726, 40.7055075774594], [-111.884443918536, 40.7054792354409], [-111.884223966039, 40.7053816042145], [-111.883878299707, 40.7049928770601], [-111.88366215427, 40.7049926986401], [-111.883565166762, 40.7049926196449], [-111.883417869107, 40.7049924977473], [-111.883281366506, 40.7049923833405], [-111.883144865702, 40.7049922696147], [-111.88279629871, 40.7049919801929], [-111.882686413192, 40.7049918875778], [-111.882687533391, 40.7048394288181], [-111.88268807777, 40.7047651806622], [-111.882688629335, 40.7046897876696], [-111.882690915548, 40.704377645744], [-111.882694601335, 40.7037759866249], [-111.882687700477, 40.7031769943586], [-111.882703619523, 40.7022624486333], [-111.88271550603, 40.7018746294672], [-111.882715058669, 40.700691644001], [-111.882714764022, 40.6998696461528], [-111.883421665387, 40.6998646520497], [-111.884014203132, 40.699864747396], [-111.88496284114, 40.6998652145929], [-111.885351284347, 40.699871132193], [-111.885491127782, 40.6998813778329], [-111.88679138885, 40.6998681580695], [-111.888264741799, 40.6998275071615], [-111.890014407545, 40.6997926825756], [-111.891820792021, 40.6997790786848], [-111.893214459912, 40.6997745435998], [-111.894775606112, 40.6997926825756], [-111.895325896089, 40.6997926818946], [-111.896270957904, 40.6998198910301], [-111.896916949001, 40.6998334949126], [-111.897655387521, 40.6998291893437], [-111.897658561269, 40.6998552195751], [-111.897658859509, 40.699895897708], [-111.89766908054, 40.7012854752951], [-111.897667357572, 40.7013611820097], [-111.897670251944, 40.7013681734607], [-111.897686673147, 40.7014078318498], [-111.897765419465, 40.7014784347976], [-111.897871703638, 40.7015586054298], [-111.897935554091, 40.7016228365289], [-111.897959198648, 40.7016823187686], [-111.89796820875, 40.7017676492865], [-111.897966060878, 40.7024365526663], [-111.89795818445, 40.7038779030394], [-111.897714146323, 40.7038880608944], [-111.896927278728, 40.7038805099227], [-111.893997227596, 40.7038779636487], [-111.893982313766, 40.7046781072302], [-111.894004311711, 40.7051016022088], [-111.893990361773, 40.7060689538246], [-111.89399090705, 40.7062410825995], [-111.893990940288, 40.7062518100742], [-111.893878929355, 40.7062522649687], [-111.892545016498, 40.7062508165248], [-111.8923646824, 40.7062512666524], [-111.891271160509, 40.7062539796757], [-111.890972409592, 40.7062519558039], [-111.890058498656, 40.7062537699339], [-111.889735196782, 40.7062544100548], [-111.889580210446, 40.7062547171767], [-111.889435940113, 40.7062550025072], [-111.889374524992, 40.7062551230406], [-111.88849818789, 40.7062568506861], [-111.888498213043, 40.7061470616884], [-111.888498284908, 40.7058259287504], [-111.888498344197, 40.7055608980665], [-111.88849836396, 40.7054785551342], [-111.888498391807, 40.7053550436093], [-111.888498421452, 40.7052178071781], [-111.888498443011, 40.7051231487765], [-111.888286897847, 40.7051222212663], [-111.888286904135, 40.7051094336106], [-111.885464426258, 40.7051306887115], [-111.885446774363, 40.7057262005982]]]}, "properties": {"PrecinctID": "SSL015", "VistaID": "SSL015", "CountyID": 18, "SubPrecinctID": null, "AliasName": null, "VersionNbr": null}}, {"type": "Feature", "geometry": {"type": "Polygon", "coordinates": [[[-111.87687556825, 40.7126576111642], [-111.876875566453, 40.7126571106923], [-111.876876969622, 40.712558147905], [-111.876883566849, 40.7120931104438], [-111.876883566849, 40.7120061105995], [-111.876892566172, 40.7100561104899], [-111.876894565821, 40.7097391106662], [-111.876888768095, 40.7094172575835], [-111.876888750128, 40.7094162947239], [-111.876888744738, 40.709416074097], [-111.876888565974, 40.7094061091122], [-111.87689056742, 40.7089371103281], [-111.876896565471, 40.7075301105002], [-111.876898566019, 40.7070611107611], [-111.876895565646, 40.7069201107035], [-111.876886566324, 40.7064981097758], [-111.876884565776, 40.7063581095647], [-111.876899565844, 40.7056731096156], [-111.876903566941, 40.7055081106725], [-111.876896531335, 40.7050017245156], [-111.876897075714, 40.7050017231536], [-111.877036302905, 40.7050014180689], [-111.877741379792, 40.7049998708539], [-111.877811948746, 40.7049997162686], [-111.87843262442, 40.7049983508785], [-111.878432540877, 40.7050164782169], [-111.878522166691, 40.7050162807291], [-111.878612333291, 40.7050160818793], [-111.878702500789, 40.7050158823486], [-111.878765660439, 40.7050157420642], [-111.878792665593, 40.7050156848608], [-111.878882832193, 40.7050154846491], [-111.878972996098, 40.7050152864803], [-111.879063162698, 40.7050150883115], [-111.879155132216, 40.7050148840137], [-111.879211419754, 40.7050147607541], [-111.879212309086, 40.7052480553989], [-111.87948028462, 40.7052474636186], [-111.879480699642, 40.7051568884809], [-111.879481015849, 40.7050882717989], [-111.879481155088, 40.7050577197831], [-111.879548814398, 40.7050578648344], [-111.879585132387, 40.7050579431484], [-111.879622118722, 40.7050580214625], [-111.879803184049, 40.705058409628], [-111.879804586319, 40.7049061655334], [-111.879988526255, 40.7049065564237], [-111.879988544221, 40.7050918231702], [-111.880350571569, 40.7050925967767], [-111.880540815882, 40.7050930026476], [-111.880721147285, 40.7050933867269], [-111.880901480485, 40.7050937701251], [-111.881081811888, 40.7050941535234], [-111.88126214419, 40.7050945382836], [-111.881442474695, 40.7050949203199], [-111.88157061937, 40.7050951933975], [-111.881622808794, 40.7050953037182], [-111.881803139299, 40.7050956857544], [-111.881849870558, 40.7050957851792], [-111.8819834716, 40.7050960684717], [-111.88215427637, 40.7050964293972], [-111.8821638048, 40.705096449827], [-111.882344136204, 40.7050968318632], [-111.882563242488, 40.7050972956185], [-111.882563430236, 40.7050697127313], [-111.882563538034, 40.705053405018], [-111.882563706917, 40.705028423503], [-111.882563954852, 40.7049917854289], [-111.882686413192, 40.7049918875778], [-111.882686139205, 40.7050291548887], [-111.882683247529, 40.705502907929], [-111.882684808801, 40.7057809994477], [-111.882675882242, 40.70632284099], [-111.882671823653, 40.7066528814177], [-111.882665384529, 40.7074448711239], [-111.882664929083, 40.7075053137753], [-111.88266466947, 40.7082290469347], [-111.882654239131, 40.7090168770305], [-111.882650894704, 40.7097830281401], [-111.882650582988, 40.709854262977], [-111.882648814205, 40.7102591095392], [-111.882656371732, 40.7109746926632], [-111.882651986157, 40.711576424976], [-111.882651764273, 40.7116068636914], [-111.882650424885, 40.7117902842005], [-111.882637629282, 40.7126454765906], [-111.881284951517, 40.7126557440974], [-111.880785751425, 40.7126595047867], [-111.879749007553, 40.7126612656308], [-111.878952073436, 40.7126597424257], [-111.878922568271, 40.7126596879526], [-111.878712313985, 40.7126592848514], [-111.878434702223, 40.7126574899615], [-111.878234368033, 40.7126581341063], [-111.877900572938, 40.7126592079081], [-111.877818755281, 40.7126591180274], [-111.877784925625, 40.712659081258], [-111.877110754378, 40.7126583411043], [-111.877055924806, 40.7126581715566], [-111.876886391152, 40.71265764521], [-111.87687556825, 40.7126576111642]]]}, "properties": {"PrecinctID": "SSL005", "VistaID": "SSL005", "CountyID": 18, "SubPrecinctID": null, "AliasName": null, "VersionNbr": null}}, {"type": "Feature", "geometry": {"type": "Polygon", "coordinates": [[[-111.876868385321, 40.7162741330596], [-111.876867567854, 40.7162741112715], [-111.876867566956, 40.7161801113349], [-111.876868556001, 40.7159001608616], [-111.876879378005, 40.7159001295411], [-111.876980639697, 40.7158998326769], [-111.876986768902, 40.7158998299534], [-111.877817616217, 40.7158994622776], [-111.877816591239, 40.7162149116919], [-111.877473099729, 40.7162150648894], [-111.877472637097, 40.7162688773679], [-111.877472567028, 40.7162771125784], [-111.87737656587, 40.7162771112166], [-111.877223568404, 40.7162771112166], [-111.877010565274, 40.7162781107443], [-111.876886409119, 40.7162746382705], [-111.876868385321, 40.7162741330596]]]}, "properties": {"PrecinctID": "SSL901", "VistaID": "SSL901", "CountyID": 18, "SubPrecinctID": null, "AliasName": null, "VersionNbr": null}}, {"type": "Feature", "geometry": {"type": "Polygon", "coordinates": [[[-111.876896531335, 40.7050017245156], [-111.876895566545, 40.7049321106997], [-111.876899564946, 40.7046721090186], [-111.876905565692, 40.7044021099441], [-111.876908565167, 40.7040221095689], [-111.876910564817, 40.7032681088249], [-111.876910565715, 40.7031321088966], [-111.876914565015, 40.7029351089637], [-111.876915565738, 40.7028691098549], [-111.876919565936, 40.7026741106511], [-111.876921564687, 40.7026101100686], [-111.876918565213, 40.7024431088335], [-111.876918566111, 40.7024281087143], [-111.876930566705, 40.7018821084778], [-111.876935565829, 40.701701108286], [-111.876931565631, 40.7013911091741], [-111.876937566377, 40.7007931102032], [-111.876937564581, 40.7006101088885], [-111.876939565129, 40.7000641087325], [-111.876940564056, 40.699883368527], [-111.876951384263, 40.6998831621704], [-111.877931384254, 40.6998637176559], [-111.878809867432, 40.6998689038138], [-111.879818278441, 40.69987904253], [-111.881642977768, 40.6998731235685], [-111.881773602692, 40.6998727006395], [-111.882714764022, 40.6998696461528], [-111.882715058669, 40.700691644001], [-111.88271550603, 40.7018746294672], [-111.882703619523, 40.7022624486333], [-111.882687700477, 40.7031769943586], [-111.882694601335, 40.7037759866249], [-111.882690915548, 40.704377645744], [-111.882688629335, 40.7046897876696], [-111.88268807777, 40.7047651806622], [-111.882687533391, 40.7048394288181], [-111.882686413192, 40.7049918875778], [-111.882563954852, 40.7049917854289], [-111.882563706917, 40.705028423503], [-111.882563538034, 40.705053405018], [-111.882563430236, 40.7050697127313], [-111.882563242488, 40.7050972956185], [-111.882344136204, 40.7050968318632], [-111.8821638048, 40.705096449827], [-111.88215427637, 40.7050964293972], [-111.8819834716, 40.7050960684717], [-111.881849870558, 40.7050957851792], [-111.881803139299, 40.7050956857544], [-111.881622808794, 40.7050953037182], [-111.88157061937, 40.7050951933975], [-111.881442474695, 40.7050949203199], [-111.88126214419, 40.7050945382836], [-111.881081811888, 40.7050941535234], [-111.880901480485, 40.7050937701251], [-111.880721147285, 40.7050933867269], [-111.880540815882, 40.7050930026476], [-111.880350571569, 40.7050925967767], [-111.879988544221, 40.7050918231702], [-111.879988526255, 40.7049065564237], [-111.879804586319, 40.7049061655334], [-111.879803184049, 40.705058409628], [-111.879622118722, 40.7050580214625], [-111.879585132387, 40.7050579431484], [-111.879548814398, 40.7050578648344], [-111.879481155088, 40.7050577197831], [-111.879481015849, 40.7050882717989], [-111.879480699642, 40.7051568884809], [-111.87948028462, 40.7052474636186], [-111.879212309086, 40.7052480553989], [-111.879211419754, 40.7050147607541], [-111.879155132216, 40.7050148840137], [-111.879063162698, 40.7050150883115], [-111.878972996098, 40.7050152864803], [-111.878882832193, 40.7050154846491], [-111.878792665593, 40.7050156848608], [-111.878765660439, 40.7050157420642], [-111.878702500789, 40.7050158823486], [-111.878612333291, 40.7050160818793], [-111.878522166691, 40.7050162807291], [-111.878432540877, 40.7050164782169], [-111.87843262442, 40.7049983508785], [-111.877811948746, 40.7049997162686], [-111.877741379792, 40.7049998708539], [-111.877036302905, 40.7050014180689], [-111.876897075714, 40.7050017231536], [-111.876896531335, 40.7050017245156]]]}, "properties": {"PrecinctID": "SSL016", "VistaID": "SSL016", "CountyID": 18, "SubPrecinctID": null, "AliasName": null, "VersionNbr": null}}, {"type": "Feature", "geometry": {"type": "Polygon", "coordinates": [[[-111.87126347287, 40.7093367334654], [-111.87118306916, 40.7093368737407], [-111.871226184701, 40.699881758537], [-111.87156349131, 40.6998825574026], [-111.876929744746, 40.6998833637597], [-111.876940564056, 40.699883368527], [-111.876939565129, 40.7000641087325], [-111.876937564581, 40.7006101088885], [-111.876937566377, 40.7007931102032], [-111.876931565631, 40.7013911091741], [-111.876935565829, 40.701701108286], [-111.876930566705, 40.7018821084778], [-111.876918566111, 40.7024281087143], [-111.876918565213, 40.7024431088335], [-111.876921564687, 40.7026101100686], [-111.876919565936, 40.7026741106511], [-111.876915565738, 40.7028691098549], [-111.876914565015, 40.7029351089637], [-111.876910565715, 40.7031321088966], [-111.876910564817, 40.7032681088249], [-111.876908565167, 40.7040221095689], [-111.876905565692, 40.7044021099441], [-111.876899564946, 40.7046721090186], [-111.876895566545, 40.7049321106997], [-111.876896531335, 40.7050017245156], [-111.876802532522, 40.7050019301753], [-111.876802508268, 40.7050071424919], [-111.876801907295, 40.7051306519379], [-111.876801385374, 40.7052541257435], [-111.876206275752, 40.7052550934302], [-111.876206194006, 40.7052550920682], [-111.876206196701, 40.7052551329276], [-111.876205405285, 40.705419812433], [-111.876204974094, 40.7055086084742], [-111.876204525834, 40.705601717765], [-111.876203657163, 40.7057798485838], [-111.876203052597, 40.7059033620448], [-111.876203136141, 40.7059033211858], [-111.876798238575, 40.7059016010219], [-111.876797637602, 40.7060251128951], [-111.876202533371, 40.7060268323748], [-111.876202449828, 40.706026824884], [-111.876202453421, 40.7060268718718], [-111.876201853346, 40.7061503835127], [-111.876201250577, 40.7062738949245], [-111.876345519113, 40.706273478165], [-111.87634518494, 40.7063420956688], [-111.876344849868, 40.7064107131019], [-111.876344517492, 40.7064793297834], [-111.876344183318, 40.706547947075], [-111.876344012638, 40.7065829710601], [-111.876343849145, 40.706616564977], [-111.876343514972, 40.7066851834893], [-111.876343181697, 40.7067538005689], [-111.876342847523, 40.7068224182588], [-111.876342512452, 40.706891035197], [-111.876342125278, 40.7069705217467], [-111.876341679714, 40.707061829186], [-111.876341236844, 40.7071516342792], [-111.876341320387, 40.7071516342792], [-111.876792168659, 40.7071503309016], [-111.87679144821, 40.7072984615799], [-111.876340599939, 40.7072997663166], [-111.876340516395, 40.7072997608689], [-111.876340519989, 40.7072998051319], [-111.876340185815, 40.7073684229401], [-111.876339851642, 40.7074370406777], [-111.876034307664, 40.7074380110566], [-111.876034050746, 40.7076438379653], [-111.876033932169, 40.7077372595575], [-111.876033928575, 40.7077407706106], [-111.876033813591, 40.7078332230556], [-111.876033792031, 40.7078496921575], [-111.87601273103, 40.7078497663825], [-111.876012708572, 40.7078428191935], [-111.874009129518, 40.7078464160425], [-111.874011559461, 40.7086344215848], [-111.874879006835, 40.7086328690065], [-111.87488116908, 40.7093302998665], [-111.871994079877, 40.7093354403448], [-111.871869094576, 40.7093356616529], [-111.87126347287, 40.7093367334654]]]}, "properties": {"PrecinctID": "SSL006", "VistaID": "SSL006", "CountyID": 18, "SubPrecinctID": null, "AliasName": null, "VersionNbr": null}}, {"type": "Feature", "geometry": {"type": "Polygon", "coordinates": [[[-111.911199875456, 40.6950974065668], [-111.911211956, 40.6950973009972], [-111.911214391332, 40.6950972798833], [-111.911309928061, 40.6950964414569], [-111.911318316529, 40.6950963672177], [-111.911503001169, 40.6950947468955], [-111.913031790052, 40.6950813198108], [-111.914968644043, 40.6950889344407], [-111.916922557939, 40.6950916806111], [-111.916922062967, 40.6950129134239], [-111.916901178934, 40.691694397357], [-111.91691033097, 40.6913599773744], [-111.916929042877, 40.6906761650278], [-111.916937009137, 40.6903851252857], [-111.916948754609, 40.6899834689689], [-111.916972526727, 40.6898256152259], [-111.917061633315, 40.6896793869641], [-111.917300895099, 40.6893456509631], [-111.917393342522, 40.6891326044868], [-111.917415756386, 40.6889657526955], [-111.917398188932, 40.6886767898309], [-111.917396493812, 40.6886591430316], [-111.917394494162, 40.6870157108052], [-111.917394491467, 40.6870151433853], [-111.917394570518, 40.6870151427041], [-111.917394571417, 40.687015103877], [-111.917415572232, 40.6870151045582], [-111.91781057314, 40.6869891047311], [-111.918269571826, 40.6869291053009], [-111.918604571562, 40.6868701044235], [-111.918807571053, 40.6868361054643], [-111.919378572587, 40.6867151056217], [-111.919393571757, 40.6867121043449], [-111.919737571714, 40.68663510377], [-111.920556572945, 40.6864521044351], [-111.920769572482, 40.6864071048455], [-111.920964573374, 40.6863671051091], [-111.921039572819, 40.686351104118], [-111.921115572987, 40.6863351044853], [-111.92112206601, 40.6863423100424], [-111.922054572072, 40.6873771045558], [-111.922635572753, 40.6876591040081], [-111.923920574139, 40.6880301041606], [-111.924511572172, 40.6884271035675], [-111.924537573009, 40.6885081038937], [-111.924589572888, 40.6886681050478], [-111.924591572538, 40.6888271045156], [-111.924416574432, 40.6891601047422], [-111.924050572937, 40.6893221041954], [-111.923640572859, 40.6892931054701], [-111.923197574066, 40.6892911049234], [-111.9228815728, 40.6894461038641], [-111.922733574459, 40.6896001045595], [-111.922710573994, 40.6897591045282], [-111.922703572525, 40.689868103842], [-111.923282572658, 40.6906141057453], [-111.92378957372, 40.6909731048607], [-111.923934573485, 40.6912011051919], [-111.923816574382, 40.6914001055723], [-111.923233574051, 40.6916021050528], [-111.922873573303, 40.6915921047086], [-111.922470573795, 40.691512105306], [-111.922127574562, 40.6914961055502], [-111.921852574202, 40.6915811037832], [-111.921821572443, 40.691753105846], [-111.922298574266, 40.6936081048066], [-111.922384573581, 40.6937221060104], [-111.92266357324, 40.6940421046907], [-111.922809573729, 40.6942091051924], [-111.9229385736, 40.6944821056452], [-111.922959573517, 40.6948321057071], [-111.922830573645, 40.6951831064991], [-111.922343573573, 40.6956201044914], [-111.92210757447, 40.6960681045713], [-111.922061574439, 40.696393106099], [-111.922075574683, 40.6966701050641], [-111.922083573282, 40.6968191063102], [-111.922379574457, 40.6976381062819], [-111.922681573682, 40.6982981067562], [-111.923141575786, 40.6986061050122], [-111.923761574131, 40.6986841058483], [-111.924156576836, 40.6987961062777], [-111.924476574706, 40.6989651053349], [-111.924583576633, 40.6994231052468], [-111.924583575735, 40.6994399809717], [-111.924183839807, 40.6994367500733], [-111.922614186561, 40.6994240464573], [-111.921223676248, 40.6994319486747], [-111.919835015566, 40.6994239613261], [-111.916949806536, 40.6994227054707], [-111.915456913434, 40.6994135548881], [-111.914779301639, 40.6994187478916], [-111.913902079696, 40.6994186566309], [-111.913436253814, 40.6994268285446], [-111.912490848842, 40.6995069505674], [-111.911975681196, 40.6995736980742], [-111.911645829706, 40.6996200338411], [-111.91121683475, 40.6996834005179], [-111.911215369598, 40.6983666909319], [-111.911209614092, 40.6974138970197], [-111.911199875456, 40.6950974065668]]]}, "properties": {"PrecinctID": "SSL008", "VistaID": "SSL008", "CountyID": 18, "SubPrecinctID": null, "AliasName": null, "VersionNbr": null}}, {"type": "Feature", "geometry": {"type": "Polygon", "coordinates": [[[-111.911199875456, 40.6950974065668], [-111.911196798726, 40.6943695714717], [-111.911199570927, 40.6940951061841], [-111.911204570051, 40.6937781073548], [-111.911212572244, 40.6933031062192], [-111.91122057264, 40.6922151058543], [-111.911224570143, 40.6916941058339], [-111.911205571673, 40.6914881056708], [-111.911203569328, 40.6914291054241], [-111.911187570333, 40.6906321055383], [-111.911182571208, 40.6903671063541], [-111.911187570333, 40.6900281051364], [-111.911195569831, 40.6895741064221], [-111.911197571277, 40.6891491054587], [-111.911198569305, 40.6890131059948], [-111.911201570577, 40.6886751053237], [-111.911199570029, 40.6884891056257], [-111.911193570181, 40.6879311054603], [-111.911191571429, 40.6877461043228], [-111.911189571779, 40.6876021050556], [-111.911184571757, 40.6871701040245], [-111.911184046242, 40.6870947204084], [-111.911183627627, 40.6870343396146], [-111.911183571033, 40.6870261055562], [-111.912025570932, 40.6870251049082], [-111.913518570935, 40.6870241042602], [-111.914554571002, 40.687026104875], [-111.915397571624, 40.6870281048086], [-111.915612570811, 40.6870281054897], [-111.916014572291, 40.687025104227], [-111.916201572787, 40.6870231049745], [-111.917394571417, 40.687015103877], [-111.917394570518, 40.6870151427041], [-111.917394491467, 40.6870151433853], [-111.917394494162, 40.6870157108052], [-111.917396493812, 40.6886591430316], [-111.917398188932, 40.6886767898309], [-111.917415756386, 40.6889657526955], [-111.917393342522, 40.6891326044868], [-111.917300895099, 40.6893456509631], [-111.917061633315, 40.6896793869641], [-111.916972526727, 40.6898256152259], [-111.916948754609, 40.6899834689689], [-111.916937009137, 40.6903851252857], [-111.916929042877, 40.6906761650278], [-111.91691033097, 40.6913599773744], [-111.916901178934, 40.691694397357], [-111.916922062967, 40.6950129134239], [-111.916922557939, 40.6950916806111], [-111.914968644043, 40.6950889344407], [-111.913031790052, 40.6950813198108], [-111.911503001169, 40.6950947468955], [-111.911318316529, 40.6950963672177], [-111.911309928061, 40.6950964414569], [-111.911214391332, 40.6950972798833], [-111.911211956, 40.6950973009972], [-111.911199875456, 40.6950974065668]]]}, "properties": {"PrecinctID": "SSL020", "VistaID": "SSL020", "CountyID": 18, "SubPrecinctID": null, "AliasName": null, "VersionNbr": null}}, {"type": "Feature", "geometry": {"type": "Polygon", "coordinates": [[[-111.87601273103, 40.7078497663825], [-111.876033792031, 40.7078496921575], [-111.876033813591, 40.7078332230556], [-111.876033928575, 40.7077407706106], [-111.876033932169, 40.7077372595575], [-111.876034050746, 40.7076438379653], [-111.876034307664, 40.7074380110566], [-111.876339851642, 40.7074370406777], [-111.876340185815, 40.7073684229401], [-111.876340519989, 40.7072998051319], [-111.876340516395, 40.7072997608689], [-111.876340599939, 40.7072997663166], [-111.87679144821, 40.7072984615799], [-111.876792168659, 40.7071503309016], [-111.876341320387, 40.7071516342792], [-111.876341236844, 40.7071516342792], [-111.876341679714, 40.707061829186], [-111.876342125278, 40.7069705217467], [-111.876342512452, 40.706891035197], [-111.876342847523, 40.7068224182588], [-111.876343181697, 40.7067538005689], [-111.876343514972, 40.7066851834893], [-111.876343849145, 40.706616564977], [-111.876344012638, 40.7065829710601], [-111.876344183318, 40.706547947075], [-111.876344517492, 40.7064793297834], [-111.876344849868, 40.7064107131019], [-111.87634518494, 40.7063420956688], [-111.876345519113, 40.706273478165], [-111.876201250577, 40.7062738949245], [-111.876201853346, 40.7061503835127], [-111.876202453421, 40.7060268718718], [-111.876202449828, 40.706026824884], [-111.876202533371, 40.7060268323748], [-111.876797637602, 40.7060251128951], [-111.876798238575, 40.7059016010219], [-111.876203136141, 40.7059033211858], [-111.876203052597, 40.7059033620448], [-111.876203657163, 40.7057798485838], [-111.876204525834, 40.705601717765], [-111.876204974094, 40.7055086084742], [-111.876205405285, 40.705419812433], [-111.876206196701, 40.7052551329276], [-111.876206194006, 40.7052550920682], [-111.876206275752, 40.7052550934302], [-111.876801385374, 40.7052541257435], [-111.876801907295, 40.7051306519379], [-111.876802508268, 40.7050071424919], [-111.876802532522, 40.7050019301753], [-111.876896531335, 40.7050017245156], [-111.876903566941, 40.7055081106725], [-111.876899565844, 40.7056731096156], [-111.876884565776, 40.7063581095647], [-111.876886566324, 40.7064981097758], [-111.876895565646, 40.7069201107035], [-111.876898566019, 40.7070611107611], [-111.876896565471, 40.7075301105002], [-111.87689056742, 40.7089371103281], [-111.876888565974, 40.7094061091122], [-111.876888744738, 40.709416074097], [-111.876888750128, 40.7094162947239], [-111.876888768095, 40.7094172575835], [-111.876877945192, 40.70941727665], [-111.876708412437, 40.7094175830764], [-111.876683169777, 40.7094176293808], [-111.876505941155, 40.7094179487451], [-111.87601762056, 40.7094188319338], [-111.87601273103, 40.7078497663825]]]}, "properties": {"PrecinctID": "SSL017", "VistaID": "SSL017", "CountyID": 18, "SubPrecinctID": null, "AliasName": null, "VersionNbr": null}}, {"type": "Feature", "geometry": {"type": "Polygon", "coordinates": [[[-111.879885720359, 40.6870731026165], [-111.880468564383, 40.6870701081676], [-111.881505566073, 40.6870661069405], [-111.882223564326, 40.6870691082014], [-111.882808564307, 40.6870721074186], [-111.883081564119, 40.6870691075203], [-111.883620564069, 40.6870661069405], [-111.883900564452, 40.6870681082353], [-111.884174564088, 40.6870711074525], [-111.884439564402, 40.6870701068052], [-111.885237564818, 40.6870701068052], [-111.885503564059, 40.6870701081676], [-111.885503608974, 40.6870783422206], [-111.885503934165, 40.6871387263804], [-111.885504564782, 40.6872561070579], [-111.88550656533, 40.6874651072425], [-111.885510566426, 40.6878141067447], [-111.885512565178, 40.6880011075977], [-111.885513564104, 40.6881501077961], [-111.885516566274, 40.6885991076412], [-111.885517566997, 40.6887491071246], [-111.885245564316, 40.6887481078648], [-111.884855566125, 40.688747108605], [-111.884432565627, 40.6887451066796], [-111.884161565466, 40.6887451073607], [-111.883884566355, 40.6887441081009], [-111.883056563106, 40.6887421075377], [-111.882780564718, 40.6887421082188], [-111.882780564718, 40.6889021074487], [-111.88278056382, 40.6890171077861], [-111.88278056382, 40.6893811076701], [-111.882781564543, 40.6895421093817], [-111.882781110894, 40.6895416182721], [-111.881198390754, 40.6895366077283], [-111.881019122058, 40.6895365171352], [-111.880853254429, 40.6895364326725], [-111.879895654828, 40.6895359429253], [-111.87988523437, 40.6870737565453], [-111.879885720359, 40.6870731026165]]]}, "properties": {"PrecinctID": "SSL018", "VistaID": "SSL018", "CountyID": 18, "SubPrecinctID": null, "AliasName": null, "VersionNbr": null}}]}