{"type": "FeatureCollection", "features": [{"type": "Feature", "properties": {"NAME": "Kearns", "SHORTDESC": "KEARNS", "COUNTYNBR": "18", "FIPS": "40470", "ENTITYNBR": 3902, "POPLASTCENSUS": 36723, "source": "UGRC Utah Municipal Boundaries (NAME=KEARNS, CountyNBR=18)"}, "geometry": {"type": "Polygon", "coordinates": [[[-112.034244364812, 40.65308802965], [-112.030816602995, 40.6530777836315], [-112.029857575072, 40.6530707564458], [-112.027027543262, 40.6530560580325], [-112.027027430973, 40.653056057351], [-112.027027383362, 40.6530491228502], [-112.027026497623, 40.6529180541748], [-112.027025920905, 40.6526490632925], [-112.027025492409, 40.6524514193307], [-112.027025063912, 40.652253775465], [-112.026981002446, 40.6520801216738], [-112.026925170354, 40.6518870245936], [-112.02686922238, 40.6516941082437], [-112.026813393882, 40.6515011906543], [-112.026752189865, 40.6512894033539], [-112.026687271314, 40.6510667481678], [-112.026620078229, 40.6508345642252], [-112.02661183439, 40.6508059903998], [-112.026723114094, 40.6506117671224], [-112.026849715464, 40.6503908326352], [-112.026431273916, 40.6502536588478], [-112.02576143165, 40.6502514138155], [-112.024816814052, 40.6502481938228], [-112.02482373063, 40.6511795149308], [-112.024824849931, 40.651322290446], [-112.024832223303, 40.6523065914155], [-112.025733695267, 40.6523097571271], [-112.025738093419, 40.6529135622447], [-112.025737829314, 40.6530585121982], [-112.025707213831, 40.6530584201926], [-112.024920333659, 40.653056041676], [-112.024837181105, 40.6530557895124], [-112.024646142682, 40.6530550527855], [-112.024662688751, 40.6603210282159], [-112.024685841929, 40.6675845033936], [-112.024683491038, 40.6675845006681], [-112.024674338104, 40.6675844918102], [-112.01992857978, 40.6675797828277], [-112.016575696136, 40.6675787239709], [-112.015174741111, 40.6675824027145], [-112.013078553836, 40.6675827066078], [-112.011428706189, 40.6675829178341], [-112.009782963842, 40.6675831052121], [-112.008000515876, 40.667583283051], [-112.007940881216, 40.6675814208532], [-112.007905824462, 40.6675803258835], [-112.007863784205, 40.6675776296826], [-112.007842231824, 40.6675762866924], [-112.007778734408, 40.6675707150884], [-112.007715559488, 40.6675629787549], [-112.007652951404, 40.6675536159778], [-112.007590558018, 40.667542809365], [-112.007528722485, 40.6675297460346], [-112.007467941575, 40.6675159529484], [-112.007407362785, 40.6674999058681], [-112.007347708362, 40.6674824094972], [-112.007230559066, 40.667446246137], [-112.007211159947, 40.6674402575198], [-112.006926823397, 40.6673524839116], [-112.006879275569, 40.6673375842316], [-112.006760576679, 40.6673115937636], [-112.006638105763, 40.6672865367733], [-112.006513628011, 40.6672696045276], [-112.006382120043, 40.6672572381937], [-112.006248368084, 40.6672529993391], [-112.005653427346, 40.6672629570016], [-112.005657345797, 40.667578905898], [-112.005657346695, 40.6675789426923], [-112.005511480056, 40.6675794925619], [-112.005510399383, 40.6673736570276], [-112.005510365247, 40.6673736563462], [-112.003968134872, 40.6673659983483], [-112.003968568758, 40.6675763439279], [-112.000816394799, 40.6675713705712], [-111.996128627219, 40.6675700214485], [-111.993751309482, 40.6675685271928], [-111.987949143164, 40.6675720178775], [-111.986605797098, 40.6675673688551], [-111.986605797098, 40.6675673157078], [-111.986608147989, 40.6674298890136], [-111.986608152481, 40.6674298474497], [-111.98661024286, 40.6674056974163], [-111.986631905733, 40.6671554654074], [-111.986680773187, 40.6668829894248], [-111.986834389592, 40.6662044131762], [-111.986834533322, 40.6662036200393], [-111.98688208115, 40.6659405052169], [-111.986882083845, 40.6659404697845], [-111.986906200915, 40.6656747264669], [-111.986908206853, 40.6655922620118], [-111.986909442037, 40.6655414626084], [-111.986900450799, 40.6655414489805], [-111.986900416663, 40.6655329812738], [-111.986892570778, 40.6635302652034], [-111.986908660503, 40.6604003365866], [-111.986909119542, 40.6603110027349], [-111.986908863522, 40.6600936820734], [-111.986904862426, 40.6566913056046], [-111.986910387963, 40.6543933509464], [-111.986911171294, 40.6540531806328], [-111.986913832104, 40.6529574442518], [-111.986910919766, 40.6512827740001], [-111.986910579304, 40.6510670214668], [-111.986910029535, 40.6493278335385], [-111.986921675295, 40.6491308919731], [-111.98694414216, 40.6489868897232], [-111.986962418384, 40.648869745645], [-111.986974064144, 40.6486728000013], [-111.986974719914, 40.6483025118554], [-111.986978399413, 40.6462216246122], [-111.986942444344, 40.6462215625872], [-111.986942747974, 40.6460261699813], [-111.98694307586, 40.6458149187614], [-111.986938007565, 40.6457357873078], [-111.986931889139, 40.6457104672948], [-111.986906647378, 40.6456060504263], [-111.9868473424, 40.6454821484769], [-111.986813468727, 40.6454349653305], [-111.986780811373, 40.6453894779757], [-111.986663568652, 40.6452665216891], [-111.986588655446, 40.645158788804], [-111.986549072979, 40.6450810225085], [-111.986520329585, 40.6450004608577], [-111.986513237386, 40.6449576764566], [-111.986497485427, 40.6448626441403], [-111.986497432427, 40.6448533586066], [-111.986490420178, 40.6436117716645], [-111.986484565857, 40.6421860312972], [-111.986481556501, 40.6414916746667], [-111.986469988895, 40.6385692036659], [-111.988169239391, 40.6385697190094], [-111.990234891133, 40.638564905728], [-111.999896565763, 40.6385672302274], [-112.00179976527, 40.6385727156365], [-112.003952647917, 40.638573025797], [-112.004154520022, 40.6385759549385], [-112.004387456769, 40.6385793339829], [-112.004700743326, 40.6385766843267], [-112.004761221504, 40.6385761723916], [-112.004758522066, 40.638664300158], [-112.004757515953, 40.6386675537705], [-112.004752546473, 40.6386836309634], [-112.004751428969, 40.6386872465418], [-112.004750252176, 40.638691052306], [-112.004748860686, 40.6386955567819], [-112.004748230966, 40.6386975929303], [-112.004746459489, 40.6387033244116], [-112.004743974749, 40.6387113613], [-112.004742607513, 40.6387157846558], [-112.004741378618, 40.6387197621991], [-112.004740478506, 40.6387228331215], [-112.004739689785, 40.6387254520967], [-112.004738902861, 40.6387281617339], [-112.004737883273, 40.6387311433571], [-112.004736416324, 40.6387358407427], [-112.004735514415, 40.6387388210023], [-112.004734727491, 40.638741530639], [-112.00473393877, 40.6387441502951], [-112.004732693705, 40.6387478544873], [-112.004731791797, 40.638750835428], [-112.004731004873, 40.6387535443825], [-112.004729758011, 40.6387571585938], [-112.004728858797, 40.6387602295145], [-112.004728070077, 40.6387628491699], [-112.004727282254, 40.6387655581239], [-112.004726375854, 40.6387681784607], [-112.00472558893, 40.6387708880962], [-112.004724569342, 40.6387738697175], [-112.004723441956, 40.6387775732264], [-112.004722653235, 40.6387801928812], [-112.00472140817, 40.6387838970714], [-112.00472050716, 40.6387868773288], [-112.004719719338, 40.6387895869635], [-112.004718584765, 40.6387927499079], [-112.004718522782, 40.6387929755404], [-112.004717799638, 40.638795639503], [-112.004716895933, 40.6387984397993], [-112.00471587904, 40.6388016020617], [-112.004715090319, 40.6388042210338], [-112.004714184817, 40.6388069320311], [-112.004713056533, 40.6388105448762], [-112.004712038742, 40.6388136164761], [-112.004711250021, 40.6388162361294], [-112.004710344519, 40.6388189464445], [-112.004709555799, 40.6388215660976], [-112.004708650297, 40.6388242764126], [-112.004707861576, 40.6388268953838], [-112.004706956972, 40.6388296063802], [-112.004706168252, 40.6388322253512], [-112.004704922288, 40.6388359295385], [-112.004704021278, 40.6388389104753], [-112.004703115776, 40.6388416207895], [-112.004702327055, 40.6388442404418], [-112.004701421554, 40.6388469507557], [-112.004700633731, 40.6388495704077], [-112.004699728229, 40.6388522807215], [-112.004698939509, 40.6388548996917], [-112.004698034007, 40.6388576106869], [-112.004697245286, 40.6388602296568], [-112.004696339784, 40.6388629399702], [-112.004695433384, 40.6388655603032], [-112.00469464646, 40.6388682699347], [-112.004693739161, 40.6388708902675], [-112.004692952237, 40.6388735998988], [-112.004692045837, 40.6388762202314], [-112.004690613922, 40.6388806762963], [-112.004689898864, 40.6388829053511], [-112.00468775189, 40.6388895904701], [-112.00468684549, 40.6388922108021], [-112.004686057667, 40.6388949204325], [-112.004685151267, 40.6388975407643], [-112.004684245765, 40.6389002510761], [-112.004683457045, 40.6389028700444], [-112.004682551543, 40.6389055810377], [-112.004681645143, 40.638908201369], [-112.004680858219, 40.6389109103172], [-112.00467995092, 40.6389135306483], [-112.004679045418, 40.6389162416412], [-112.004678139018, 40.6389188619721], [-112.004677352094, 40.6389215709197], [-112.004676444796, 40.6389241919322], [-112.004675539294, 40.6389269022429], [-112.004674522401, 40.6389300638176], [-112.004673502813, 40.6389330454318], [-112.00467248592, 40.6389362076878], [-112.004671697199, 40.6389388266546], [-112.004670792596, 40.6389415369648], [-112.004669885297, 40.6389441579764], [-112.004668979796, 40.6389468682864], [-112.004668191075, 40.6389494872528], [-112.004667286471, 40.6389521982442], [-112.00466603961, 40.6389558124448], [-112.004665020022, 40.6389587940579], [-112.004664232199, 40.6389615036856], [-112.004663325799, 40.6389641240147], [-112.004662420297, 40.6389668343239], [-112.004661173436, 40.6389704485237], [-112.004660272425, 40.6389734294544], [-112.004659366924, 40.6389761397632], [-112.004658460524, 40.6389787600918], [-112.004657555022, 40.6389814704004], [-112.00465630816, 40.6389850845993], [-112.004655406252, 40.6389880655295], [-112.004654501648, 40.6389907758376], [-112.004653254786, 40.6389943900362], [-112.004652235199, 40.6389973716475], [-112.004651329697, 40.639000082637], [-112.004650540976, 40.6390027016013], [-112.004649635474, 40.6390054119089], [-112.004648388613, 40.6390090261066], [-112.004647369025, 40.639012008399], [-112.004646463523, 40.6390147187062], [-112.00464521756, 40.6390183329034], [-112.004644197972, 40.6390213145137], [-112.00464329247, 40.6390240248205], [-112.004642164186, 40.6390276383355], [-112.004641484161, 40.6390296260755], [-112.004641144598, 40.6390306199454], [-112.004640239096, 40.6390333302519], [-112.004639103626, 40.6390364931848], [-112.004638084038, 40.6390394747943], [-112.004637067145, 40.6390426370453], [-112.004635820283, 40.6390462512409], [-112.004634461132, 40.6390502267196], [-112.004633441545, 40.6390532083286], [-112.004632536043, 40.6390559186341], [-112.004631400572, 40.6390590815659], [-112.004630380984, 40.6390620631744], [-112.004629364091, 40.6390652254243], [-112.004628235807, 40.6390688389371], [-112.004626988048, 40.6390723631514], [-112.00462596846, 40.6390753447593], [-112.004624951567, 40.639078506327], [-112.004624046963, 40.6390811266515], [-112.004623704705, 40.6390821205207], [-112.004623024681, 40.639084108259], [-112.004622344656, 40.6390860959973], [-112.004621230745, 40.6390890155729], [-112.004621207389, 40.6390890789679], [-112.004620301887, 40.6390917892719], [-112.004619166416, 40.6390949522021], [-112.004618363323, 40.6390973891579], [-112.004618035437, 40.6390983857535], [-112.004617695874, 40.6390993796225], [-112.00461701585, 40.6391013673602], [-112.004616676286, 40.6391023612291], [-112.004615427628, 40.6391058854417], [-112.004614480804, 40.6391088309198], [-112.004614410735, 40.6391090470078], [-112.004613164772, 40.6391126612], [-112.004611804723, 40.6391166366747], [-112.004610445572, 40.6391206128309], [-112.004609425984, 40.6391235944366], [-112.004608520482, 40.6391263047393], [-112.004607613183, 40.639128925062], [-112.004606475916, 40.6391319080307], [-112.004605115867, 40.6391358835043], [-112.004603868107, 40.6391394077151], [-112.004603065013, 40.6391418439876], [-112.004602737128, 40.6391428405825], [-112.004602397565, 40.6391438344508], [-112.00460171754, 40.6391458228689], [-112.004600809344, 40.6391483525293], [-112.004599792451, 40.6391515147752], [-112.004598539301, 40.6391546783841], [-112.004597736207, 40.6391571153378], [-112.004597407424, 40.6391581119325], [-112.00459706786, 40.6391591058005], [-112.004596387836, 40.6391610935365], [-112.004595479639, 40.6391636238781], [-112.00459434866, 40.6391670567443], [-112.004592870931, 40.6391710335791], [-112.00459151178, 40.6391750090503], [-112.00459026402, 40.6391785332591], [-112.004589244433, 40.6391815148622], [-112.004587994876, 40.6391849490908], [-112.004586634827, 40.6391889245613], [-112.004585275676, 40.6391929000315], [-112.004583797947, 40.6391968768648], [-112.004582778359, 40.6391998584671], [-112.004582438796, 40.6392008523346], [-112.004581758771, 40.6392028400693], [-112.004581078747, 40.6392048284857], [-112.004579601018, 40.6392088046366], [-112.004578353258, 40.6392123288435], [-112.00457733367, 40.6392153104452], [-112.004576084114, 40.6392187446721], [-112.004574724963, 40.6392227208222], [-112.004573247234, 40.6392266969721], [-112.004571887185, 40.63923067244], [-112.004570867597, 40.6392336547225], [-112.00456973033, 40.6392366370048], [-112.00456837028, 40.6392406124722], [-112.004567350692, 40.6392435947542], [-112.004566213425, 40.6392465770361], [-112.004564853376, 40.6392505525029], [-112.004563375647, 40.6392545293328], [-112.004562016496, 40.6392585047991], [-112.004560878331, 40.639261487762], [-112.004559631469, 40.6392651019458], [-112.004558494202, 40.6392680849084], [-112.004557133254, 40.6392719703943], [-112.004556942812, 40.6392725123172], [-112.004555317759, 40.6392771210484], [-112.004554180492, 40.6392801040105], [-112.00455293363, 40.6392837181933], [-112.004551455902, 40.6392876950212], [-112.004550775877, 40.6392896827534], [-112.004550095852, 40.6392916704856], [-112.004548618124, 40.6392956466313], [-112.004547480857, 40.6392986295925], [-112.004546233995, 40.6393022437744], [-112.004544756266, 40.6393062206012], [-112.004543397115, 40.6393101960644], [-112.00454225895, 40.639313179025], [-112.004540726424, 40.6393174489665], [-112.00454066983, 40.6393176071125], [-112.004539911652, 40.6393196657368], [-112.004539306188, 40.6393213126362], [-112.004538056631, 40.639324746176], [-112.004536918466, 40.6393277291359], [-112.004535672502, 40.6393313433162], [-112.004534194774, 40.6393353201412], [-112.004533175186, 40.6393383017374], [-112.004530339204, 40.6393458954681], [-112.004528854289, 40.6393498702474], [-112.004527946093, 40.6393524005817], [-112.004526470161, 40.6393564673851], [-112.004525103823, 40.6393599929476], [-112.004524084235, 40.6393629745426], [-112.004522607405, 40.6393670413453], [-112.004521129676, 40.6393710174865], [-112.004519991511, 40.6393740004444], [-112.004519085111, 40.6393766207574], [-112.004517946945, 40.639379603715], [-112.004516242841, 40.6393842131205], [-112.004514765112, 40.6393881892607], [-112.004513626947, 40.6393911722178], [-112.004512380085, 40.6393947863947], [-112.00451124192, 40.6393977693515], [-112.004509877379, 40.6394013842096], [-112.00450839965, 40.6394053610305], [-112.004507261485, 40.6394083439868], [-112.004506355085, 40.6394109642985], [-112.004505216919, 40.6394139472546], [-112.004503511917, 40.639418555976], [-112.00450237465, 40.6394215389317], [-112.004501467351, 40.6394241592428], [-112.004500330084, 40.6394271421983], [-112.004498625082, 40.6394317509189], [-112.004497486916, 40.639434733874], [-112.004496122375, 40.6394383494118], [-112.004494644647, 40.6394423262305], [-112.004493506481, 40.6394453085035], [-112.00449214194, 40.6394489240407], [-112.004491003775, 40.6394519069951], [-112.004490097375, 40.639454527305], [-112.004489072397, 40.6394571482965], [-112.004487934231, 40.6394601312505], [-112.004486229229, 40.6394647406504], [-112.004485091064, 40.6394677229224], [-112.004483726523, 40.6394713384584], [-112.004482588357, 40.6394743214118], [-112.004481223816, 40.6394779362658], [-112.004480085651, 40.6394809192189], [-112.00447872111, 40.6394845347542], [-112.004477582944, 40.6394875170254], [-112.004476557967, 40.6394901386972], [-112.004475651567, 40.6394927590056], [-112.004474814337, 40.639494748095], [-112.004474394824, 40.6394957426397], [-112.004472690719, 40.6395003520371], [-112.004471552554, 40.6395033349892], [-112.004470527576, 40.6395059559788], [-112.004469162137, 40.6395095715127], [-112.00446802487, 40.6395125544644], [-112.004466889399, 40.6395157173746], [-112.004466280342, 40.6395171638607], [-112.004465633555, 40.6395187010077], [-112.004464497186, 40.6395217739383], [-112.004463131746, 40.6395253887897], [-112.004461993581, 40.6395283717407], [-112.004460968603, 40.6395309934109], [-112.004459834031, 40.6395341563203], [-112.004459224973, 40.6395356028059], [-112.004458577288, 40.6395371399525], [-112.004457440919, 40.6395402128823], [-112.004456076378, 40.6395438277327], [-112.004454938213, 40.6395468106829], [-112.004453913235, 40.6395494323524], [-112.004452548694, 40.6395530472023], [-112.004451410529, 40.639556030152], [-112.004450385551, 40.6395586518212], [-112.004449020112, 40.6395622666706], [-112.004447882845, 40.6395652496199], [-112.004446857867, 40.6395678712887], [-112.004445603819, 40.639571034878], [-112.004444995659, 40.6395724813629], [-112.004444347974, 40.6395740185086], [-112.004443211605, 40.6395770914366], [-112.004442186627, 40.6395797131049], [-112.004441051157, 40.639582876012], [-112.004440442997, 40.6395843224966], [-112.004439795312, 40.6395858596421], [-112.004438658943, 40.6395889325696], [-112.004437293504, 40.6395925474174], [-112.004436156237, 40.6395955303653], [-112.004435131259, 40.639598152033], [-112.004434105383, 40.6396007730188], [-112.004433068727, 40.6396033919595], [-112.004432852233, 40.6396039372881], [-112.00443182456, 40.6396063783153], [-112.004431596388, 40.6396069209173], [-112.00443046002, 40.6396099938438], [-112.004429435042, 40.6396126148292], [-112.004428409166, 40.6396152364961], [-112.004426926047, 40.6396188527058], [-112.00442578878, 40.6396218356526], [-112.004424763802, 40.6396244566375], [-112.004423738825, 40.639627078304], [-112.004422373385, 40.6396306938313], [-112.004421236118, 40.6396336760959], [-112.004420210242, 40.639636297762], [-112.004419185264, 40.6396389194281], [-112.004418042607, 40.6396415417756], [-112.00441701763, 40.6396441627597], [-112.004412353577, 40.6396560066074], [-112.004411321412, 40.6396586262277], [-112.004410296435, 40.6396612478928], [-112.004408930995, 40.6396648627367], [-112.004407675151, 40.6396678470447], [-112.004406650173, 40.6396704680278], [-112.004405625195, 40.6396730896925], [-112.004404600217, 40.6396757113571], [-112.00440357524, 40.6396783323398], [-112.004402550262, 40.6396809540042], [-112.004401066245, 40.6396845702103], [-112.004399928978, 40.6396875531542], [-112.004398904, 40.6396901741365], [-112.004397760445, 40.639692796482], [-112.004396735467, 40.6396954181458], [-112.004395710489, 40.6396980398095], [-112.004394255219, 40.639701653288], [-112.004394000097, 40.6397022885949], [-112.004393566211, 40.6397033751606], [-112.004392518775, 40.639705994779], [-112.004391492899, 40.6397086164422], [-112.004390467921, 40.6397112374238], [-112.004389442944, 40.6397138590868], [-112.004387959825, 40.6397174752912], [-112.00438670398, 40.6397204589152], [-112.004385679003, 40.6397230805779], [-112.004384654025, 40.6397257022405], [-112.004383629047, 40.6397283232213], [-112.004382485492, 40.6397309455654], [-112.004381460514, 40.6397335672276], [-112.004380435536, 40.6397361888898], [-112.004379410559, 40.6397388098703], [-112.004378267003, 40.6397414322139], [-112.004377242026, 40.6397440538758], [-112.004376217048, 40.6397466755375], [-112.00437519207, 40.6397492965176], [-112.004374048515, 40.6397519188607], [-112.004373023537, 40.6397545405222], [-112.004371998559, 40.6397571621836], [-112.004370855004, 40.6397597845265], [-112.004369830026, 40.6397624061876], [-112.004368805048, 40.639765027167], [-112.004367661493, 40.6397676495096], [-112.004366636515, 40.6397702711705], [-112.004365383365, 40.6397734347501], [-112.004365041107, 40.639774248651], [-112.004364127521, 40.6397764190533], [-112.004362872574, 40.6397794926538], [-112.004361847596, 40.6397821143141], [-112.004360822619, 40.6397847352928], [-112.004359679063, 40.6397873576346], [-112.004358654086, 40.6397899792946], [-112.004357170967, 40.6397935954948], [-112.004356031903, 40.6397964884549], [-112.004354888348, 40.6397991107962], [-112.00435386337, 40.6398017317742], [-112.004352719815, 40.639804354797], [-112.004351694837, 40.6398069757748], [-112.004350669859, 40.639809597434], [-112.004349526304, 40.6398122197749], [-112.004348501326, 40.639814841434], [-112.004347358669, 40.6398174637746], [-112.004346333692, 40.6398200847518], [-112.004345308714, 40.6398227064107], [-112.004344165158, 40.639825328751], [-112.004343140181, 40.6398279504096], [-112.004341996625, 40.6398305727497], [-112.004340971648, 40.6398331944081], [-112.004339828092, 40.639835816748], [-112.004338803115, 40.6398384377245], [-112.004337659559, 40.6398410607459], [-112.004336634581, 40.6398436817222], [-112.004335491924, 40.6398463040617], [-112.004334008806, 40.6398499202588], [-112.004332868844, 40.6398528132164], [-112.004331726187, 40.6398554355556], [-112.004330701209, 40.639858057213], [-112.004329557654, 40.6398606795519], [-112.004328532676, 40.6398633012091], [-112.004327389121, 40.6398659235479], [-112.004326364143, 40.6398685445232], [-112.004325220587, 40.6398711675434], [-112.00432419561, 40.6398737885185], [-112.004322708898, 40.6398771347776], [-112.004322654999, 40.6398772711092], [-112.00432145485, 40.6398802983522], [-112.004320312193, 40.639882921372], [-112.004319287215, 40.6398855423466], [-112.00431814366, 40.6398881646845], [-112.004317118682, 40.6398907863406], [-112.004315975127, 40.6398934086782], [-112.004314492008, 40.6398970248729], [-112.004313234367, 40.6398999185101], [-112.004312209389, 40.6399025401657], [-112.004311065833, 40.6399051625029], [-112.004309923176, 40.63990778484], [-112.004308898199, 40.6399104064954], [-112.004307296503, 40.6399140240523], [-112.004306157439, 40.6399169163255], [-112.004305013883, 40.6399195386621], [-112.004303988906, 40.639922160317], [-112.00430284535, 40.6399247826534], [-112.004301589506, 40.6399277662682], [-112.00430010459, 40.6399312924822], [-112.004298961933, 40.6399339154999], [-112.004297936956, 40.6399365364726], [-112.0042967934, 40.6399391588085], [-112.004295537555, 40.6399421431042], [-112.00429405264, 40.6399456693175], [-112.004292909085, 40.6399482916529], [-112.004291884107, 40.639950912625], [-112.004290397395, 40.6399542588803], [-112.004290339005, 40.6399543945301], [-112.004289025668, 40.6399574238146], [-112.00428800069, 40.639960045468], [-112.004286857135, 40.6399626678029], [-112.004285255439, 40.6399662853571], [-112.004284116375, 40.6399691776279], [-112.00428297282, 40.6399717999625], [-112.004281830163, 40.6399744229787], [-112.004280347044, 40.6399780391689], [-112.004279089403, 40.6399809328026], [-112.004277945847, 40.6399835551367], [-112.004276802292, 40.6399861774707], [-112.004275433259, 40.6399895223609], [-112.004275374869, 40.6399896580106], [-112.004274061532, 40.6399926872935], [-112.004272918875, 40.6399953103088], [-112.004271435756, 40.6399989264979], [-112.004270178115, 40.6400018201307], [-112.00426903456, 40.640004442464], [-112.004267432864, 40.6400080600159], [-112.0042662938, 40.6400109522849], [-112.004265150244, 40.6400135752995], [-112.004263549447, 40.6400171921693], [-112.004262291805, 40.6400200858013], [-112.004261266827, 40.6400227074522], [-112.004259665131, 40.6400263250032], [-112.00425840749, 40.6400292186347], [-112.004256920778, 40.6400325648861], [-112.004256862388, 40.6400327005357], [-112.004255549051, 40.6400357298166], [-112.004254524073, 40.6400383507853], [-112.004253036463, 40.6400416970361], [-112.004252978072, 40.6400418326858], [-112.004251664735, 40.6400448619663], [-112.00425052118, 40.6400474842979], [-112.004248920382, 40.6400511018474], [-112.004247781318, 40.6400539941146], [-112.004246293708, 40.6400573403647], [-112.004246235318, 40.6400574760143], [-112.004244921981, 40.6400605052941], [-112.004243320285, 40.640064122843], [-112.004242062643, 40.640067016473], [-112.004240919986, 40.6400696388037], [-112.00423931829, 40.6400732563521], [-112.004238060649, 40.6400761499816], [-112.00423657753, 40.6400797661663], [-112.004235319889, 40.6400826597956], [-112.004233719091, 40.6400862773433], [-112.004232461449, 40.6400891709723], [-112.004231204706, 40.6400921545797], [-112.004229602112, 40.6400956821483], [-112.004228001314, 40.6400992996953], [-112.004226743673, 40.6401021933237], [-112.004225141977, 40.6401058108703], [-112.004223884335, 40.6401087044985], [-112.004222282639, 40.640112321363], [-112.004221025896, 40.6401152149909], [-112.004219538286, 40.640118561238], [-112.004219478997, 40.6401186968874], [-112.004217708418, 40.6401227213814], [-112.004216765187, 40.6401248917724], [-112.004216509167, 40.6401254793594], [-112.004216450776, 40.6401256150089], [-112.004214849978, 40.6401292325542], [-112.004214791588, 40.6401293682036], [-112.004213592337, 40.6401321261813], [-112.004212104727, 40.6401354724275], [-112.004212046336, 40.6401356080769], [-112.004210732999, 40.6401386373531], [-112.005294748917, 40.6401414566794], [-112.005448671648, 40.6401458819854], [-112.005429598618, 40.6385831472516], [-112.007231637044, 40.6385750108238], [-112.007381661087, 40.6385743318792], [-112.009698297627, 40.638572148486], [-112.010202770829, 40.6385716672261], [-112.010364301392, 40.6385713672907], [-112.014987212405, 40.6385626827976], [-112.019771551574, 40.638562690296], [-112.022180157632, 40.6385587809103], [-112.024554623219, 40.6385571953425], [-112.028662528283, 40.6385546908816], [-112.029993268291, 40.6385538476539], [-112.034171686613, 40.6385511011995], [-112.037172591465, 40.6385440049985], [-112.037161791919, 40.6421705943212], [-112.038995563332, 40.6421689727125], [-112.038997769595, 40.6422121044897], [-112.04199690207, 40.6422098523704], [-112.043550557219, 40.6421811378437], [-112.043520258841, 40.6426884144105], [-112.043445642078, 40.6433040134613], [-112.043334480054, 40.6437829227795], [-112.043229834408, 40.6443462729863], [-112.043371991903, 40.6443462498115], [-112.043363570197, 40.6443826301787], [-112.043356053095, 40.644416390411], [-112.043345298465, 40.6444624312157], [-112.043335090908, 40.6445056746582], [-112.043323905086, 40.6445544220755], [-112.043313695733, 40.6445974848318], [-112.043303036324, 40.6446420839078], [-112.043291826247, 40.6446892996504], [-112.043279379191, 40.6447405804717], [-112.043266910575, 40.6447905109885], [-112.043254464416, 40.6448418817042], [-112.043247223097, 40.644870975423], [-112.043245114751, 40.6448794423444], [-112.043339305803, 40.6448905136843], [-112.043351869641, 40.6448919907262], [-112.043341684542, 40.644951809191], [-112.043330500517, 40.6450158712783], [-112.043318182818, 40.6450906631267], [-112.043303454939, 40.6451778191863], [-112.043290610827, 40.6452567604526], [-112.043282224155, 40.6453106172954], [-112.043274266878, 40.6453540203648], [-112.043263135854, 40.6454139379294], [-112.04324755727, 40.645499569508], [-112.043233393533, 40.6455697845531], [-112.043237615615, 40.6455750614989], [-112.043232187096, 40.6455758310251], [-112.043202213009, 40.6457015915197], [-112.043154950846, 40.6458944413577], [-112.043107288932, 40.6460844115829], [-112.043041698441, 40.6463382348811], [-112.042959543017, 40.6466524753164], [-112.042957418501, 40.6466524766796], [-112.041859630512, 40.6466533061732], [-112.041667798876, 40.6466535958484], [-112.040394491758, 40.6466539052897], [-112.039616163548, 40.6466549699314], [-112.039399968704, 40.6466552943676], [-112.039397839696, 40.6466553127705], [-112.039397707644, 40.6466553141337], [-112.039019184533, 40.6466585414564], [-112.039019169261, 40.6466556760573], [-112.039014849263, 40.6457995235204], [-112.038712909327, 40.6457997177757], [-112.03747784888, 40.6458004252739], [-112.034207331764, 40.6458022349152], [-112.034224155413, 40.6491127930525], [-112.034232370506, 40.6507287527499], [-112.034244364812, 40.65308802965]]]}}]}