{
"type": "FeatureCollection",
"crs": { "type": "name", "properties": { "name": "urn:ogc:def:crs:OGC:1.3:CRS84" } },
"features": [
{ "type": "Feature", "properties": { "district": "1/3", "label": "Kearns City Council District 1 or 3 (residual, unsplit)", "council_member": "Patrick Schaeffer / Chrystal Butterfield (hold D1 & D3; which-is-which undetermined)", "confidence": "residual — 2025 ballot omitted D1/D3; the D1-vs-D3 line is undetermined", "source": "precinct-derived from 2025 SLCo SOVC precinct->contest assignment" }, "geometry": { "type": "Polygon", "coordinates": [ [ [ -112.031396589478021, 40.638562089743395 ], [ -112.031666824275007, 40.638561597576697 ], [ -112.032491589995004, 40.638560091082802 ], [ -112.033173589162999, 40.638560089037803 ], [ -112.033546591228003, 40.638560089719498 ], [ -112.034178589267995, 40.638555090341107 ], [ -112.034542588418006, 40.638553089635195 ], [ -112.036077590947997, 40.638552090304799 ], [ -112.036710590609005, 40.638552088941388 ], [ -112.037056589317999, 40.638550089598894 ], [ -112.037141116293995, 40.638549260686297 ], [ -112.037142673972994, 40.638823747437598 ], [ -112.037161654475995, 40.642170553423 ], [ -112.038140290824998, 40.642169723873792 ], [ -112.038994951579994, 40.6421689938432 ], [ -112.038995197717995, 40.642214001477498 ], [ -112.043463178091002, 40.642208981923702 ], [ -112.043232324537996, 40.644341809106905 ], [ -112.043374198166006, 40.644342828798997 ], [ -112.043267797211996, 40.644882899454501 ], [ -112.043374638339998, 40.644895448517303 ], [ -112.043181505944005, 40.645776711811401 ], [ -112.042955469157008, 40.646653421361705 ], [ -112.039019773828002, 40.646657368442192 ], [ -112.03901489597601, 40.645798852146896 ], [ -112.034209563179004, 40.645803459745899 ], [ -112.034250776088001, 40.653077271807597 ], [ -112.033742287416004, 40.653073540468192 ], [ -112.032709348807003, 40.653070106954104 ], [ -112.031428526382996, 40.653064874218501 ], [ -112.030141781367007, 40.653064810836803 ], [ -112.030114567804006, 40.653069623754206 ], [ -112.030053591959003, 40.653065092305894 ], [ -112.027490589756994, 40.653065091624391 ], [ -112.027299590859997, 40.65306209224029 ], [ -112.027026494029997, 40.65305917600201 ], [ -112.027018588855995, 40.653059090811503 ], [ -112.027019588681, 40.652915092268003 ], [ -112.027019590476996, 40.652230092238391 ], [ -112.026608588776995, 40.650802092636084 ], [ -112.026848589875001, 40.650385092615693 ], [ -112.026418590603001, 40.650251092804496 ], [ -112.024817589747002, 40.650247092775402 ], [ -112.024628589600994, 40.650246092938588 ], [ -112.024628240157, 40.6502927540228 ], [ -112.024626589950998, 40.650514092993497 ], [ -112.024624590301997, 40.650661092803105 ], [ -112.024619590279002, 40.6511020916519 ], [ -112.024618588657006, 40.651250091351002 ], [ -112.024616589006996, 40.651358093153206 ], [ -112.024612590605997, 40.651682094103109 ], [ -112.024612588809006, 40.651791092975188 ], [ -112.024613589533004, 40.651961093130311 ], [ -112.024615588283993, 40.652306092534694 ], [ -112.024669648000014, 40.652306279274306 ], [ -112.024705689307012, 40.652306404675997 ], [ -112.024831828942993, 40.652306839492816 ], [ -112.024905278793995, 40.652307093703797 ], [ -112.025730522417007, 40.652309954771106 ], [ -112.025713599954003, 40.653044596171206 ], [ -112.025713589174003, 40.653045095046494 ], [ -112.02549458979, 40.653046093478402 ], [ -112.024921751201006, 40.653050452502498 ], [ -112.024835797700007, 40.653051106083403 ], [ -112.024709667047006, 40.653052067031389 ], [ -112.024673629332995, 40.6530523410039 ], [ -112.024619573210998, 40.653052752644001 ], [ -112.024619589379995, 40.653054093882091 ], [ -112.024619583092004, 40.653054320829398 ], [ -112.024609639640019, 40.653342327227598 ], [ -112.024568588427996, 40.65453109209809 ], [ -112.024591590689994, 40.656725093684493 ], [ -112.024591589791001, 40.656874668769902 ], [ -112.024591590689994, 40.656878093910294 ], [ -112.024601589837005, 40.657329093273795 ], [ -112.024631589974007, 40.658684093617602 ], [ -112.024642589845001, 40.659136094104895 ], [ -112.024643590568004, 40.659301094076092 ], [ -112.024646590043005, 40.6597980929728 ], [ -112.024647589867996, 40.659964094405005 ], [ -112.024648589693001, 40.660183093220091 ], [ -112.024651591861996, 40.660842093566409 ], [ -112.024653590613994, 40.661061978780189 ], [ -112.024653591512006, 40.661062092581005 ], [ -112.024655590264004, 40.661445094371992 ], [ -112.024664590485003, 40.662597094364699 ], [ -112.024665591208006, 40.662758093310202 ], [ -112.024667591756, 40.662981093802316 ], [ -112.024667591756, 40.663104094448286 ], [ -112.024669591405996, 40.663364093432989 ], [ -112.024672590880002, 40.663669094108293 ], [ -112.024674590529997, 40.664515094729694 ], [ -112.024675589457019, 40.664935093869502 ], [ -112.024676591078006, 40.665161094100007 ], [ -112.024680766448, 40.6666064703535 ], [ -112.024682558587003, 40.66722634585669 ], [ -112.024683590750996, 40.667584093887299 ], [ -112.024593475355005, 40.667584093205903 ], [ -112.024404591990006, 40.667584094568603 ], [ -112.024060434828002, 40.667584095931396 ], [ -112.02356859014202, 40.667584094568603 ], [ -112.023290590307994, 40.667584095250007 ], [ -112.023290450171004, 40.667584094568618 ], [ -112.022618591186998, 40.66758309567291 ], [ -112.020602589331006, 40.667583095672917 ], [ -112.019931590035, 40.66758309431021 ], [ -112.019749591358007, 40.667582094051703 ], [ -112.019203589938996, 40.667582094733 ], [ -112.019022589290003, 40.667582095414403 ], [ -112.018530590094002, 40.66758109515591 ], [ -112.017056589459997, 40.667581095155889 ], [ -112.016565589189995, 40.66758109515591 ], [ -112.016533587607, 40.667581095155903 ], [ -112.016410589380001, 40.667581093793196 ], [ -112.015947590495998, 40.667581095837299 ], [ -112.01579359051, 40.667581094474585 ], [ -112.015519589077002, 40.667581094474606 ], [ -112.014699589817994, 40.667581095155889 ], [ -112.014426589107998, 40.667581095155903 ], [ -112.014206589, 40.667581095155896 ], [ -112.014044588618006, 40.667581095837299 ], [ -112.013546589574005, 40.667580094897389 ], [ -112.013327588392997, 40.667580094897403 ], [ -112.012894589645995, 40.667579094638903 ], [ -112.011595588914005, 40.66757909463891 ], [ -112.011414333144003, 40.667579093957492 ], [ -112.011162589269006, 40.667579094638896 ], [ -112.011098587898005, 40.667579094638903 ], [ -112.010905588452999, 40.6675790953202 ], [ -112.010842588703994, 40.667579094638903 ], [ -112.010556587574996, 40.667579095320193 ], [ -112.010091589040996, 40.667581095837299 ], [ -112.007838587359004, 40.667590095437703 ], [ -112.007808587222002, 40.66759109569611 ], [ -112.00769658706902, 40.667583095672903 ], [ -112.007590586763996, 40.667566096046301 ], [ -112.007439588048996, 40.667517095615409 ], [ -112.007114588359016, 40.667412096225497 ], [ -112.006926588037999, 40.667352096207907 ], [ -112.006837587451997, 40.667329094948997 ], [ -112.006796587444001, 40.6673190950509 ], [ -112.006620587716995, 40.667286095921696 ], [ -112.006545588272004, 40.667279096124993 ], [ -112.006472586680005, 40.667273095909302 ], [ -112.006367588895003, 40.667272095646197 ], [ -112.006355490385005, 40.667271998890392 ], [ -112.005994586829004, 40.667269095537989 ], [ -112.005974588534002, 40.667267095011709 ], [ -112.005686587756003, 40.667251096249394 ], [ -112.005686455703994, 40.667251098293491 ], [ -112.005324587358004, 40.667259096993696 ], [ -112.004928586624018, 40.667268095274899 ], [ -112.004241587434009, 40.667262095739503 ], [ -112.003880587758999, 40.667259095630996 ], [ -112.003879587935018, 40.667355096993603 ], [ -112.003878067087001, 40.6675762546678 ], [ -112.003788241847005, 40.667576112260413 ], [ -112.003497653919993, 40.667575651650807 ], [ -112.003498964561999, 40.66748234340379 ], [ -112.003521560785003, 40.665874902829785 ], [ -112.003513586440008, 40.663691040436696 ], [ -112.003518369969001, 40.663633933767997 ], [ -112.001150052452005, 40.663649420292408 ], [ -112.001165363338018, 40.662561455779397 ], [ -112.001182831079007, 40.66001506841949 ], [ -112.001168811970004, 40.653607412944595 ], [ -112.001193444674001, 40.652805727208005 ], [ -112.003621062676999, 40.652806812878794 ], [ -112.003690483583995, 40.652806843547509 ], [ -112.003934770544021, 40.652806953954702 ], [ -112.004141431568002, 40.652803096517793 ], [ -112.004360527073004, 40.652799005317313 ], [ -112.004431327792005, 40.652797684519797 ], [ -112.004843572761018, 40.652781639350692 ], [ -112.005619700997016, 40.652788565701009 ], [ -112.006057596459996, 40.652780919659101 ], [ -112.006510544093999, 40.652761726515493 ], [ -112.006993945515006, 40.652776876845493 ], [ -112.007416962182006, 40.652803817572192 ], [ -112.007764590433993, 40.652831026127707 ], [ -112.008233543352006, 40.652938296139695 ], [ -112.008566218248006, 40.653000097442309 ], [ -112.008785520364995, 40.653033675437797 ], [ -112.009125247933994, 40.653026441064192 ], [ -112.010159740629007, 40.6530277148319 ], [ -112.011141560607001, 40.653040684226191 ], [ -112.012289285044005, 40.653012736302898 ], [ -112.014147490634002, 40.653031130628491 ], [ -112.015059160272997, 40.653032405077703 ], [ -112.016040499651993, 40.653038692814405 ], [ -112.017126052588011, 40.653033918741706 ], [ -112.018371767052997, 40.653039076512208 ], [ -112.020364930141, 40.653041735817098 ], [ -112.021556872351994, 40.653027500151993 ], [ -112.022423094424994, 40.653023650906192 ], [ -112.022451295235996, 40.65251858539829 ], [ -112.022423481599006, 40.651814494201702 ], [ -112.022419895523996, 40.651205926744197 ], [ -112.022383775164997, 40.650603433148603 ], [ -112.022328553928006, 40.650413955598609 ], [ -112.022166443951008, 40.650177578516697 ], [ -112.022004757082001, 40.649968207898404 ], [ -112.021458534676995, 40.649352332260897 ], [ -112.020931306250006, 40.648730772118697 ], [ -112.020926387974001, 40.648725094660684 ], [ -112.020642939856998, 40.648833917747794 ], [ -112.020150494198006, 40.649098802593699 ], [ -112.019992307165012, 40.649189218786809 ], [ -112.019793204565005, 40.649392436673914 ], [ -112.019863713332001, 40.649433627470103 ], [ -112.019040659800993, 40.649433970294993 ], [ -112.019066376769999, 40.649767979710504 ], [ -112.018265231352004, 40.649779133389401 ], [ -112.017364863417995, 40.649781920275402 ], [ -112.016798916704005, 40.64978470920579 ], [ -112.015961023003996, 40.649765191460894 ], [ -112.015365674430996, 40.649759614961283 ], [ -112.015105530409997, 40.649761462662489 ], [ -112.015102401576996, 40.64926899362969 ], [ -112.015097180569001, 40.648744387792597 ], [ -112.015092538974002, 40.648274110746605 ], [ -112.015083921434993, 40.647437044152305 ], [ -112.015076411519999, 40.646675694997697 ], [ -112.015073222500007, 40.645834160251695 ], [ -112.015045734951002, 40.644825802586503 ], [ -112.015253091271006, 40.644825802586489 ], [ -112.01544449620701, 40.644807650014492 ], [ -112.015699703986002, 40.644728981541995 ], [ -112.016090488203005, 40.644535340394697 ], [ -112.016856108845005, 40.6441601584769 ], [ -112.015819329937997, 40.642992238379492 ], [ -112.015556149611001, 40.642580738710798 ], [ -112.015484371525005, 40.641769833576305 ], [ -112.015468421037994, 40.6414975122442 ], [ -112.015484372423003, 40.641346223801399 ], [ -112.015500322909006, 40.641164674763587 ], [ -112.015550665396006, 40.640737657673995 ], [ -112.015517184287006, 40.638792843296599 ], [ -112.015516001205995, 40.638724228499484 ], [ -112.015513640432999, 40.638586999375399 ], [ -112.015841586597006, 40.6385850920595 ], [ -112.016875586116996, 40.63858309135459 ], [ -112.017220586796995, 40.63858309135459 ], [ -112.017557587080006, 40.638580092001291 ], [ -112.018568586135999, 40.638575090579295 ], [ -112.018906586244, 40.63857309123739 ], [ -112.019468586659016, 40.638571092577195 ], [ -112.021156587552994, 40.638569091871794 ], [ -112.021719587793001, 40.63856909050849 ], [ -112.021719744997995, 40.63856909050849 ], [ -112.022304585976997, 40.638566092517806 ], [ -112.022731115056999, 40.638564392429394 ], [ -112.024059587717005, 40.638559091752498 ], [ -112.024578588474, 40.638558090377195 ], [ -112.024625587431998, 40.638558090377209 ], [ -112.024645588420995, 40.638557090365111 ], [ -112.024647905175996, 40.638541754800592 ], [ -112.024826878327005, 40.638557437335891 ], [ -112.024912588385007, 40.638557089683495 ], [ -112.025713588276005, 40.63855608967139 ], [ -112.025981588064994, 40.638556090353099 ], [ -112.026138588424004, 40.638555090341086 ], [ -112.026611587353003, 40.6385540896473 ], [ -112.026769588435002, 40.638554090328995 ], [ -112.026933587567996, 40.638554090329002 ], [ -112.027425588561002, 40.638564090448988 ], [ -112.027590588417993, 40.638557091046799 ], [ -112.027763586874002, 40.63855709036509 ], [ -112.028285588901994, 40.638560090401192 ], [ -112.028459588081006, 40.638561089731503 ], [ -112.028645587854001, 40.638561091094793 ], [ -112.029205589517005, 40.638564090448995 ], [ -112.029392587318, 40.638565090460887 ], [ -112.02945383984401, 40.638564937766503 ], [ -112.029792589148002, 40.638564090449002 ], [ -112.030995589620005, 40.638562091106792 ], [ -112.031396589478021, 40.638562089743395 ] ] ] } },
{ "type": "Feature", "properties": { "district": "2", "label": "Kearns City Council District 2", "council_member": "Lyndsay Longtin", "confidence": "high (2025 SOVC)", "source": "precinct-derived from 2025 SLCo SOVC precinct->contest assignment" }, "geometry": { "type": "Polygon", "coordinates": [ [ [ -111.987080989714002, 40.645810634922 ], [ -111.987085693292002, 40.64581063560361 ], [ -111.987337942021, 40.645810675817799 ], [ -111.987459111278, 40.645810694902501 ], [ -111.987463811262998, 40.645810694902501 ], [ -111.987554153933004, 40.645810709216093 ], [ -111.987770366744002, 40.645810742614302 ], [ -111.987784063356997, 40.645810743977499 ], [ -111.987788147996994, 40.645810745340796 ], [ -111.987986579555013, 40.645810776694205 ], [ -111.988143892527006, 40.645810798505408 ], [ -111.988148593410997, 40.645810799186997 ], [ -111.988202791467003, 40.645810807366097 ], [ -111.988396138561001, 40.645810835311593 ], [ -111.988400842139995, 40.645810835993196 ], [ -111.988419004278001, 40.6458108394012 ], [ -111.988635217986996, 40.645810871436304 ], [ -111.988648387289004, 40.645810872117792 ], [ -111.988653090867999, 40.645810874162706 ], [ -111.988851430797993, 40.6458109014266 ], [ -111.988900637813998, 40.645810908242503 ], [ -111.988905338698004, 40.645810910287288 ], [ -111.989067642709998, 40.645810932780009 ], [ -111.989157617071001, 40.645810945730396 ], [ -111.989283854622997, 40.6458109634519 ], [ -111.989409864901006, 40.645810979810193 ], [ -111.989500068332006, 40.645810992760609 ], [ -111.989662111832999, 40.645811014571692 ], [ -111.989716282041002, 40.645811022069289 ], [ -111.989914360561002, 40.645811048651602 ], [ -111.989932494851999, 40.645811051378004 ], [ -111.989954114605993, 40.645811053422797 ], [ -111.990166610187998, 40.645811082731498 ], [ -111.990170327417005, 40.645811082731505 ], [ -111.990386542023998, 40.645811111358604 ], [ -111.990418858018003, 40.645811116129693 ], [ -111.990602753038004, 40.645811138622399 ], [ -111.990671105847994, 40.645811147483194 ], [ -111.990818965848987, 40.645811167249505 ], [ -111.990942439285007, 40.645811182244685 ], [ -111.990942640507001, 40.645811181563097 ], [ -111.991035178659999, 40.645811192468699 ], [ -111.991251393267007, 40.645811220414096 ], [ -111.991467606078004, 40.645811246996395 ], [ -111.991541548206001, 40.645811255175609 ], [ -111.991545064212005, 40.645811255175587 ], [ -111.991683817091996, 40.645811272897106 ], [ -111.99190003080102, 40.645811298797796 ], [ -111.992116242714005, 40.645811324016897 ], [ -111.992332456423, 40.645811347191199 ], [ -111.992548669233997, 40.645811371047103 ], [ -111.992800917064002, 40.645811398992699 ], [ -111.993017405657, 40.645811422167007 ], [ -111.993017404759001, 40.645810998894994 ], [ -111.993251637773994, 40.645811030248503 ], [ -111.993397023815007, 40.645811050696402 ], [ -111.993397294208009, 40.6458110500148 ], [ -111.993471454626004, 40.645811060238792 ], [ -111.993570948433998, 40.645811072507492 ], [ -111.993573929044004, 40.645811073870696 ], [ -111.993691269680994, 40.645811090229103 ], [ -111.993911088329995, 40.645811117492904 ], [ -111.994090995728001, 40.645811140667192 ], [ -111.994091265223005, 40.645811142030396 ], [ -111.994130906080002, 40.645811145438401 ], [ -111.994350450742004, 40.645811174747102 ], [ -111.994350722033005, 40.64581117338389 ], [ -111.994566935742, 40.645811200647799 ], [ -111.994609906654006, 40.645811206782199 ], [ -111.994610178843018, 40.645811206782199 ], [ -111.994783149450996, 40.645811227911693 ], [ -111.994869364362003, 40.6458112381356 ], [ -111.994869634755005, 40.645811238817295 ], [ -111.994999361363995, 40.645811254493992 ], [ -111.995128820274005, 40.645811270170782 ], [ -111.995129090667007, 40.645811270852299 ], [ -111.995215575971002, 40.645811280394703 ], [ -111.995388274389001, 40.645811301524191 ], [ -111.995388546578994, 40.645811300842603 ], [ -111.995431789679998, 40.645811305613805 ], [ -111.995647730301002, 40.645811330151297 ], [ -111.995648002490995, 40.645811330151297 ], [ -111.995669622245003, 40.645811332877692 ], [ -111.995885835953999, 40.645811357415198 ], [ -111.995928805068999, 40.645811361504798 ], [ -111.995929051207, 40.645811363549598 ], [ -111.996102051459999, 40.645811383315902 ], [ -111.996166669972993, 40.64581139013189 ], [ -111.996166914314998, 40.645811389450309 ], [ -111.996318262474006, 40.645811406490203 ], [ -111.996404506131, 40.645811415350991 ], [ -111.996404750473005, 40.645811416032601 ], [ -111.996534477980006, 40.645811429664498 ], [ -111.996642338696006, 40.645811441251695 ], [ -111.996642583935994, 40.645811440570114 ], [ -111.996750691689016, 40.645811453520494 ], [ -111.996880173955006, 40.645811466470796 ], [ -111.996880419196003, 40.645811465789194 ], [ -111.996966903601006, 40.645811476013101 ], [ -111.997118008317003, 40.645811491008295 ], [ -111.997118255353996, 40.64581149100831 ], [ -111.997183118208994, 40.64581149782429 ], [ -111.997355842678004, 40.64581151622739 ], [ -111.997356088817, 40.645811515545795 ], [ -111.997402934161997, 40.645811520316983 ], [ -111.997622751912004, 40.645811542128094 ], [ -111.997627661205001, 40.645811541446506 ], [ -111.997628554130003, 40.645811542809703 ], [ -111.997842569661998, 40.645811561894391 ], [ -111.997941279239996, 40.645811572799992 ], [ -111.997943216907018, 40.645811573481602 ], [ -111.998062385615, 40.645811585068707 ], [ -111.998296377881999, 40.645811606198293 ], [ -111.998296616833997, 40.645811605516592 ], [ -111.998471135239001, 40.645811623238195 ], [ -111.998476794626001, 40.645811623238195 ], [ -111.998736252333998, 40.645811646412504 ], [ -111.998874511140997, 40.645811658681204 ], [ -111.998880176816002, 40.645811657999587 ], [ -111.99897408400102, 40.645811666178787 ], [ -111.999141267661997, 40.645811679810798 ], [ -111.999144243779995, 40.645811682537094 ], [ -111.999211921056997, 40.645811687308296 ], [ -111.999449753622002, 40.645811707756295 ], [ -111.999541927058019, 40.645811715253799 ], [ -111.999547158845999, 40.645811715935402 ], [ -111.999687589779995, 40.645811726159394 ], [ -111.999849133816994, 40.645811739109703 ], [ -111.999854362910995, 40.645811740472894 ], [ -111.999925424140997, 40.645811745925691 ], [ -112.000156344169994, 40.645811762965607 ], [ -112.000161564280006, 40.645811763647195 ], [ -112.000163259401006, 40.645811764328805 ], [ -112.000527295381005, 40.645811790911104 ], [ -112.000531083577002, 40.645811792274394 ], [ -112.000756188810996, 40.645811809314303 ], [ -112.000759983294998, 40.645811809314296 ], [ -112.001131725921994, 40.645811831806988 ], [ -112.001135473692997, 40.64581183248859 ], [ -112.001424592874002, 40.645811849528492 ], [ -112.001217499760003, 40.646286382749693 ], [ -112.001169328502016, 40.646274237451301 ], [ -112.001147583882002, 40.646321093521692 ], [ -112.000828583141015, 40.647113093475603 ], [ -112.000785583482994, 40.647263093606099 ], [ -112.000736583079998, 40.647596093563401 ], [ -112.000735584153006, 40.647619092084788 ], [ -112.000730584129997, 40.647867092973591 ], [ -112.000760582471003, 40.64813909251491 ], [ -112.000779584534001, 40.648308091884594 ], [ -112.000840585532004, 40.648617092686393 ], [ -112.000954584436002, 40.648981093694609 ], [ -112.000945151227, 40.648983307417701 ], [ -112.000935892292006, 40.648985478883702 ], [ -112.000935957869004, 40.648989895424492 ], [ -112.000939995796003, 40.649260176942192 ], [ -112.001380031945018, 40.649911830332705 ], [ -112.002173877652993, 40.650679587964483 ], [ -112.004310062415001, 40.652798103658299 ], [ -112.004359585638994, 40.652798092753898 ], [ -112.004360527073004, 40.652799005317313 ], [ -112.004141431568002, 40.652803096517793 ], [ -112.003934770544021, 40.652806953954702 ], [ -112.003690483583995, 40.652806843547509 ], [ -112.003621062676999, 40.652806812878794 ], [ -112.001193444674001, 40.652805727208005 ], [ -112.001168811970004, 40.653607412944595 ], [ -112.001182831079007, 40.66001506841949 ], [ -112.001165363338018, 40.662561455779397 ], [ -112.001150052452005, 40.663649420292408 ], [ -112.003518369969001, 40.663633933767997 ], [ -112.003513586440008, 40.663691040436696 ], [ -112.003521560785003, 40.665874902829785 ], [ -112.003498964561999, 40.66748234340379 ], [ -112.003497653919993, 40.667575651650807 ], [ -112.003429015446002, 40.667575543312211 ], [ -112.003069786349997, 40.667574975726808 ], [ -112.003025015215002, 40.667574904182409 ], [ -112.003024554378996, 40.667743741896089 ], [ -112.002959586420999, 40.667744095528903 ], [ -112.002414587521002, 40.667741096804797 ], [ -112.002199075397002, 40.667740172181091 ], [ -112.000782585804998, 40.667734095011689 ], [ -112.000238586731001, 40.66773209518059 ], [ -111.999943585381004, 40.667731096968502 ], [ -111.999445587235002, 40.667731096287113 ], [ -111.999353587173999, 40.667737096461607 ], [ -111.999211586884002, 40.667762096728701 ], [ -111.999084585763995, 40.667803096982801 ], [ -111.999069584796999, 40.667804095875184 ], [ -111.999036585184996, 40.667809096469398 ], [ -111.998776584894003, 40.667808095532997 ], [ -111.998537587214003, 40.667808095533005 ], [ -111.998484585713996, 40.667801095791091 ], [ -111.998418587388997, 40.667777095794193 ], [ -111.998310586534998, 40.667745095784895 ], [ -111.998185586861993, 40.667728095518314 ], [ -111.996900585475004, 40.667726096368398 ], [ -111.996429587093985, 40.667726097731098 ], [ -111.996111584382007, 40.66772509679339 ], [ -111.995158585053005, 40.667724096537107 ], [ -111.994841584859998, 40.667724097218397 ], [ -111.994660584211999, 40.667723096280703 ], [ -111.994118585685001, 40.667722096024399 ], [ -111.993938583963995, 40.667722097387106 ], [ -111.993675585096, 40.667721096449299 ], [ -111.992887585624004, 40.667720097555701 ], [ -111.992625585683001, 40.667720096874298 ], [ -111.9922275853, 40.667719097299297 ], [ -111.991033584150003, 40.667718097042801 ], [ -111.990636584490005, 40.667718096361398 ], [ -111.99045258436702, 40.667719096617894 ], [ -111.989903583473009, 40.66772509679339 ], [ -111.989720584970996, 40.667727097306098 ], [ -111.989255825388994, 40.667717210575695 ], [ -111.989204914268996, 40.667716127191696 ], [ -111.988545584985999, 40.667702097707298 ], [ -111.988435962674004, 40.667694691855417 ], [ -111.988378985230995, 40.667690844818608 ], [ -111.988341792282995, 40.667688331230302 ], [ -111.987864320640995, 40.667656079070099 ], [ -111.987844510993, 40.667654740850999 ], [ -111.986829226075002, 40.667586152321 ], [ -111.986605601264998, 40.667571044873895 ], [ -111.986606321714007, 40.667529761024888 ], [ -111.986606569648998, 40.667515475985397 ], [ -111.986607478744006, 40.667463555138902 ], [ -111.986608066241999, 40.66742988628809 ], [ -111.986616781696995, 40.667292524722988 ], [ -111.986631800629993, 40.6671554783536 ], [ -111.986680671677007, 40.66688300577799 ], [ -111.986738723504999, 40.666626582108989 ], [ -111.986740467134993, 40.666618886549095 ], [ -111.98683429526902, 40.666204433617807 ], [ -111.986861094708004, 40.666072778899199 ], [ -111.986882019166003, 40.665940509305194 ], [ -111.986887750418006, 40.665877394681786 ], [ -111.986893160072, 40.66581782119831 ], [ -111.986906155100996, 40.665674731236599 ], [ -111.986904837273002, 40.665541523934003 ], [ -111.986909043184994, 40.660311017045309 ], [ -111.986908775486995, 40.659982937254298 ], [ -111.986908068513003, 40.659100559978498 ], [ -111.986907938257005, 40.658939342314106 ], [ -111.986905390635002, 40.655773989496993 ], [ -111.986904872306994, 40.655129712008879 ], [ -111.986903206831002, 40.653059177365009 ], [ -111.986903310136995, 40.6530031493065 ], [ -111.986909967551, 40.649327876476896 ], [ -111.986921643854004, 40.649130908330605 ], [ -111.986962301603, 40.64886980017021 ], [ -111.986973977006997, 40.648672830671799 ], [ -111.986978313175001, 40.646250472356108 ], [ -111.986978367074002, 40.646221636880803 ], [ -111.986942340138995, 40.646221598030003 ], [ -111.986943021960997, 40.645814946025297 ], [ -111.986942745280004, 40.645810614474001 ], [ -111.986991911871996, 40.645810621290003 ], [ -111.987080989714002, 40.645810634922 ] ] ] } },
{ "type": "Feature", "properties": { "district": "4", "label": "Kearns City Council District 4", "council_member": "Lorrin Colby Jr.", "confidence": "high (2025 SOVC)", "source": "precinct-derived from 2025 SLCo SOVC precinct->contest assignment" }, "geometry": { "type": "Polygon", "coordinates": [ [ [ -111.986476382204998, 40.639956236367802 ], [ -111.986476124388005, 40.639884828650793 ], [ -111.986471405537998, 40.638584762812307 ], [ -111.986471358826009, 40.638572463418207 ], [ -111.988168959117004, 40.638572774941899 ], [ -111.996285468576005, 40.638574714978404 ], [ -111.996285580866001, 40.638595093538193 ], [ -111.997508582327981, 40.638591094173904 ], [ -111.997950582193994, 40.638590093480794 ], [ -111.998123583343997, 40.638588093457599 ], [ -111.998645581779002, 40.638585092741209 ], [ -111.99881958185702, 40.638584092729602 ], [ -111.999024582793993, 40.638582092706301 ], [ -111.999642583286004, 40.638580092682901 ], [ -111.999848152856998, 40.63857909403459 ], [ -111.999848583149998, 40.638579091989506 ], [ -111.999976584094995, 40.6385770926478 ], [ -112.000072584354015, 40.638577091966098 ], [ -112.000361583160995, 40.638579091989499 ], [ -112.000490582134006, 40.638581092012998 ], [ -112.000844582135997, 40.638576091954398 ], [ -112.001305582269012, 40.638575091942698 ], [ -112.003750582673007, 40.638574092612593 ], [ -112.004216581929995, 40.638574091930892 ], [ -112.004565581910001, 40.638585092741209 ], [ -112.004436582937004, 40.638933092466807 ], [ -112.004283584572008, 40.639352093151608 ], [ -112.004043583474001, 40.639974093056694 ], [ -112.004024583207993, 40.640022091916393 ], [ -112.004009584038016, 40.640059092902696 ], [ -112.003995911678999, 40.640095647383895 ], [ -112.003911582331995, 40.640321092372403 ], [ -112.004125602355003, 40.640318341219107 ], [ -112.004222584472998, 40.640317092429903 ], [ -112.005158584083006, 40.640309092544001 ], [ -112.005470583353997, 40.640306092586606 ], [ -112.005470582455999, 40.640287093534795 ], [ -112.005470585151002, 40.640233092899408 ], [ -112.005470584253004, 40.64021509245061 ], [ -112.005465583331997, 40.640128092144685 ], [ -112.005455583285993, 40.639894093744395 ], [ -112.005410584876998, 40.638931092453994 ], [ -112.005396582835999, 40.638611093038008 ], [ -112.005942583358006, 40.638611092356399 ], [ -112.007582583672999, 40.638614091026604 ], [ -112.008129584019002, 40.638615091719501 ], [ -112.008705584677998, 40.638612091004198 ], [ -112.010436584331003, 40.638607091629702 ], [ -112.011013584815004, 40.638605091607104 ], [ -112.011048648754993, 40.638604859157297 ], [ -112.011314584215, 40.6386030915844 ], [ -112.012221585310002, 40.638600090868593 ], [ -112.012523585433001, 40.638599090857298 ], [ -112.012797585968002, 40.638597091516104 ], [ -112.013621584527002, 40.638594092163395 ], [ -112.013896585785005, 40.6385940914817 ], [ -112.014216585452004, 40.638592092822094 ], [ -112.015176586250007, 40.638588092775905 ], [ -112.015497587539002, 40.638587092764396 ], [ -112.015513502990999, 40.638586999375399 ], [ -112.015513640432999, 40.638586999375399 ], [ -112.015516001205995, 40.638724228499484 ], [ -112.015517184287006, 40.638792843296599 ], [ -112.015550665396006, 40.640737657673995 ], [ -112.015500322909006, 40.641164674763587 ], [ -112.015484372423003, 40.641346223801399 ], [ -112.015468421037994, 40.6414975122442 ], [ -112.015484371525005, 40.641769833576305 ], [ -112.015556149611001, 40.642580738710798 ], [ -112.015819329937997, 40.642992238379492 ], [ -112.016856108845005, 40.6441601584769 ], [ -112.016090488203005, 40.644535340394697 ], [ -112.015699703986002, 40.644728981541995 ], [ -112.01544449620701, 40.644807650014492 ], [ -112.015253091271006, 40.644825802586489 ], [ -112.015045734951002, 40.644825802586503 ], [ -112.015073222500007, 40.645834160251695 ], [ -112.015076411519999, 40.646675694997697 ], [ -112.015083921434993, 40.647437044152305 ], [ -112.015092538974002, 40.648274110746605 ], [ -112.015097180569001, 40.648744387792597 ], [ -112.015102401576996, 40.64926899362969 ], [ -112.015105530409997, 40.649761462662489 ], [ -112.015365674430996, 40.649759614961283 ], [ -112.015961023003996, 40.649765191460894 ], [ -112.016798916704005, 40.64978470920579 ], [ -112.017364863417995, 40.649781920275402 ], [ -112.018265231352004, 40.649779133389401 ], [ -112.019066376769999, 40.649767979710504 ], [ -112.019040659800993, 40.649433970294993 ], [ -112.019863713332001, 40.649433627470103 ], [ -112.019793204565005, 40.649392436673914 ], [ -112.019992307165012, 40.649189218786809 ], [ -112.020150494198006, 40.649098802593699 ], [ -112.020642939856998, 40.648833917747794 ], [ -112.020926387974001, 40.648725094660684 ], [ -112.020931306250006, 40.648730772118697 ], [ -112.021458534676995, 40.649352332260897 ], [ -112.022004757082001, 40.649968207898404 ], [ -112.022166443951008, 40.650177578516697 ], [ -112.022328553928006, 40.650413955598609 ], [ -112.022383775164997, 40.650603433148603 ], [ -112.022419895523996, 40.651205926744197 ], [ -112.022423481599006, 40.651814494201702 ], [ -112.022451295235996, 40.65251858539829 ], [ -112.022423094424994, 40.653023650906192 ], [ -112.021556872351994, 40.653027500151993 ], [ -112.020364930141, 40.653041735817098 ], [ -112.018371767052997, 40.653039076512208 ], [ -112.017126052588011, 40.653033918741706 ], [ -112.016040499651993, 40.653038692814405 ], [ -112.015059160272997, 40.653032405077703 ], [ -112.014147490634002, 40.653031130628491 ], [ -112.012289285044005, 40.653012736302898 ], [ -112.011141560607001, 40.653040684226191 ], [ -112.010159740629007, 40.6530277148319 ], [ -112.009125247933994, 40.653026441064192 ], [ -112.008785520364995, 40.653033675437797 ], [ -112.008566218248006, 40.653000097442309 ], [ -112.008233543352006, 40.652938296139695 ], [ -112.007764590433993, 40.652831026127707 ], [ -112.007416962182006, 40.652803817572192 ], [ -112.006993945515006, 40.652776876845493 ], [ -112.006510544093999, 40.652761726515493 ], [ -112.006057596459996, 40.652780919659101 ], [ -112.005619700997016, 40.652788565701009 ], [ -112.004843572761018, 40.652781639350692 ], [ -112.004431327792005, 40.652797684519797 ], [ -112.004360527073004, 40.652799005317313 ], [ -112.004359585638994, 40.652798092753898 ], [ -112.004310062415001, 40.652798103658299 ], [ -112.002173877652993, 40.650679587964483 ], [ -112.001380031945018, 40.649911830332705 ], [ -112.000939995796003, 40.649260176942192 ], [ -112.000935957869004, 40.648989895424492 ], [ -112.000935892292006, 40.648985478883702 ], [ -112.000945151227, 40.648983307417701 ], [ -112.000954584436002, 40.648981093694609 ], [ -112.000840585532004, 40.648617092686393 ], [ -112.000779584534001, 40.648308091884594 ], [ -112.000760582471003, 40.64813909251491 ], [ -112.000730584129997, 40.647867092973591 ], [ -112.000735584153006, 40.647619092084788 ], [ -112.000736583079998, 40.647596093563401 ], [ -112.000785583482994, 40.647263093606099 ], [ -112.000828583141015, 40.647113093475603 ], [ -112.001147583882002, 40.646321093521692 ], [ -112.001169328502016, 40.646274237451301 ], [ -112.001217499760003, 40.646286382749693 ], [ -112.001424592874002, 40.645811849528492 ], [ -112.001135473692997, 40.64581183248859 ], [ -112.001131725921994, 40.645811831806988 ], [ -112.000759983294998, 40.645811809314296 ], [ -112.000756188810996, 40.645811809314303 ], [ -112.000531083577002, 40.645811792274394 ], [ -112.000527295381005, 40.645811790911104 ], [ -112.000163259401006, 40.645811764328805 ], [ -112.000161564280006, 40.645811763647195 ], [ -112.000156344169994, 40.645811762965607 ], [ -111.999925424140997, 40.645811745925691 ], [ -111.999854362910995, 40.645811740472894 ], [ -111.999849133816994, 40.645811739109703 ], [ -111.999687589779995, 40.645811726159394 ], [ -111.999547158845999, 40.645811715935402 ], [ -111.999541927058019, 40.645811715253799 ], [ -111.999449753622002, 40.645811707756295 ], [ -111.999211921056997, 40.645811687308296 ], [ -111.999144243779995, 40.645811682537094 ], [ -111.999141267661997, 40.645811679810798 ], [ -111.99897408400102, 40.645811666178787 ], [ -111.998880176816002, 40.645811657999587 ], [ -111.998874511140997, 40.645811658681204 ], [ -111.998736252333998, 40.645811646412504 ], [ -111.998476794626001, 40.645811623238195 ], [ -111.998471135239001, 40.645811623238195 ], [ -111.998296616833997, 40.645811605516592 ], [ -111.998296377881999, 40.645811606198293 ], [ -111.998062385615, 40.645811585068707 ], [ -111.997943216907018, 40.645811573481602 ], [ -111.997941279239996, 40.645811572799992 ], [ -111.997842569661998, 40.645811561894391 ], [ -111.997628554130003, 40.645811542809703 ], [ -111.997627661205001, 40.645811541446506 ], [ -111.997622751912004, 40.645811542128094 ], [ -111.997402934161997, 40.645811520316983 ], [ -111.997356088817, 40.645811515545795 ], [ -111.997355842678004, 40.64581151622739 ], [ -111.997183118208994, 40.64581149782429 ], [ -111.997118255353996, 40.64581149100831 ], [ -111.997118008317003, 40.645811491008295 ], [ -111.996966903601006, 40.645811476013101 ], [ -111.996880419196003, 40.645811465789194 ], [ -111.996880173955006, 40.645811466470796 ], [ -111.996750691689016, 40.645811453520494 ], [ -111.996642583935994, 40.645811440570114 ], [ -111.996642338696006, 40.645811441251695 ], [ -111.996534477980006, 40.645811429664498 ], [ -111.996404750473005, 40.645811416032601 ], [ -111.996404506131, 40.645811415350991 ], [ -111.996318262474006, 40.645811406490203 ], [ -111.996166914314998, 40.645811389450309 ], [ -111.996166669972993, 40.64581139013189 ], [ -111.996102051459999, 40.645811383315902 ], [ -111.995929051207, 40.645811363549598 ], [ -111.995928805068999, 40.645811361504798 ], [ -111.995885835953999, 40.645811357415198 ], [ -111.995669622245003, 40.645811332877692 ], [ -111.995648002490995, 40.645811330151297 ], [ -111.995647730301002, 40.645811330151297 ], [ -111.995431789679998, 40.645811305613805 ], [ -111.995388546578994, 40.645811300842603 ], [ -111.995388274389001, 40.645811301524191 ], [ -111.995215575971002, 40.645811280394703 ], [ -111.995129090667007, 40.645811270852299 ], [ -111.995128820274005, 40.645811270170782 ], [ -111.994999361363995, 40.645811254493992 ], [ -111.994869634755005, 40.645811238817295 ], [ -111.994869364362003, 40.6458112381356 ], [ -111.994783149450996, 40.645811227911693 ], [ -111.994610178843018, 40.645811206782199 ], [ -111.994609906654006, 40.645811206782199 ], [ -111.994566935742, 40.645811200647799 ], [ -111.994350722033005, 40.64581117338389 ], [ -111.994350450742004, 40.645811174747102 ], [ -111.994130906080002, 40.645811145438401 ], [ -111.994091265223005, 40.645811142030396 ], [ -111.994090995728001, 40.645811140667192 ], [ -111.993911088329995, 40.645811117492904 ], [ -111.993691269680994, 40.645811090229103 ], [ -111.993573929044004, 40.645811073870696 ], [ -111.993570948433998, 40.645811072507492 ], [ -111.993471454626004, 40.645811060238792 ], [ -111.993397294208009, 40.6458110500148 ], [ -111.993397023815007, 40.645811050696402 ], [ -111.993251637773994, 40.645811030248503 ], [ -111.993017404759001, 40.645810998894994 ], [ -111.993017405657, 40.645811422167007 ], [ -111.992800917064002, 40.645811398992699 ], [ -111.992548669233997, 40.645811371047103 ], [ -111.992332456423, 40.645811347191199 ], [ -111.992116242714005, 40.645811324016897 ], [ -111.99190003080102, 40.645811298797796 ], [ -111.991683817091996, 40.645811272897106 ], [ -111.991545064212005, 40.645811255175587 ], [ -111.991541548206001, 40.645811255175609 ], [ -111.991467606078004, 40.645811246996395 ], [ -111.991251393267007, 40.645811220414096 ], [ -111.991035178659999, 40.645811192468699 ], [ -111.990942640507001, 40.645811181563097 ], [ -111.990942439285007, 40.645811182244685 ], [ -111.990818965848987, 40.645811167249505 ], [ -111.990671105847994, 40.645811147483194 ], [ -111.990602753038004, 40.645811138622399 ], [ -111.990418858018003, 40.645811116129693 ], [ -111.990386542023998, 40.645811111358604 ], [ -111.990170327417005, 40.645811082731505 ], [ -111.990166610187998, 40.645811082731498 ], [ -111.989954114605993, 40.645811053422797 ], [ -111.989932494851999, 40.645811051378004 ], [ -111.989914360561002, 40.645811048651602 ], [ -111.989716282041002, 40.645811022069289 ], [ -111.989662111832999, 40.645811014571692 ], [ -111.989500068332006, 40.645810992760609 ], [ -111.989409864901006, 40.645810979810193 ], [ -111.989283854622997, 40.6458109634519 ], [ -111.989157617071001, 40.645810945730396 ], [ -111.989067642709998, 40.645810932780009 ], [ -111.988905338698004, 40.645810910287288 ], [ -111.988900637813998, 40.645810908242503 ], [ -111.988851430797993, 40.6458109014266 ], [ -111.988653090867999, 40.645810874162706 ], [ -111.988648387289004, 40.645810872117792 ], [ -111.988635217986996, 40.645810871436304 ], [ -111.988419004278001, 40.6458108394012 ], [ -111.988400842139995, 40.645810835993196 ], [ -111.988396138561001, 40.645810835311593 ], [ -111.988202791467003, 40.645810807366097 ], [ -111.988148593410997, 40.645810799186997 ], [ -111.988143892527006, 40.645810798505408 ], [ -111.987986579555013, 40.645810776694205 ], [ -111.987788147996994, 40.645810745340796 ], [ -111.987784063356997, 40.645810743977499 ], [ -111.987770366744002, 40.645810742614302 ], [ -111.987554153933004, 40.645810709216093 ], [ -111.987463811262998, 40.645810694902501 ], [ -111.987459111278, 40.645810694902501 ], [ -111.987337942021, 40.645810675817799 ], [ -111.987085693292002, 40.64581063560361 ], [ -111.987080989714002, 40.645810634922 ], [ -111.986991911871996, 40.645810621290003 ], [ -111.986942745280004, 40.645810614474001 ], [ -111.986941925118003, 40.6457978467906 ], [ -111.986937946479017, 40.645735834337991 ], [ -111.986906518919, 40.645606117222997 ], [ -111.986847215737001, 40.645482184601697 ], [ -111.986780786219995, 40.645389530459006 ], [ -111.986663485109005, 40.645266551679597 ], [ -111.986588526987006, 40.645158788122401 ], [ -111.986548934639004, 40.645081019100502 ], [ -111.986520239754, 40.645000519475701 ], [ -111.986497439613004, 40.644862702758502 ], [ -111.986490886403004, 40.64369846342791 ], [ -111.986490399516995, 40.643611821422702 ], [ -111.98648914277301, 40.64330948144071 ], [ -111.986484476026007, 40.642186029252287 ], [ -111.986476382204998, 40.639956236367802 ] ] ] } }
]
}
