{
"type": "FeatureCollection",
"crs": { "type": "name", "properties": { "name": "urn:ogc:def:crs:OGC:1.3:CRS84" } },
"features": [
{ "type": "Feature", "properties": { "PrecinctID": "KRN001", "VistaID": "KRN001", "CountyID": 18, "district": "1/3" }, "geometry": { "type": "Polygon", "coordinates": [ [ [ -112.023290450171004, 40.667584094568618 ], [ -112.023225956523007, 40.667542827080695 ], [ -112.017650861850996, 40.663975175471002 ], [ -112.014855797861998, 40.662189622905501 ], [ -112.013458462149998, 40.661269293437591 ], [ -112.012904508842993, 40.6608648960366 ], [ -112.012904480097006, 40.660864873548995 ], [ -112.011878438753001, 40.660017483486399 ], [ -112.010696088751999, 40.658881718434998 ], [ -112.010010198982002, 40.65823150536599 ], [ -112.010178394145001, 40.658142011189895 ], [ -112.010458771819998, 40.657974071884091 ], [ -112.011039215546006, 40.657627112557094 ], [ -112.012049633391001, 40.656993721940502 ], [ -112.012570796393007, 40.656719384876688 ], [ -112.012735654316003, 40.656670972096109 ], [ -112.012889876185994, 40.6566629026144 ], [ -112.013331268789997, 40.656658870258383 ], [ -112.015155341991999, 40.656679041576801 ], [ -112.015681822122019, 40.656679040895284 ], [ -112.016016855993996, 40.656658868895491 ], [ -112.016155122886005, 40.656662903295903 ], [ -112.016995366578001, 40.656646767055598 ], [ -112.017723932612995, 40.656650800775296 ], [ -112.017862199505004, 40.656654835857701 ], [ -112.017989832141012, 40.656695179172296 ], [ -112.018213187455999, 40.656771831334602 ], [ -112.018431225643994, 40.656836381603497 ], [ -112.018585446615006, 40.656852519842303 ], [ -112.019133198850994, 40.656864622326403 ], [ -112.019792630542, 40.656868656714401 ], [ -112.020377325096007, 40.656869400213999 ], [ -112.024375343743003, 40.656874402990987 ], [ -112.024501491462999, 40.65687455836941 ], [ -112.024537530076003, 40.656874602665901 ], [ -112.024591589791001, 40.656874668769902 ], [ -112.024591590689994, 40.656878093910294 ], [ -112.024601589837005, 40.657329093273795 ], [ -112.024631589974007, 40.658684093617602 ], [ -112.024642589845001, 40.659136094104895 ], [ -112.024643590568004, 40.659301094076092 ], [ -112.024646590043005, 40.6597980929728 ], [ -112.024647589867996, 40.659964094405005 ], [ -112.024648589693001, 40.660183093220091 ], [ -112.024651591861996, 40.660842093566409 ], [ -112.024653590613994, 40.661061978780189 ], [ -112.024653591512006, 40.661062092581005 ], [ -112.024655590264004, 40.661445094371992 ], [ -112.024664590485003, 40.662597094364699 ], [ -112.024665591208006, 40.662758093310202 ], [ -112.024667591756, 40.662981093802316 ], [ -112.024667591756, 40.663104094448286 ], [ -112.024669591405996, 40.663364093432989 ], [ -112.024672590880002, 40.663669094108293 ], [ -112.024674590529997, 40.664515094729694 ], [ -112.024675589457019, 40.664935093869502 ], [ -112.024676591078006, 40.665161094100007 ], [ -112.024680766448, 40.6666064703535 ], [ -112.024682558587003, 40.66722634585669 ], [ -112.024683590750996, 40.667584093887299 ], [ -112.024593475355005, 40.667584093205903 ], [ -112.024404591990006, 40.667584094568603 ], [ -112.024060434828002, 40.667584095931396 ], [ -112.02356859014202, 40.667584094568603 ], [ -112.023290590307994, 40.667584095250007 ], [ -112.023290450171004, 40.667584094568618 ] ] ] } },
{ "type": "Feature", "properties": { "PrecinctID": "KRN002", "VistaID": "KRN002", "CountyID": 18, "district": "1/3" }, "geometry": { "type": "Polygon", "coordinates": [ [ [ -112.016533587607, 40.667581095155903 ], [ -112.016410589380001, 40.667581093793196 ], [ -112.015947590495998, 40.667581095837299 ], [ -112.01579359051, 40.667581094474585 ], [ -112.015519589077002, 40.667581094474606 ], [ -112.014699589817994, 40.667581095155889 ], [ -112.014426589107998, 40.667581095155903 ], [ -112.014206589, 40.667581095155896 ], [ -112.014044588618006, 40.667581095837299 ], [ -112.013546589574005, 40.667580094897389 ], [ -112.013327588392997, 40.667580094897403 ], [ -112.012894589645995, 40.667579094638903 ], [ -112.011595588914005, 40.66757909463891 ], [ -112.011414333144003, 40.667579093957492 ], [ -112.011162589269006, 40.667579094638896 ], [ -112.011098587898005, 40.667579094638903 ], [ -112.010905588452999, 40.6675790953202 ], [ -112.010842588703994, 40.667579094638903 ], [ -112.010556587574996, 40.667579095320193 ], [ -112.010091589040996, 40.667581095837299 ], [ -112.007838587359004, 40.667590095437703 ], [ -112.007808587222002, 40.66759109569611 ], [ -112.00769658706902, 40.667583095672903 ], [ -112.007590586763996, 40.667566096046301 ], [ -112.007439588048996, 40.667517095615409 ], [ -112.007114588359016, 40.667412096225497 ], [ -112.006926588037999, 40.667352096207907 ], [ -112.006837587451997, 40.667329094948997 ], [ -112.006796587444001, 40.6673190950509 ], [ -112.006620587716995, 40.667286095921696 ], [ -112.006545588272004, 40.667279096124993 ], [ -112.006472586680005, 40.667273095909302 ], [ -112.006367588895003, 40.667272095646197 ], [ -112.006355490385005, 40.667271998890392 ], [ -112.005994586829004, 40.667269095537989 ], [ -112.005974588534002, 40.667267095011709 ], [ -112.005686587756003, 40.667251096249394 ], [ -112.005686455703994, 40.667251098293491 ], [ -112.005686475467002, 40.667250288134611 ], [ -112.005683847894005, 40.666993550398402 ], [ -112.005703543457003, 40.666888887468296 ], [ -112.005734321535002, 40.666810253886403 ], [ -112.005762719078007, 40.666731629751098 ], [ -112.005830583204997, 40.666589211551695 ], [ -112.005872593817003, 40.666489228428709 ], [ -112.005951483865005, 40.666384970132597 ], [ -112.006031893862996, 40.666301401344199 ], [ -112.006110948303004, 40.666209713020194 ], [ -112.006201824572003, 40.666117918954605 ], [ -112.006287298372996, 40.666055902900716 ], [ -112.006383342649997, 40.665990217497288 ], [ -112.00646076036, 40.665949918643499 ], [ -112.006634953575002, 40.66588417044759 ], [ -112.007015531133007, 40.665738645326797 ], [ -112.007269191115, 40.665647080924302 ], [ -112.007996988192005, 40.665359958269811 ], [ -112.008608244132006, 40.6651740693123 ], [ -112.008858255157008, 40.665028718443594 ], [ -112.009046532159005, 40.664880342511999 ], [ -112.009221590451006, 40.664728673024101 ], [ -112.009337776753995, 40.664585808315309 ], [ -112.009383105743012, 40.664530073401899 ], [ -112.009517484726004, 40.664241009373789 ], [ -112.00957246341801, 40.663938897094596 ], [ -112.009098174507997, 40.663774727654797 ], [ -112.008807130237003, 40.663695290420407 ], [ -112.008631308377019, 40.66364818216109 ], [ -112.008306413789001, 40.663612038527091 ], [ -112.007730920678995, 40.663622543228399 ], [ -112.006841332527998, 40.663614416667293 ], [ -112.006404052411, 40.663628464046901 ], [ -112.006228869251999, 40.663634089812099 ], [ -112.005923335155998, 40.663643902873609 ], [ -112.005910606027996, 40.663230972144191 ], [ -112.005900150537002, 40.662890714696999 ], [ -112.005906741475997, 40.6625939182384 ], [ -112.005919941320997, 40.662119338125201 ], [ -112.005910602434994, 40.6614249940015 ], [ -112.005921054333001, 40.660735944973197 ], [ -112.00590850576701, 40.660017131857003 ], [ -112.005917733261995, 40.659269896848613 ], [ -112.005926849364997, 40.658517009555396 ], [ -112.005899543276001, 40.657820490147998 ], [ -112.005909189384994, 40.657129413278298 ], [ -112.005911242036007, 40.656415915078192 ], [ -112.005926182815003, 40.655030538371186 ], [ -112.005894697762997, 40.654819267950209 ], [ -112.005858050990994, 40.654744565378103 ], [ -112.005816679979006, 40.654660239844198 ], [ -112.005903194029003, 40.65448719545121 ], [ -112.007104021477005, 40.655635036483602 ], [ -112.007440672315994, 40.655901891110091 ], [ -112.008009227737006, 40.656392099075504 ], [ -112.008490715746007, 40.6568132894879 ], [ -112.009082427939006, 40.657351963729901 ], [ -112.010010198982002, 40.65823150536599 ], [ -112.010696088751999, 40.658881718434998 ], [ -112.011878438753001, 40.660017483486399 ], [ -112.012904480097006, 40.660864873548995 ], [ -112.012904508842993, 40.6608648960366 ], [ -112.013458462149998, 40.661269293437591 ], [ -112.014855797861998, 40.662189622905501 ], [ -112.017650861850996, 40.663975175471002 ], [ -112.023225956523007, 40.667542827080695 ], [ -112.023290450171004, 40.667584094568618 ], [ -112.022618591186998, 40.66758309567291 ], [ -112.020602589331006, 40.667583095672917 ], [ -112.019931590035, 40.66758309431021 ], [ -112.019749591358007, 40.667582094051703 ], [ -112.019203589938996, 40.667582094733 ], [ -112.019022589290003, 40.667582095414403 ], [ -112.018530590094002, 40.66758109515591 ], [ -112.017056589459997, 40.667581095155889 ], [ -112.016565589189995, 40.66758109515591 ], [ -112.016533587607, 40.667581095155903 ] ] ] } },
{ "type": "Feature", "properties": { "PrecinctID": "KRN003", "VistaID": "KRN003", "CountyID": 18, "district": "2" }, "geometry": { "type": "Polygon", "coordinates": [ [ [ -111.986605601264998, 40.667571044873895 ], [ -111.986606321714007, 40.667529761024888 ], [ -111.986606569648998, 40.667515475985397 ], [ -111.986607478744006, 40.667463555138902 ], [ -111.986608066241999, 40.66742988628809 ], [ -111.986616781696995, 40.667292524722988 ], [ -111.986631800629993, 40.6671554783536 ], [ -111.986680671677007, 40.66688300577799 ], [ -111.986738723504999, 40.666626582108989 ], [ -111.986740467134993, 40.666618886549095 ], [ -111.98683429526902, 40.666204433617807 ], [ -111.986861094708004, 40.666072778899199 ], [ -111.986882019166003, 40.665940509305194 ], [ -111.986887750418006, 40.665877394681786 ], [ -111.986893160072, 40.66581782119831 ], [ -111.986906155100996, 40.665674731236599 ], [ -111.986904837273002, 40.665541523934003 ], [ -111.986909043184994, 40.660311017045309 ], [ -111.986908775486995, 40.659982937254298 ], [ -111.988230592529007, 40.659977255302103 ], [ -111.990219409567004, 40.659982927032488 ], [ -111.990548388794011, 40.659994270492 ], [ -111.990757736679001, 40.660016957405198 ], [ -111.991146527533999, 40.660119049781997 ], [ -111.991355879013, 40.659807101800801 ], [ -111.991841867581996, 40.659960240107793 ], [ -111.992043739686991, 40.660016957405198 ], [ -111.992440008119019, 40.660022629813803 ], [ -111.995311083055, 40.659999943583991 ], [ -111.998324215775, 40.659999942902502 ], [ -111.999879381889997, 40.660022629813803 ], [ -112.001182831079007, 40.66001506841949 ], [ -112.001165363338018, 40.662561455779397 ], [ -112.001150052452005, 40.663649420292408 ], [ -112.003518369969001, 40.663633933767997 ], [ -112.003513586440008, 40.663691040436696 ], [ -112.003521560785003, 40.665874902829785 ], [ -112.003498964561999, 40.66748234340379 ], [ -112.003497653919993, 40.667575651650807 ], [ -112.003429015446002, 40.667575543312211 ], [ -112.003069786349997, 40.667574975726808 ], [ -112.003025015215002, 40.667574904182409 ], [ -112.003024554378996, 40.667743741896089 ], [ -112.002959586420999, 40.667744095528903 ], [ -112.002414587521002, 40.667741096804797 ], [ -112.002199075397002, 40.667740172181091 ], [ -112.000782585804998, 40.667734095011689 ], [ -112.000238586731001, 40.66773209518059 ], [ -111.999943585381004, 40.667731096968502 ], [ -111.999445587235002, 40.667731096287113 ], [ -111.999353587173999, 40.667737096461607 ], [ -111.999211586884002, 40.667762096728701 ], [ -111.999084585763995, 40.667803096982801 ], [ -111.999069584796999, 40.667804095875184 ], [ -111.999036585184996, 40.667809096469398 ], [ -111.998776584894003, 40.667808095532997 ], [ -111.998537587214003, 40.667808095533005 ], [ -111.998484585713996, 40.667801095791091 ], [ -111.998418587388997, 40.667777095794193 ], [ -111.998310586534998, 40.667745095784895 ], [ -111.998185586861993, 40.667728095518314 ], [ -111.996900585475004, 40.667726096368398 ], [ -111.996429587093985, 40.667726097731098 ], [ -111.996111584382007, 40.66772509679339 ], [ -111.995158585053005, 40.667724096537107 ], [ -111.994841584859998, 40.667724097218397 ], [ -111.994660584211999, 40.667723096280703 ], [ -111.994118585685001, 40.667722096024399 ], [ -111.993938583963995, 40.667722097387106 ], [ -111.993675585096, 40.667721096449299 ], [ -111.992887585624004, 40.667720097555701 ], [ -111.992625585683001, 40.667720096874298 ], [ -111.9922275853, 40.667719097299297 ], [ -111.991033584150003, 40.667718097042801 ], [ -111.990636584490005, 40.667718096361398 ], [ -111.99045258436702, 40.667719096617894 ], [ -111.989903583473009, 40.66772509679339 ], [ -111.989720584970996, 40.667727097306098 ], [ -111.989255825388994, 40.667717210575695 ], [ -111.989204914268996, 40.667716127191696 ], [ -111.988545584985999, 40.667702097707298 ], [ -111.988435962674004, 40.667694691855417 ], [ -111.988378985230995, 40.667690844818608 ], [ -111.988341792282995, 40.667688331230302 ], [ -111.987864320640995, 40.667656079070099 ], [ -111.987844510993, 40.667654740850999 ], [ -111.986829226075002, 40.667586152321 ], [ -111.986605601264998, 40.667571044873895 ] ] ] } },
{ "type": "Feature", "properties": { "PrecinctID": "KRN004", "VistaID": "KRN004", "CountyID": 18, "district": "1/3" }, "geometry": { "type": "Polygon", "coordinates": [ [ [ -112.005903194029003, 40.65448719545121 ], [ -112.004617766840994, 40.653258431324488 ], [ -112.004141431568002, 40.652803096517793 ], [ -112.004360527073004, 40.652799005317313 ], [ -112.004431327792005, 40.652797684519797 ], [ -112.004843572761018, 40.652781639350692 ], [ -112.005619700997016, 40.652788565701009 ], [ -112.006057596459996, 40.652780919659101 ], [ -112.006510544093999, 40.652761726515493 ], [ -112.006993945515006, 40.652776876845493 ], [ -112.007416962182006, 40.652803817572192 ], [ -112.007764590433993, 40.652831026127707 ], [ -112.008233543352006, 40.652938296139695 ], [ -112.008566218248006, 40.653000097442309 ], [ -112.008785520364995, 40.653033675437797 ], [ -112.009125247933994, 40.653026441064192 ], [ -112.010159740629007, 40.6530277148319 ], [ -112.011141560607001, 40.653040684226191 ], [ -112.012289285044005, 40.653012736302898 ], [ -112.014147490634002, 40.653031130628491 ], [ -112.015059160272997, 40.653032405077703 ], [ -112.016040499651993, 40.653038692814405 ], [ -112.017126052588011, 40.653033918741706 ], [ -112.018371767052997, 40.653039076512208 ], [ -112.020364930141, 40.653041735817098 ], [ -112.020381458244003, 40.653572895424389 ], [ -112.020375486244006, 40.654432930975091 ], [ -112.020366205748999, 40.655086024977201 ], [ -112.020365348756002, 40.655146299770394 ], [ -112.020364515119994, 40.655204880978182 ], [ -112.020377111296, 40.656853585684303 ], [ -112.020377325096007, 40.656869400213999 ], [ -112.019792630542, 40.656868656714401 ], [ -112.019133198850994, 40.656864622326403 ], [ -112.018585446615006, 40.656852519842303 ], [ -112.018431225643994, 40.656836381603497 ], [ -112.018213187455999, 40.656771831334602 ], [ -112.017989832141012, 40.656695179172296 ], [ -112.017862199505004, 40.656654835857701 ], [ -112.017723932612995, 40.656650800775296 ], [ -112.016995366578001, 40.656646767055598 ], [ -112.016155122886005, 40.656662903295903 ], [ -112.016016855993996, 40.656658868895491 ], [ -112.015681822122019, 40.656679040895284 ], [ -112.015155341991999, 40.656679041576801 ], [ -112.013331268789997, 40.656658870258383 ], [ -112.012889876185994, 40.6566629026144 ], [ -112.012735654316003, 40.656670972096109 ], [ -112.012570796393007, 40.656719384876688 ], [ -112.012049633391001, 40.656993721940502 ], [ -112.011039215546006, 40.657627112557094 ], [ -112.010458771819998, 40.657974071884091 ], [ -112.010178394145001, 40.658142011189895 ], [ -112.010010198982002, 40.65823150536599 ], [ -112.009082427939006, 40.657351963729901 ], [ -112.008490715746007, 40.6568132894879 ], [ -112.008009227737006, 40.656392099075504 ], [ -112.007440672315994, 40.655901891110091 ], [ -112.007104021477005, 40.655635036483602 ], [ -112.005903194029003, 40.65448719545121 ] ] ] } },
{ "type": "Feature", "properties": { "PrecinctID": "KRN005", "VistaID": "KRN005", "CountyID": 18, "district": "2" }, "geometry": { "type": "Polygon", "coordinates": [ [ [ -111.986908775486995, 40.659982937254298 ], [ -111.986908068513003, 40.659100559978498 ], [ -111.986907938257005, 40.658939342314106 ], [ -111.986905390635002, 40.655773989496993 ], [ -111.986904872306994, 40.655129712008879 ], [ -111.986903206831002, 40.653059177365009 ], [ -111.986903310136995, 40.6530031493065 ], [ -111.986914530993005, 40.653001996849497 ], [ -111.987117547552003, 40.652926989645799 ], [ -111.987382573917003, 40.652865229166991 ], [ -111.987966034186002, 40.652792046936312 ], [ -111.988576574169002, 40.6527861592322 ], [ -111.989333975226003, 40.652765273860297 ], [ -111.991692952060006, 40.6527912686335 ], [ -111.991685529281, 40.653101354105999 ], [ -111.991688593435001, 40.653525801143502 ], [ -111.991697178633999, 40.654046183536401 ], [ -111.993141498930996, 40.6540622508914 ], [ -111.993142864370014, 40.655758624494887 ], [ -111.993142921862002, 40.655830918891091 ], [ -111.993143318917006, 40.6563248544469 ], [ -111.993550859408998, 40.656382157508695 ], [ -111.994069461313998, 40.656387386576803 ], [ -111.994908091631999, 40.656409712845793 ], [ -111.996437676423, 40.656397712502709 ], [ -111.99645019534502, 40.655983630169899 ], [ -111.996452836391995, 40.655896253788796 ], [ -111.996460850261997, 40.655631149905794 ], [ -111.996467244471006, 40.654926034541504 ], [ -111.996462074665999, 40.654216519383297 ], [ -111.996484133696001, 40.65387101599449 ], [ -111.996439765006002, 40.653529034267599 ], [ -111.996457552547, 40.652815085921596 ], [ -111.996880827031006, 40.652809304537591 ], [ -111.997389082140003, 40.652802360469693 ], [ -111.999296704952002, 40.652799260207999 ], [ -112.001193444674001, 40.652805727208005 ], [ -112.001168811970004, 40.653607412944595 ], [ -112.001182831079007, 40.66001506841949 ], [ -111.999879381889997, 40.660022629813803 ], [ -111.998324215775, 40.659999942902502 ], [ -111.995311083055, 40.659999943583991 ], [ -111.992440008119019, 40.660022629813803 ], [ -111.992043739686991, 40.660016957405198 ], [ -111.991841867581996, 40.659960240107793 ], [ -111.991355879013, 40.659807101800801 ], [ -111.991146527533999, 40.660119049781997 ], [ -111.990757736679001, 40.660016957405198 ], [ -111.990548388794011, 40.659994270492 ], [ -111.990219409567004, 40.659982927032488 ], [ -111.988230592529007, 40.659977255302103 ], [ -111.986908775486995, 40.659982937254298 ] ] ] } },
{ "type": "Feature", "properties": { "PrecinctID": "KRN006", "VistaID": "KRN006", "CountyID": 18, "district": "1/3" }, "geometry": { "type": "Polygon", "coordinates": [ [ [ -112.030053591959003, 40.653065092305894 ], [ -112.030030589698001, 40.6490970925501 ], [ -112.030024601527998, 40.642251245273599 ], [ -112.030085856748997, 40.642251215963299 ], [ -112.030193615955, 40.6422771793873 ], [ -112.030273182434996, 40.642317429150097 ], [ -112.030356061901003, 40.642365224561594 ], [ -112.030488673, 40.642430629901391 ], [ -112.030614651836999, 40.642501066297193 ], [ -112.030763840446994, 40.64253125300899 ], [ -112.031566133013001, 40.642531253690599 ], [ -112.032850586427003, 40.642528737790997 ], [ -112.034609539856007, 40.6425337689085 ], [ -112.036293690571, 40.642523707354798 ], [ -112.037142396392994, 40.642533769590095 ], [ -112.037321421645998, 40.642523706673103 ], [ -112.038140290824998, 40.642169723873792 ], [ -112.038994951579994, 40.6421689938432 ], [ -112.038995197717995, 40.642214001477498 ], [ -112.043463178091002, 40.642208981923702 ], [ -112.043232324537996, 40.644341809106905 ], [ -112.043374198166006, 40.644342828798997 ], [ -112.043267797211996, 40.644882899454501 ], [ -112.043374638339998, 40.644895448517303 ], [ -112.043181505944005, 40.645776711811401 ], [ -112.042955469157008, 40.646653421361705 ], [ -112.039019773828002, 40.646657368442192 ], [ -112.03901489597601, 40.645798852146896 ], [ -112.034209563179004, 40.645803459745899 ], [ -112.034250776088001, 40.653077271807597 ], [ -112.033742287416004, 40.653073540468192 ], [ -112.032709348807003, 40.653070106954104 ], [ -112.031428526382996, 40.653064874218501 ], [ -112.030141781367007, 40.653064810836803 ], [ -112.030114567804006, 40.653069623754206 ], [ -112.030053591959003, 40.653065092305894 ] ] ] } },
{ "type": "Feature", "properties": { "PrecinctID": "KRN007", "VistaID": "KRN007", "CountyID": 18, "district": "1/3" }, "geometry": { "type": "Polygon", "coordinates": [ [ [ -112.027018588855995, 40.653059090811503 ], [ -112.027019588681, 40.652915092268003 ], [ -112.027019590476996, 40.652230092238391 ], [ -112.026608588776995, 40.650802092636084 ], [ -112.026848589875001, 40.650385092615693 ], [ -112.026418590603001, 40.650251092804496 ], [ -112.024817589747002, 40.650247092775402 ], [ -112.024628589600994, 40.650246092938588 ], [ -112.024630590149002, 40.650093093179798 ], [ -112.024643587873001, 40.648888092039883 ], [ -112.024644588596004, 40.648834092910391 ], [ -112.024649508669, 40.648420916471984 ], [ -112.024649590416018, 40.648414091222399 ], [ -112.024632588003001, 40.648014091798409 ], [ -112.024626589053, 40.647872092336208 ], [ -112.024613588633997, 40.647553091357686 ], [ -112.024611589882994, 40.647068091189603 ], [ -112.024610588261012, 40.646815092661207 ], [ -112.024609590232998, 40.646416092408209 ], [ -112.024606588062994, 40.646247093018403 ], [ -112.024601588039999, 40.645864091901991 ], [ -112.024601587142001, 40.645807092660192 ], [ -112.024593586745993, 40.644210092154317 ], [ -112.024591587995005, 40.643659093105306 ], [ -112.024588587622006, 40.643373091825403 ], [ -112.024586588869994, 40.643184092013591 ], [ -112.024581588846999, 40.642516092173295 ], [ -112.024579587401007, 40.642231092087506 ], [ -112.024586588869994, 40.641754090448096 ], [ -112.024591588893003, 40.641496091703402 ], [ -112.024600589114002, 40.6409630923145 ], [ -112.024600589114002, 40.640910091521093 ], [ -112.024615588283993, 40.640147091923403 ], [ -112.024631588177996, 40.639291090389499 ], [ -112.024641641223994, 40.638763997782696 ], [ -112.024642960848993, 40.6386947558196 ], [ -112.024645588420995, 40.638557090365111 ], [ -112.024647905175996, 40.638541754800592 ], [ -112.024826878327005, 40.638557437335891 ], [ -112.024912588385007, 40.638557089683495 ], [ -112.025713588276005, 40.63855608967139 ], [ -112.025981588064994, 40.638556090353099 ], [ -112.026138588424004, 40.638555090341086 ], [ -112.026611587353003, 40.6385540896473 ], [ -112.026769588435002, 40.638554090328995 ], [ -112.026933587567996, 40.638554090329002 ], [ -112.027425588561002, 40.638564090448988 ], [ -112.027590588417993, 40.638557091046799 ], [ -112.027763586874002, 40.63855709036509 ], [ -112.028285588901994, 40.638560090401192 ], [ -112.028459588081006, 40.638561089731503 ], [ -112.028645587854001, 40.638561091094793 ], [ -112.029205589517005, 40.638564090448995 ], [ -112.029392587318, 40.638565090460887 ], [ -112.029393942875998, 40.638770947401383 ], [ -112.029394587865994, 40.638869090663292 ], [ -112.029400589510999, 40.639781091144016 ], [ -112.029402589160995, 40.640086089887895 ], [ -112.029398588963005, 40.640513090014402 ], [ -112.029386590165004, 40.641794090364996 ], [ -112.029383588894007, 40.642222089747399 ], [ -112.029849589048993, 40.642219092602495 ], [ -112.030024588052996, 40.642237091829216 ], [ -112.030024591645997, 40.642238862032393 ], [ -112.030024597934997, 40.642245150104401 ], [ -112.030024601527998, 40.642251245273599 ], [ -112.030030589698001, 40.6490970925501 ], [ -112.030053591959003, 40.653065092305894 ], [ -112.027490589756994, 40.653065091624391 ], [ -112.027299590859997, 40.65306209224029 ], [ -112.027026494029997, 40.65305917600201 ], [ -112.027018588855995, 40.653059090811503 ] ] ] } },
{ "type": "Feature", "properties": { "PrecinctID": "KRN008", "VistaID": "KRN008", "CountyID": 18, "district": "4" }, "geometry": { "type": "Polygon", "coordinates": [ [ [ -112.004360527073004, 40.652799005317313 ], [ -112.004359585638994, 40.652798092753898 ], [ -112.004310062415001, 40.652798103658299 ], [ -112.002173877652993, 40.650679587964483 ], [ -112.001380031945018, 40.649911830332705 ], [ -112.000939995796003, 40.649260176942192 ], [ -112.000935957869004, 40.648989895424492 ], [ -112.000935892292006, 40.648985478883702 ], [ -112.000945151227, 40.648983307417701 ], [ -112.000954584436002, 40.648981093694609 ], [ -112.000840585532004, 40.648617092686393 ], [ -112.000779584534001, 40.648308091884594 ], [ -112.000760582471003, 40.64813909251491 ], [ -112.000730584129997, 40.647867092973591 ], [ -112.000735584153006, 40.647619092084788 ], [ -112.000736583079998, 40.647596093563401 ], [ -112.000785583482994, 40.647263093606099 ], [ -112.000828583141015, 40.647113093475603 ], [ -112.001147583882002, 40.646321093521692 ], [ -112.001169328502016, 40.646274237451301 ], [ -112.001217499760003, 40.646286382749693 ], [ -112.001424592874002, 40.645811849528492 ], [ -112.001627897793014, 40.645345985639416 ], [ -112.001786753173008, 40.644992703503206 ], [ -112.001984641250004, 40.644992745081097 ], [ -112.001984885591995, 40.644992743717893 ], [ -112.002076421224004, 40.6449927628029 ], [ -112.002539220681996, 40.644992852774791 ], [ -112.002540046234003, 40.644992852774799 ], [ -112.002585738142997, 40.64499286095409 ], [ -112.002844551758997, 40.6449929100297 ], [ -112.002846339407, 40.644992911392904 ], [ -112.002983274097005, 40.644992937293893 ], [ -112.002983274097005, 40.644996048142495 ], [ -112.002983312723998, 40.645162371996406 ], [ -112.002605946643001, 40.645313307580402 ], [ -112.002607042588011, 40.645314921614997 ], [ -112.002607851072, 40.64531614849939 ], [ -112.002608642487004, 40.645317381518204 ], [ -112.002609418632005, 40.64531861862659 ], [ -112.002610179504998, 40.64531986391421 ], [ -112.002610923310002, 40.645321114654593 ], [ -112.002611649149003, 40.645322370166106 ], [ -112.002612358818013, 40.645323630448893 ], [ -112.002613054113993, 40.645324897547709 ], [ -112.002613730544994, 40.645326168736091 ], [ -112.002614390806997, 40.645327446740396 ], [ -112.002615034898994, 40.645328728152805 ], [ -112.002615661923016, 40.645330014336288 ], [ -112.002616272777004, 40.64533130597269 ], [ -112.002616862970996, 40.645332603061789 ], [ -112.002617440587002, 40.645333902877283 ], [ -112.002617998440996, 40.645335207463987 ], [ -112.002618540124999, 40.645336516140304 ], [ -112.002619062945001, 40.645337829587803 ], [ -112.002619571390994, 40.645339146443192 ], [ -112.002620061870999, 40.645340467388309 ], [ -112.002620533487004, 40.645341790378097 ], [ -112.002620988933003, 40.645343118820698 ], [ -112.002621426412006, 40.645344450671395 ], [ -112.002621844128996, 40.645345785248296 ], [ -112.002622247472004, 40.645347123233293 ], [ -112.002622634646002, 40.645348464626302 ], [ -112.002623000261011, 40.645349807382502 ], [ -112.002623348807006, 40.645351154909704 ], [ -112.002623681184005, 40.645352503118694 ], [ -112.002623997390998, 40.645353854053994 ], [ -112.002624292936005, 40.645355207715596 ], [ -112.002624569616998, 40.64535656274041 ], [ -112.002624830128994, 40.645357921854895 ], [ -112.002625074470998, 40.645359281650904 ], [ -112.002625299948008, 40.645360642810104 ], [ -112.002625507459001, 40.645362006695599 ], [ -112.002625697002998, 40.645363370581101 ], [ -112.002625866784996, 40.645364737192999 ], [ -112.002626020397003, 40.645366105168101 ], [ -112.002626156941005, 40.645367472461501 ], [ -112.002626274619999, 40.64536884248141 ], [ -112.002626374333005, 40.645370213182794 ], [ -112.002626455181002, 40.645371584565794 ], [ -112.002626519860002, 40.645372955948694 ], [ -112.002626564775994, 40.645374328013197 ], [ -112.002626591725004, 40.6453757000778 ], [ -112.002626601607005, 40.645377072823784 ], [ -112.002626591725004, 40.645378444206607 ], [ -112.002626566572005, 40.645379816271102 ], [ -112.002626523453003, 40.64538118969859 ], [ -112.002626459672996, 40.645382560399803 ], [ -112.002626377027994, 40.645383930419314 ], [ -112.002626278213, 40.645385302483604 ], [ -112.002626163228996, 40.645386671821505 ], [ -112.002626029379996, 40.645388039796089 ], [ -112.002625877564014, 40.645389407089091 ], [ -112.002625705986006, 40.645390773700498 ], [ -112.002625518238005, 40.645392138266999 ], [ -112.002625311626005, 40.645393501470288 ], [ -112.00262508614901, 40.645394863310401 ], [ -112.002624846299, 40.645396223105692 ], [ -112.002624583989999, 40.645397582219289 ], [ -112.002624307309006, 40.645398937924895 ], [ -112.002624013559995, 40.645400291585602 ], [ -112.002623697353002, 40.645401643201495 ], [ -112.002623368569999, 40.645402992772603 ], [ -112.002623020024004, 40.645404337572401 ], [ -112.002622654408995, 40.64540568169069 ], [ -112.002622269032003, 40.645407023764101 ], [ -112.002621868383002, 40.6454083603846 ], [ -112.002621447972004, 40.645409695641895 ], [ -112.002621012288998, 40.645411026128009 ], [ -112.002620557740997, 40.645412354569203 ], [ -112.002620087023999, 40.645413680284101 ], [ -112.002619598340999, 40.645415000546016 ], [ -112.002619091691002, 40.645416317400013 ], [ -112.002618567075004, 40.645417630845898 ], [ -112.002618026288999, 40.645418940202099 ], [ -112.002617471130009, 40.645420244787204 ], [ -112.002616895309998, 40.64542154596419 ], [ -112.002616302421998, 40.645422842370003 ], [ -112.002615694262005, 40.64542413468611 ], [ -112.002615068137018, 40.645425420867809 ], [ -112.002614424045007, 40.645426702278307 ], [ -112.002983398064003, 40.645530792259308 ], [ -112.002983418726004, 40.645624251174588 ], [ -112.002983419624002, 40.645627372217696 ], [ -112.002983443878009, 40.645739422270594 ], [ -112.002983462743003, 40.645819234635709 ], [ -112.003068326587993, 40.645819154888699 ], [ -112.003378231886003, 40.645818866573087 ], [ -112.003558411474017, 40.645818700263398 ], [ -112.003868316772994, 40.645818409902894 ], [ -112.003953184210999, 40.645818331519195 ], [ -112.004167411745001, 40.645818131129616 ], [ -112.004466506716994, 40.645817850311502 ], [ -112.004762596825003, 40.645817570856586 ], [ -112.004765600791004, 40.645817568130198 ], [ -112.005064696660995, 40.645817285948901 ], [ -112.005376584540997, 40.645816992180492 ], [ -112.00554393169601, 40.64581683404991 ], [ -112.005509672645999, 40.644059685735407 ], [ -112.006126573599005, 40.644052518550495 ], [ -112.009209476669994, 40.644050619570109 ], [ -112.012312778684006, 40.644049065487096 ], [ -112.015042362675004, 40.644048063512493 ], [ -112.015049112616012, 40.644751499154395 ], [ -112.015045734951002, 40.644825802586503 ], [ -112.015073222500007, 40.645834160251695 ], [ -112.015076411519999, 40.646675694997697 ], [ -112.015083921434993, 40.647437044152305 ], [ -112.015092538974002, 40.648274110746605 ], [ -112.015097180569001, 40.648744387792597 ], [ -112.015102401576996, 40.64926899362969 ], [ -112.015105530409997, 40.649761462662489 ], [ -112.015365674430996, 40.649759614961283 ], [ -112.015961023003996, 40.649765191460894 ], [ -112.016798916704005, 40.64978470920579 ], [ -112.017364863417995, 40.649781920275402 ], [ -112.018265231352004, 40.649779133389401 ], [ -112.019066376769999, 40.649767979710504 ], [ -112.019040659800993, 40.649433970294993 ], [ -112.019863713332001, 40.649433627470103 ], [ -112.019793204565005, 40.649392436673914 ], [ -112.019992307165012, 40.649189218786809 ], [ -112.020150494198006, 40.649098802593699 ], [ -112.020642939856998, 40.648833917747794 ], [ -112.020926387974001, 40.648725094660684 ], [ -112.020931306250006, 40.648730772118697 ], [ -112.021458534676995, 40.649352332260897 ], [ -112.022004757082001, 40.649968207898404 ], [ -112.022166443951008, 40.650177578516697 ], [ -112.022328553928006, 40.650413955598609 ], [ -112.022383775164997, 40.650603433148603 ], [ -112.022419895523996, 40.651205926744197 ], [ -112.022423481599006, 40.651814494201702 ], [ -112.022451295235996, 40.65251858539829 ], [ -112.022423094424994, 40.653023650906192 ], [ -112.021556872351994, 40.653027500151993 ], [ -112.020364930141, 40.653041735817098 ], [ -112.018371767052997, 40.653039076512208 ], [ -112.017126052588011, 40.653033918741706 ], [ -112.016040499651993, 40.653038692814405 ], [ -112.015059160272997, 40.653032405077703 ], [ -112.014147490634002, 40.653031130628491 ], [ -112.012289285044005, 40.653012736302898 ], [ -112.011141560607001, 40.653040684226191 ], [ -112.010159740629007, 40.6530277148319 ], [ -112.009125247933994, 40.653026441064192 ], [ -112.008785520364995, 40.653033675437797 ], [ -112.008566218248006, 40.653000097442309 ], [ -112.008233543352006, 40.652938296139695 ], [ -112.007764590433993, 40.652831026127707 ], [ -112.007416962182006, 40.652803817572192 ], [ -112.006993945515006, 40.652776876845493 ], [ -112.006510544093999, 40.652761726515493 ], [ -112.006057596459996, 40.652780919659101 ], [ -112.005619700997016, 40.652788565701009 ], [ -112.004843572761018, 40.652781639350692 ], [ -112.004431327792005, 40.652797684519797 ], [ -112.004360527073004, 40.652799005317313 ] ] ] } },
{ "type": "Feature", "properties": { "PrecinctID": "KRN009", "VistaID": "KRN009", "CountyID": 18, "district": "2" }, "geometry": { "type": "Polygon", "coordinates": [ [ [ -111.986942745280004, 40.645810614474001 ], [ -111.986991911871996, 40.645810621290003 ], [ -111.987080989714002, 40.645810634922 ], [ -111.987085693292002, 40.64581063560361 ], [ -111.987337942021, 40.645810675817799 ], [ -111.987459111278, 40.645810694902501 ], [ -111.987463811262998, 40.645810694902501 ], [ -111.987554153933004, 40.645810709216093 ], [ -111.987770366744002, 40.645810742614302 ], [ -111.987784063356997, 40.645810743977499 ], [ -111.987788147996994, 40.645810745340796 ], [ -111.987986579555013, 40.645810776694205 ], [ -111.988143892527006, 40.645810798505408 ], [ -111.988148593410997, 40.645810799186997 ], [ -111.988202791467003, 40.645810807366097 ], [ -111.988396138561001, 40.645810835311593 ], [ -111.988400842139995, 40.645810835993196 ], [ -111.988419004278001, 40.6458108394012 ], [ -111.988635217986996, 40.645810871436304 ], [ -111.988648387289004, 40.645810872117792 ], [ -111.988653090867999, 40.645810874162706 ], [ -111.988851430797993, 40.6458109014266 ], [ -111.988900637813998, 40.645810908242503 ], [ -111.988905338698004, 40.645810910287288 ], [ -111.989067642709998, 40.645810932780009 ], [ -111.989157617071001, 40.645810945730396 ], [ -111.989283854622997, 40.6458109634519 ], [ -111.989409864901006, 40.645810979810193 ], [ -111.989500068332006, 40.645810992760609 ], [ -111.989662111832999, 40.645811014571692 ], [ -111.989716282041002, 40.645811022069289 ], [ -111.989914360561002, 40.645811048651602 ], [ -111.989932494851999, 40.645811051378004 ], [ -111.989954114605993, 40.645811053422797 ], [ -111.990166610187998, 40.645811082731498 ], [ -111.990170327417005, 40.645811082731505 ], [ -111.990386542023998, 40.645811111358604 ], [ -111.990418858018003, 40.645811116129693 ], [ -111.990602753038004, 40.645811138622399 ], [ -111.990671105847994, 40.645811147483194 ], [ -111.990818965848987, 40.645811167249505 ], [ -111.990942439285007, 40.645811182244685 ], [ -111.990942640507001, 40.645811181563097 ], [ -111.991035178659999, 40.645811192468699 ], [ -111.991251393267007, 40.645811220414096 ], [ -111.991467606078004, 40.645811246996395 ], [ -111.991541548206001, 40.645811255175609 ], [ -111.991545064212005, 40.645811255175587 ], [ -111.991683817091996, 40.645811272897106 ], [ -111.99190003080102, 40.645811298797796 ], [ -111.992116242714005, 40.645811324016897 ], [ -111.992332456423, 40.645811347191199 ], [ -111.992548669233997, 40.645811371047103 ], [ -111.992800917064002, 40.645811398992699 ], [ -111.993017405657, 40.645811422167007 ], [ -111.993017404759001, 40.645810998894994 ], [ -111.993251637773994, 40.645811030248503 ], [ -111.993397023815007, 40.645811050696402 ], [ -111.993397294208009, 40.6458110500148 ], [ -111.993471454626004, 40.645811060238792 ], [ -111.993570948433998, 40.645811072507492 ], [ -111.993573929044004, 40.645811073870696 ], [ -111.993691269680994, 40.645811090229103 ], [ -111.993911088329995, 40.645811117492904 ], [ -111.994090995728001, 40.645811140667192 ], [ -111.994091265223005, 40.645811142030396 ], [ -111.994130906080002, 40.645811145438401 ], [ -111.994350450742004, 40.645811174747102 ], [ -111.994350722033005, 40.64581117338389 ], [ -111.994566935742, 40.645811200647799 ], [ -111.994609906654006, 40.645811206782199 ], [ -111.994610178843018, 40.645811206782199 ], [ -111.994783149450996, 40.645811227911693 ], [ -111.994869364362003, 40.6458112381356 ], [ -111.994869634755005, 40.645811238817295 ], [ -111.994999361363995, 40.645811254493992 ], [ -111.995128820274005, 40.645811270170782 ], [ -111.995129090667007, 40.645811270852299 ], [ -111.995215575971002, 40.645811280394703 ], [ -111.995388274389001, 40.645811301524191 ], [ -111.995388546578994, 40.645811300842603 ], [ -111.995431789679998, 40.645811305613805 ], [ -111.995647730301002, 40.645811330151297 ], [ -111.995648002490995, 40.645811330151297 ], [ -111.995669622245003, 40.645811332877692 ], [ -111.995885835953999, 40.645811357415198 ], [ -111.995928805068999, 40.645811361504798 ], [ -111.995929051207, 40.645811363549598 ], [ -111.996102051459999, 40.645811383315902 ], [ -111.996166669972993, 40.64581139013189 ], [ -111.996166914314998, 40.645811389450309 ], [ -111.996318262474006, 40.645811406490203 ], [ -111.996404506131, 40.645811415350991 ], [ -111.996404750473005, 40.645811416032601 ], [ -111.996534477980006, 40.645811429664498 ], [ -111.996642338696006, 40.645811441251695 ], [ -111.996642583935994, 40.645811440570114 ], [ -111.996750691689016, 40.645811453520494 ], [ -111.996880173955006, 40.645811466470796 ], [ -111.996880419196003, 40.645811465789194 ], [ -111.996966903601006, 40.645811476013101 ], [ -111.997118008317003, 40.645811491008295 ], [ -111.997118255353996, 40.64581149100831 ], [ -111.997183118208994, 40.64581149782429 ], [ -111.997355842678004, 40.64581151622739 ], [ -111.997356088817, 40.645811515545795 ], [ -111.997402934161997, 40.645811520316983 ], [ -111.997622751912004, 40.645811542128094 ], [ -111.997627661205001, 40.645811541446506 ], [ -111.997628554130003, 40.645811542809703 ], [ -111.997842569661998, 40.645811561894391 ], [ -111.997941279239996, 40.645811572799992 ], [ -111.997943216907018, 40.645811573481602 ], [ -111.998062385615, 40.645811585068707 ], [ -111.998296377881999, 40.645811606198293 ], [ -111.998296616833997, 40.645811605516592 ], [ -111.998471135239001, 40.645811623238195 ], [ -111.998476794626001, 40.645811623238195 ], [ -111.998736252333998, 40.645811646412504 ], [ -111.998874511140997, 40.645811658681204 ], [ -111.998880176816002, 40.645811657999587 ], [ -111.99897408400102, 40.645811666178787 ], [ -111.999141267661997, 40.645811679810798 ], [ -111.999144243779995, 40.645811682537094 ], [ -111.999211921056997, 40.645811687308296 ], [ -111.999449753622002, 40.645811707756295 ], [ -111.999541927058019, 40.645811715253799 ], [ -111.999547158845999, 40.645811715935402 ], [ -111.999687589779995, 40.645811726159394 ], [ -111.999849133816994, 40.645811739109703 ], [ -111.999854362910995, 40.645811740472894 ], [ -111.999925424140997, 40.645811745925691 ], [ -112.000156344169994, 40.645811762965607 ], [ -112.000161564280006, 40.645811763647195 ], [ -112.000163259401006, 40.645811764328805 ], [ -112.000527295381005, 40.645811790911104 ], [ -112.000531083577002, 40.645811792274394 ], [ -112.000756188810996, 40.645811809314303 ], [ -112.000759983294998, 40.645811809314296 ], [ -112.001131725921994, 40.645811831806988 ], [ -112.001135473692997, 40.64581183248859 ], [ -112.001424592874002, 40.645811849528492 ], [ -112.001217499760003, 40.646286382749693 ], [ -112.001169328502016, 40.646274237451301 ], [ -112.001147583882002, 40.646321093521692 ], [ -112.000828583141015, 40.647113093475603 ], [ -112.000785583482994, 40.647263093606099 ], [ -112.000736583079998, 40.647596093563401 ], [ -112.000735584153006, 40.647619092084788 ], [ -112.000730584129997, 40.647867092973591 ], [ -112.000760582471003, 40.64813909251491 ], [ -112.000779584534001, 40.648308091884594 ], [ -112.000840585532004, 40.648617092686393 ], [ -112.000954584436002, 40.648981093694609 ], [ -112.000945151227, 40.648983307417701 ], [ -112.000935892292006, 40.648985478883702 ], [ -112.000935957869004, 40.648989895424492 ], [ -112.000939995796003, 40.649260176942192 ], [ -112.001380031945018, 40.649911830332705 ], [ -112.002173877652993, 40.650679587964483 ], [ -112.004310062415001, 40.652798103658299 ], [ -112.004359585638994, 40.652798092753898 ], [ -112.004360527073004, 40.652799005317313 ], [ -112.004141431568002, 40.652803096517793 ], [ -112.003934770544021, 40.652806953954702 ], [ -112.003690483583995, 40.652806843547509 ], [ -112.003621062676999, 40.652806812878794 ], [ -112.001193444674001, 40.652805727208005 ], [ -111.999296704952002, 40.652799260207999 ], [ -111.997389082140003, 40.652802360469693 ], [ -111.996880827031006, 40.652809304537591 ], [ -111.996457552547, 40.652815085921596 ], [ -111.994082192237997, 40.6527960086473 ], [ -111.993457424737997, 40.65279282183149 ], [ -111.993382574413999, 40.652792440176903 ], [ -111.992889957176004, 40.652789928071698 ], [ -111.991692952060006, 40.6527912686335 ], [ -111.989333975226003, 40.652765273860297 ], [ -111.988576574169002, 40.6527861592322 ], [ -111.987966034186002, 40.652792046936312 ], [ -111.987382573917003, 40.652865229166991 ], [ -111.987117547552003, 40.652926989645799 ], [ -111.986914530993005, 40.653001996849497 ], [ -111.986903310136995, 40.6530031493065 ], [ -111.986909967551, 40.649327876476896 ], [ -111.986921643854004, 40.649130908330605 ], [ -111.986962301603, 40.64886980017021 ], [ -111.986973977006997, 40.648672830671799 ], [ -111.986978313175001, 40.646250472356108 ], [ -111.986978367074002, 40.646221636880803 ], [ -111.986942340138995, 40.646221598030003 ], [ -111.986943021960997, 40.645814946025297 ], [ -111.986942745280004, 40.645810614474001 ] ] ] } },
{ "type": "Feature", "properties": { "PrecinctID": "KRN010", "VistaID": "KRN010", "CountyID": 18, "district": "1/3" }, "geometry": { "type": "Polygon", "coordinates": [ [ [ -112.030024601527998, 40.642251245273599 ], [ -112.030024597934997, 40.642245150104401 ], [ -112.030024591645997, 40.642238862032393 ], [ -112.030024588052996, 40.642237091829216 ], [ -112.029849589048993, 40.642219092602495 ], [ -112.029383588894007, 40.642222089747399 ], [ -112.029386590165004, 40.641794090364996 ], [ -112.029398588963005, 40.640513090014402 ], [ -112.029402589160995, 40.640086089887895 ], [ -112.029400589510999, 40.639781091144016 ], [ -112.029394587865994, 40.638869090663292 ], [ -112.029393942875998, 40.638770947401383 ], [ -112.029392587318, 40.638565090460887 ], [ -112.02945383984401, 40.638564937766503 ], [ -112.029792589148002, 40.638564090449002 ], [ -112.030995589620005, 40.638562091106792 ], [ -112.031396589478021, 40.638562089743395 ], [ -112.031666824275007, 40.638561597576697 ], [ -112.032491589995004, 40.638560091082802 ], [ -112.033173589162999, 40.638560089037803 ], [ -112.033546591228003, 40.638560089719498 ], [ -112.034178589267995, 40.638555090341107 ], [ -112.034542588418006, 40.638553089635195 ], [ -112.036077590947997, 40.638552090304799 ], [ -112.036710590609005, 40.638552088941388 ], [ -112.037056589317999, 40.638550089598894 ], [ -112.037141116293995, 40.638549260686297 ], [ -112.037142673972994, 40.638823747437598 ], [ -112.037161654475995, 40.642170553423 ], [ -112.038140290824998, 40.642169723873792 ], [ -112.037321421645998, 40.642523706673103 ], [ -112.037142396392994, 40.642533769590095 ], [ -112.036293690571, 40.642523707354798 ], [ -112.034609539856007, 40.6425337689085 ], [ -112.032850586427003, 40.642528737790997 ], [ -112.031566133013001, 40.642531253690599 ], [ -112.030763840446994, 40.64253125300899 ], [ -112.030614651836999, 40.642501066297193 ], [ -112.030488673, 40.642430629901391 ], [ -112.030356061901003, 40.642365224561594 ], [ -112.030273182434996, 40.642317429150097 ], [ -112.030193615955, 40.6422771793873 ], [ -112.030085856748997, 40.642251215963299 ], [ -112.030024601527998, 40.642251245273599 ] ] ] } },
{ "type": "Feature", "properties": { "PrecinctID": "KRN011", "VistaID": "KRN011", "CountyID": 18, "district": "1/3" }, "geometry": { "type": "Polygon", "coordinates": [ [ [ -112.015045734951002, 40.644825802586503 ], [ -112.015253091271006, 40.644825802586489 ], [ -112.01544449620701, 40.644807650014492 ], [ -112.015699703986002, 40.644728981541995 ], [ -112.016090488203005, 40.644535340394697 ], [ -112.016856108845005, 40.6441601584769 ], [ -112.015819329937997, 40.642992238379492 ], [ -112.015556149611001, 40.642580738710798 ], [ -112.015484371525005, 40.641769833576305 ], [ -112.015468421037994, 40.6414975122442 ], [ -112.015484372423003, 40.641346223801399 ], [ -112.015500322909006, 40.641164674763587 ], [ -112.015550665396006, 40.640737657673995 ], [ -112.015517184287006, 40.638792843296599 ], [ -112.015516001205995, 40.638724228499484 ], [ -112.015513640432999, 40.638586999375399 ], [ -112.015841586597006, 40.6385850920595 ], [ -112.016875586116996, 40.63858309135459 ], [ -112.017220586796995, 40.63858309135459 ], [ -112.017557587080006, 40.638580092001291 ], [ -112.018568586135999, 40.638575090579295 ], [ -112.018906586244, 40.63857309123739 ], [ -112.019468586659016, 40.638571092577195 ], [ -112.021156587552994, 40.638569091871794 ], [ -112.021719587793001, 40.63856909050849 ], [ -112.021719744997995, 40.63856909050849 ], [ -112.021711237952005, 40.639207657394699 ], [ -112.021755839305996, 40.640637303159401 ], [ -112.021786482636998, 40.640761509256606 ], [ -112.021856920437003, 40.640915730790105 ], [ -112.022062756807998, 40.641302991263103 ], [ -112.022363808310999, 40.6418518292027 ], [ -112.022496037625999, 40.642103710259605 ], [ -112.022695595670996, 40.642488966660899 ], [ -112.022703502642003, 40.642843508746786 ], [ -112.022695786113999, 40.643190272299989 ], [ -112.022696438291007, 40.643790400811199 ], [ -112.022696515546002, 40.643859942171694 ], [ -112.022696644004995, 40.6439783669394 ], [ -112.022774228801012, 40.6439740686682 ], [ -112.022919177361999, 40.643985225360304 ], [ -112.023110515823006, 40.64398437402189 ], [ -112.023286431108005, 40.643983590844996 ], [ -112.023400377909994, 40.644002789921508 ], [ -112.023389139087996, 40.644734998780891 ], [ -112.022406332759999, 40.644737893571595 ], [ -112.021432782671994, 40.644744800308608 ], [ -112.021000498985003, 40.644725694825993 ], [ -112.020762601740998, 40.644726749274298 ], [ -112.020582158947008, 40.6447674596902 ], [ -112.020401948816001, 40.644847968456894 ], [ -112.020193365397006, 40.644950343056195 ], [ -112.019989592456, 40.645059994314302 ], [ -112.019188633886998, 40.645462198020198 ], [ -112.018601500407996, 40.645766836141085 ], [ -112.018489352033001, 40.645825025486104 ], [ -112.018406645043001, 40.645867937471287 ], [ -112.018565158163995, 40.646070190791804 ], [ -112.018651560823002, 40.646153856493193 ], [ -112.018772457891004, 40.646328496293989 ], [ -112.018929034245019, 40.646512697667497 ], [ -112.019362041975, 40.6469944234466 ], [ -112.019630920316004, 40.6473121832083 ], [ -112.020287112681004, 40.647986868328886 ], [ -112.020615212457002, 40.648365756930197 ], [ -112.020669896502, 40.648428905162 ], [ -112.020926387974001, 40.648725094660684 ], [ -112.020642939856998, 40.648833917747794 ], [ -112.020150494198006, 40.649098802593699 ], [ -112.019992307165012, 40.649189218786809 ], [ -112.019793204565005, 40.649392436673914 ], [ -112.019863713332001, 40.649433627470103 ], [ -112.019040659800993, 40.649433970294993 ], [ -112.019066376769999, 40.649767979710504 ], [ -112.018265231352004, 40.649779133389401 ], [ -112.017364863417995, 40.649781920275402 ], [ -112.016798916704005, 40.64978470920579 ], [ -112.015961023003996, 40.649765191460894 ], [ -112.015365674430996, 40.649759614961283 ], [ -112.015105530409997, 40.649761462662489 ], [ -112.015102401576996, 40.64926899362969 ], [ -112.015097180569001, 40.648744387792597 ], [ -112.015092538974002, 40.648274110746605 ], [ -112.015083921434993, 40.647437044152305 ], [ -112.015076411519999, 40.646675694997697 ], [ -112.015073222500007, 40.645834160251695 ], [ -112.015045734951002, 40.644825802586503 ] ] ] } },
{ "type": "Feature", "properties": { "PrecinctID": "KRN012", "VistaID": "KRN012", "CountyID": 18, "district": "4" }, "geometry": { "type": "Polygon", "coordinates": [ [ [ -112.015045734951002, 40.644825802586503 ], [ -112.015049112616012, 40.644751499154395 ], [ -112.015042362675004, 40.644048063512493 ], [ -112.012312778684006, 40.644049065487096 ], [ -112.009209476669994, 40.644050619570109 ], [ -112.006126573599005, 40.644052518550495 ], [ -112.005509672645999, 40.644059685735407 ], [ -112.005507382839994, 40.643942310801307 ], [ -112.00550763886001, 40.643942274675595 ], [ -112.005507680182006, 40.643931207268096 ], [ -112.005507681978997, 40.643930496342001 ], [ -112.005508906383, 40.643598688651899 ], [ -112.005506539321999, 40.643561843674007 ], [ -112.005362587891, 40.64356246735661 ], [ -112.005343981985007, 40.643562547106093 ], [ -112.005098945829999, 40.643562725690707 ], [ -112.004860983008996, 40.643562898140587 ], [ -112.004803587848997, 40.643562940401097 ], [ -112.004623021086999, 40.64356307127219 ], [ -112.004385059165003, 40.643563243040489 ], [ -112.004147098141004, 40.643563415490483 ], [ -112.003909134423012, 40.643563586577194 ], [ -112.003671170703996, 40.643563756982211 ], [ -112.003433208781999, 40.643563928069 ], [ -112.003209655836997, 40.643564087568109 ], [ -112.003114242177006, 40.643564155048495 ], [ -112.003018826721018, 40.643564222528894 ], [ -112.002637025656995, 40.643564493813798 ], [ -112.00254213302, 40.643539232278215 ], [ -112.002962465522003, 40.642821662575798 ], [ -112.003517957642003, 40.641598971767898 ], [ -112.004027313188004, 40.640525492662093 ], [ -112.004125602355003, 40.640318341219107 ], [ -112.004222584472998, 40.640317092429903 ], [ -112.005158584083006, 40.640309092544001 ], [ -112.005470583353997, 40.640306092586606 ], [ -112.005470582455999, 40.640287093534795 ], [ -112.005470585151002, 40.640233092899408 ], [ -112.005470584253004, 40.64021509245061 ], [ -112.005465583331997, 40.640128092144685 ], [ -112.005455583285993, 40.639894093744395 ], [ -112.005410584876998, 40.638931092453994 ], [ -112.005396582835999, 40.638611093038008 ], [ -112.005942583358006, 40.638611092356399 ], [ -112.007582583672999, 40.638614091026604 ], [ -112.008129584019002, 40.638615091719501 ], [ -112.008705584677998, 40.638612091004198 ], [ -112.010436584331003, 40.638607091629702 ], [ -112.011013584815004, 40.638605091607104 ], [ -112.011048648754993, 40.638604859157297 ], [ -112.011314584215, 40.6386030915844 ], [ -112.012221585310002, 40.638600090868593 ], [ -112.012523585433001, 40.638599090857298 ], [ -112.012797585968002, 40.638597091516104 ], [ -112.013621584527002, 40.638594092163395 ], [ -112.013896585785005, 40.6385940914817 ], [ -112.014216585452004, 40.638592092822094 ], [ -112.015176586250007, 40.638588092775905 ], [ -112.015497587539002, 40.638587092764396 ], [ -112.015513502990999, 40.638586999375399 ], [ -112.015513640432999, 40.638586999375399 ], [ -112.015516001205995, 40.638724228499484 ], [ -112.015517184287006, 40.638792843296599 ], [ -112.015550665396006, 40.640737657673995 ], [ -112.015500322909006, 40.641164674763587 ], [ -112.015484372423003, 40.641346223801399 ], [ -112.015468421037994, 40.6414975122442 ], [ -112.015484371525005, 40.641769833576305 ], [ -112.015556149611001, 40.642580738710798 ], [ -112.015819329937997, 40.642992238379492 ], [ -112.016856108845005, 40.6441601584769 ], [ -112.016090488203005, 40.644535340394697 ], [ -112.015699703986002, 40.644728981541995 ], [ -112.01544449620701, 40.644807650014492 ], [ -112.015253091271006, 40.644825802586489 ], [ -112.015045734951002, 40.644825802586503 ] ] ] } },
{ "type": "Feature", "properties": { "PrecinctID": "KRN013", "VistaID": "KRN013", "CountyID": 18, "district": "4" }, "geometry": { "type": "Polygon", "coordinates": [ [ [ -111.986942745280004, 40.645810614474001 ], [ -111.986941925118003, 40.6457978467906 ], [ -111.986937946479017, 40.645735834337991 ], [ -111.986906518919, 40.645606117222997 ], [ -111.986847215737001, 40.645482184601697 ], [ -111.986780786219995, 40.645389530459006 ], [ -111.986663485109005, 40.645266551679597 ], [ -111.986588526987006, 40.645158788122401 ], [ -111.986548934639004, 40.645081019100502 ], [ -111.986520239754, 40.645000519475701 ], [ -111.986497439613004, 40.644862702758502 ], [ -111.986490886403004, 40.64369846342791 ], [ -111.986490399516995, 40.643611821422702 ], [ -111.98648914277301, 40.64330948144071 ], [ -111.988429514567002, 40.643290770207003 ], [ -111.989619666435999, 40.643296997515598 ], [ -111.990465084424017, 40.643284542897895 ], [ -111.991466455335996, 40.643290770207003 ], [ -111.991729111046993, 40.643259630247393 ], [ -111.991999971970003, 40.643203578283703 ], [ -111.992467827146001, 40.642998053331986 ], [ -111.993165501915001, 40.642767613550291 ], [ -111.993543065626, 40.642649280699196 ], [ -111.994010919005007, 40.642568315314399 ], [ -111.995857708803996, 40.642562087937897 ], [ -111.998697658913002, 40.642555858515891 ], [ -112.000971263455995, 40.642555859879103 ], [ -112.001315995539997, 40.64258699948541 ], [ -112.001932117653993, 40.642728747084007 ], [ -112.002183949563999, 40.642686452681396 ], [ -112.002524117307004, 40.642777062965003 ], [ -112.002962465522003, 40.642821662575798 ], [ -112.00254213302, 40.643539232278215 ], [ -112.002349422831998, 40.643868214278911 ], [ -112.002103960875999, 40.644287246694596 ], [ -112.001786753173008, 40.644992703503206 ], [ -112.001627897793014, 40.645345985639416 ], [ -112.001424592874002, 40.645811849528492 ], [ -112.001135473692997, 40.64581183248859 ], [ -112.001131725921994, 40.645811831806988 ], [ -112.000759983294998, 40.645811809314296 ], [ -112.000756188810996, 40.645811809314303 ], [ -112.000531083577002, 40.645811792274394 ], [ -112.000527295381005, 40.645811790911104 ], [ -112.000163259401006, 40.645811764328805 ], [ -112.000161564280006, 40.645811763647195 ], [ -112.000156344169994, 40.645811762965607 ], [ -111.999925424140997, 40.645811745925691 ], [ -111.999854362910995, 40.645811740472894 ], [ -111.999849133816994, 40.645811739109703 ], [ -111.999687589779995, 40.645811726159394 ], [ -111.999547158845999, 40.645811715935402 ], [ -111.999541927058019, 40.645811715253799 ], [ -111.999449753622002, 40.645811707756295 ], [ -111.999211921056997, 40.645811687308296 ], [ -111.999144243779995, 40.645811682537094 ], [ -111.999141267661997, 40.645811679810798 ], [ -111.99897408400102, 40.645811666178787 ], [ -111.998880176816002, 40.645811657999587 ], [ -111.998874511140997, 40.645811658681204 ], [ -111.998736252333998, 40.645811646412504 ], [ -111.998476794626001, 40.645811623238195 ], [ -111.998471135239001, 40.645811623238195 ], [ -111.998296616833997, 40.645811605516592 ], [ -111.998296377881999, 40.645811606198293 ], [ -111.998062385615, 40.645811585068707 ], [ -111.997943216907018, 40.645811573481602 ], [ -111.997941279239996, 40.645811572799992 ], [ -111.997842569661998, 40.645811561894391 ], [ -111.997628554130003, 40.645811542809703 ], [ -111.997627661205001, 40.645811541446506 ], [ -111.997622751912004, 40.645811542128094 ], [ -111.997402934161997, 40.645811520316983 ], [ -111.997356088817, 40.645811515545795 ], [ -111.997355842678004, 40.64581151622739 ], [ -111.997183118208994, 40.64581149782429 ], [ -111.997118255353996, 40.64581149100831 ], [ -111.997118008317003, 40.645811491008295 ], [ -111.996966903601006, 40.645811476013101 ], [ -111.996880419196003, 40.645811465789194 ], [ -111.996880173955006, 40.645811466470796 ], [ -111.996750691689016, 40.645811453520494 ], [ -111.996642583935994, 40.645811440570114 ], [ -111.996642338696006, 40.645811441251695 ], [ -111.996534477980006, 40.645811429664498 ], [ -111.996404750473005, 40.645811416032601 ], [ -111.996404506131, 40.645811415350991 ], [ -111.996318262474006, 40.645811406490203 ], [ -111.996166914314998, 40.645811389450309 ], [ -111.996166669972993, 40.64581139013189 ], [ -111.996102051459999, 40.645811383315902 ], [ -111.995929051207, 40.645811363549598 ], [ -111.995928805068999, 40.645811361504798 ], [ -111.995885835953999, 40.645811357415198 ], [ -111.995669622245003, 40.645811332877692 ], [ -111.995648002490995, 40.645811330151297 ], [ -111.995647730301002, 40.645811330151297 ], [ -111.995431789679998, 40.645811305613805 ], [ -111.995388546578994, 40.645811300842603 ], [ -111.995388274389001, 40.645811301524191 ], [ -111.995215575971002, 40.645811280394703 ], [ -111.995129090667007, 40.645811270852299 ], [ -111.995128820274005, 40.645811270170782 ], [ -111.994999361363995, 40.645811254493992 ], [ -111.994869634755005, 40.645811238817295 ], [ -111.994869364362003, 40.6458112381356 ], [ -111.994783149450996, 40.645811227911693 ], [ -111.994610178843018, 40.645811206782199 ], [ -111.994609906654006, 40.645811206782199 ], [ -111.994566935742, 40.645811200647799 ], [ -111.994350722033005, 40.64581117338389 ], [ -111.994350450742004, 40.645811174747102 ], [ -111.994130906080002, 40.645811145438401 ], [ -111.994091265223005, 40.645811142030396 ], [ -111.994090995728001, 40.645811140667192 ], [ -111.993911088329995, 40.645811117492904 ], [ -111.993691269680994, 40.645811090229103 ], [ -111.993573929044004, 40.645811073870696 ], [ -111.993570948433998, 40.645811072507492 ], [ -111.993471454626004, 40.645811060238792 ], [ -111.993397294208009, 40.6458110500148 ], [ -111.993397023815007, 40.645811050696402 ], [ -111.993251637773994, 40.645811030248503 ], [ -111.993017404759001, 40.645810998894994 ], [ -111.993017405657, 40.645811422167007 ], [ -111.992800917064002, 40.645811398992699 ], [ -111.992548669233997, 40.645811371047103 ], [ -111.992332456423, 40.645811347191199 ], [ -111.992116242714005, 40.645811324016897 ], [ -111.99190003080102, 40.645811298797796 ], [ -111.991683817091996, 40.645811272897106 ], [ -111.991545064212005, 40.645811255175587 ], [ -111.991541548206001, 40.645811255175609 ], [ -111.991467606078004, 40.645811246996395 ], [ -111.991251393267007, 40.645811220414096 ], [ -111.991035178659999, 40.645811192468699 ], [ -111.990942640507001, 40.645811181563097 ], [ -111.990942439285007, 40.645811182244685 ], [ -111.990818965848987, 40.645811167249505 ], [ -111.990671105847994, 40.645811147483194 ], [ -111.990602753038004, 40.645811138622399 ], [ -111.990418858018003, 40.645811116129693 ], [ -111.990386542023998, 40.645811111358604 ], [ -111.990170327417005, 40.645811082731505 ], [ -111.990166610187998, 40.645811082731498 ], [ -111.989954114605993, 40.645811053422797 ], [ -111.989932494851999, 40.645811051378004 ], [ -111.989914360561002, 40.645811048651602 ], [ -111.989716282041002, 40.645811022069289 ], [ -111.989662111832999, 40.645811014571692 ], [ -111.989500068332006, 40.645810992760609 ], [ -111.989409864901006, 40.645810979810193 ], [ -111.989283854622997, 40.6458109634519 ], [ -111.989157617071001, 40.645810945730396 ], [ -111.989067642709998, 40.645810932780009 ], [ -111.988905338698004, 40.645810910287288 ], [ -111.988900637813998, 40.645810908242503 ], [ -111.988851430797993, 40.6458109014266 ], [ -111.988653090867999, 40.645810874162706 ], [ -111.988648387289004, 40.645810872117792 ], [ -111.988635217986996, 40.645810871436304 ], [ -111.988419004278001, 40.6458108394012 ], [ -111.988400842139995, 40.645810835993196 ], [ -111.988396138561001, 40.645810835311593 ], [ -111.988202791467003, 40.645810807366097 ], [ -111.988148593410997, 40.645810799186997 ], [ -111.988143892527006, 40.645810798505408 ], [ -111.987986579555013, 40.645810776694205 ], [ -111.987788147996994, 40.645810745340796 ], [ -111.987784063356997, 40.645810743977499 ], [ -111.987770366744002, 40.645810742614302 ], [ -111.987554153933004, 40.645810709216093 ], [ -111.987463811262998, 40.645810694902501 ], [ -111.987459111278, 40.645810694902501 ], [ -111.987337942021, 40.645810675817799 ], [ -111.987085693292002, 40.64581063560361 ], [ -111.987080989714002, 40.645810634922 ], [ -111.986991911871996, 40.645810621290003 ], [ -111.986942745280004, 40.645810614474001 ] ] ] } },
{ "type": "Feature", "properties": { "PrecinctID": "KRN014", "VistaID": "KRN014", "CountyID": 18, "district": "4" }, "geometry": { "type": "Polygon", "coordinates": [ [ [ -111.98648914277301, 40.64330948144071 ], [ -111.986484476026007, 40.642186029252287 ], [ -111.986476382204998, 40.639956236367802 ], [ -111.986476124388005, 40.639884828650793 ], [ -111.986471405537998, 40.638584762812307 ], [ -111.986471358826009, 40.638572463418207 ], [ -111.988168959117004, 40.638572774941899 ], [ -111.996285468576005, 40.638574714978404 ], [ -111.996285580866001, 40.638595093538193 ], [ -111.997508582327981, 40.638591094173904 ], [ -111.997950582193994, 40.638590093480794 ], [ -111.998123583343997, 40.638588093457599 ], [ -111.998645581779002, 40.638585092741209 ], [ -111.99881958185702, 40.638584092729602 ], [ -111.999024582793993, 40.638582092706301 ], [ -111.999642583286004, 40.638580092682901 ], [ -111.999848152856998, 40.63857909403459 ], [ -111.999848583149998, 40.638579091989506 ], [ -111.999976584094995, 40.6385770926478 ], [ -112.000072584354015, 40.638577091966098 ], [ -112.000361583160995, 40.638579091989499 ], [ -112.000490582134006, 40.638581092012998 ], [ -112.000844582135997, 40.638576091954398 ], [ -112.001305582269012, 40.638575091942698 ], [ -112.003750582673007, 40.638574092612593 ], [ -112.004216581929995, 40.638574091930892 ], [ -112.004565581910001, 40.638585092741209 ], [ -112.004436582937004, 40.638933092466807 ], [ -112.004283584572008, 40.639352093151608 ], [ -112.004043583474001, 40.639974093056694 ], [ -112.004024583207993, 40.640022091916393 ], [ -112.004009584038016, 40.640059092902696 ], [ -112.003995911678999, 40.640095647383895 ], [ -112.003911582331995, 40.640321092372403 ], [ -112.004125602355003, 40.640318341219107 ], [ -112.004027313188004, 40.640525492662093 ], [ -112.003517957642003, 40.641598971767898 ], [ -112.002962465522003, 40.642821662575798 ], [ -112.002524117307004, 40.642777062965003 ], [ -112.002183949563999, 40.642686452681396 ], [ -112.001932117653993, 40.642728747084007 ], [ -112.001315995539997, 40.64258699948541 ], [ -112.000971263455995, 40.642555859879103 ], [ -111.998697658913002, 40.642555858515891 ], [ -111.995857708803996, 40.642562087937897 ], [ -111.994010919005007, 40.642568315314399 ], [ -111.993543065626, 40.642649280699196 ], [ -111.993165501915001, 40.642767613550291 ], [ -111.992467827146001, 40.642998053331986 ], [ -111.991999971970003, 40.643203578283703 ], [ -111.991729111046993, 40.643259630247393 ], [ -111.991466455335996, 40.643290770207003 ], [ -111.990465084424017, 40.643284542897895 ], [ -111.989619666435999, 40.643296997515598 ], [ -111.988429514567002, 40.643290770207003 ], [ -111.98648914277301, 40.64330948144071 ] ] ] } },
{ "type": "Feature", "properties": { "PrecinctID": "KRN015", "VistaID": "KRN015", "CountyID": 18, "district": "4" }, "geometry": { "type": "Polygon", "coordinates": [ [ [ -112.001786753173008, 40.644992703503206 ], [ -112.002103960875999, 40.644287246694596 ], [ -112.002349422831998, 40.643868214278911 ], [ -112.00254213302, 40.643539232278215 ], [ -112.002637025656995, 40.643564493813798 ], [ -112.003018826721018, 40.643564222528894 ], [ -112.003114242177006, 40.643564155048495 ], [ -112.003209655836997, 40.643564087568109 ], [ -112.003433208781999, 40.643563928069 ], [ -112.003671170703996, 40.643563756982211 ], [ -112.003909134423012, 40.643563586577194 ], [ -112.004147098141004, 40.643563415490483 ], [ -112.004385059165003, 40.643563243040489 ], [ -112.004623021086999, 40.64356307127219 ], [ -112.004803587848997, 40.643562940401097 ], [ -112.004860983008996, 40.643562898140587 ], [ -112.005098945829999, 40.643562725690707 ], [ -112.005343981985007, 40.643562547106093 ], [ -112.005362587891, 40.64356246735661 ], [ -112.005506539321999, 40.643561843674007 ], [ -112.005508906383, 40.643598688651899 ], [ -112.005507681978997, 40.643930496342001 ], [ -112.005507680182006, 40.643931207268096 ], [ -112.00550763886001, 40.643942274675595 ], [ -112.005507382839994, 40.643942310801307 ], [ -112.005509672645999, 40.644059685735407 ], [ -112.00554393169601, 40.64581683404991 ], [ -112.005376584540997, 40.645816992180492 ], [ -112.005064696660995, 40.645817285948901 ], [ -112.004765600791004, 40.645817568130198 ], [ -112.004762596825003, 40.645817570856586 ], [ -112.004466506716994, 40.645817850311502 ], [ -112.004167411745001, 40.645818131129616 ], [ -112.003953184210999, 40.645818331519195 ], [ -112.003868316772994, 40.645818409902894 ], [ -112.003558411474017, 40.645818700263398 ], [ -112.003378231886003, 40.645818866573087 ], [ -112.003068326587993, 40.645819154888699 ], [ -112.002983462743003, 40.645819234635709 ], [ -112.002983443878009, 40.645739422270594 ], [ -112.002983419624002, 40.645627372217696 ], [ -112.002983418726004, 40.645624251174588 ], [ -112.002983398064003, 40.645530792259308 ], [ -112.002614424045007, 40.645426702278307 ], [ -112.002615068137018, 40.645425420867809 ], [ -112.002615694262005, 40.64542413468611 ], [ -112.002616302421998, 40.645422842370003 ], [ -112.002616895309998, 40.64542154596419 ], [ -112.002617471130009, 40.645420244787204 ], [ -112.002618026288999, 40.645418940202099 ], [ -112.002618567075004, 40.645417630845898 ], [ -112.002619091691002, 40.645416317400013 ], [ -112.002619598340999, 40.645415000546016 ], [ -112.002620087023999, 40.645413680284101 ], [ -112.002620557740997, 40.645412354569203 ], [ -112.002621012288998, 40.645411026128009 ], [ -112.002621447972004, 40.645409695641895 ], [ -112.002621868383002, 40.6454083603846 ], [ -112.002622269032003, 40.645407023764101 ], [ -112.002622654408995, 40.64540568169069 ], [ -112.002623020024004, 40.645404337572401 ], [ -112.002623368569999, 40.645402992772603 ], [ -112.002623697353002, 40.645401643201495 ], [ -112.002624013559995, 40.645400291585602 ], [ -112.002624307309006, 40.645398937924895 ], [ -112.002624583989999, 40.645397582219289 ], [ -112.002624846299, 40.645396223105692 ], [ -112.00262508614901, 40.645394863310401 ], [ -112.002625311626005, 40.645393501470288 ], [ -112.002625518238005, 40.645392138266999 ], [ -112.002625705986006, 40.645390773700498 ], [ -112.002625877564014, 40.645389407089091 ], [ -112.002626029379996, 40.645388039796089 ], [ -112.002626163228996, 40.645386671821505 ], [ -112.002626278213, 40.645385302483604 ], [ -112.002626377027994, 40.645383930419314 ], [ -112.002626459672996, 40.645382560399803 ], [ -112.002626523453003, 40.64538118969859 ], [ -112.002626566572005, 40.645379816271102 ], [ -112.002626591725004, 40.645378444206607 ], [ -112.002626601607005, 40.645377072823784 ], [ -112.002626591725004, 40.6453757000778 ], [ -112.002626564775994, 40.645374328013197 ], [ -112.002626519860002, 40.645372955948694 ], [ -112.002626455181002, 40.645371584565794 ], [ -112.002626374333005, 40.645370213182794 ], [ -112.002626274619999, 40.64536884248141 ], [ -112.002626156941005, 40.645367472461501 ], [ -112.002626020397003, 40.645366105168101 ], [ -112.002625866784996, 40.645364737192999 ], [ -112.002625697002998, 40.645363370581101 ], [ -112.002625507459001, 40.645362006695599 ], [ -112.002625299948008, 40.645360642810104 ], [ -112.002625074470998, 40.645359281650904 ], [ -112.002624830128994, 40.645357921854895 ], [ -112.002624569616998, 40.64535656274041 ], [ -112.002624292936005, 40.645355207715596 ], [ -112.002623997390998, 40.645353854053994 ], [ -112.002623681184005, 40.645352503118694 ], [ -112.002623348807006, 40.645351154909704 ], [ -112.002623000261011, 40.645349807382502 ], [ -112.002622634646002, 40.645348464626302 ], [ -112.002622247472004, 40.645347123233293 ], [ -112.002621844128996, 40.645345785248296 ], [ -112.002621426412006, 40.645344450671395 ], [ -112.002620988933003, 40.645343118820698 ], [ -112.002620533487004, 40.645341790378097 ], [ -112.002620061870999, 40.645340467388309 ], [ -112.002619571390994, 40.645339146443192 ], [ -112.002619062945001, 40.645337829587803 ], [ -112.002618540124999, 40.645336516140304 ], [ -112.002617998440996, 40.645335207463987 ], [ -112.002617440587002, 40.645333902877283 ], [ -112.002616862970996, 40.645332603061789 ], [ -112.002616272777004, 40.64533130597269 ], [ -112.002615661923016, 40.645330014336288 ], [ -112.002615034898994, 40.645328728152805 ], [ -112.002614390806997, 40.645327446740396 ], [ -112.002613730544994, 40.645326168736091 ], [ -112.002613054113993, 40.645324897547709 ], [ -112.002612358818013, 40.645323630448893 ], [ -112.002611649149003, 40.645322370166106 ], [ -112.002610923310002, 40.645321114654593 ], [ -112.002610179504998, 40.64531986391421 ], [ -112.002609418632005, 40.64531861862659 ], [ -112.002608642487004, 40.645317381518204 ], [ -112.002607851072, 40.64531614849939 ], [ -112.002607042588011, 40.645314921614997 ], [ -112.002605946643001, 40.645313307580402 ], [ -112.002983312723998, 40.645162371996406 ], [ -112.002983274097005, 40.644996048142495 ], [ -112.002983274097005, 40.644992937293893 ], [ -112.002846339407, 40.644992911392904 ], [ -112.002844551758997, 40.6449929100297 ], [ -112.002585738142997, 40.64499286095409 ], [ -112.002540046234003, 40.644992852774799 ], [ -112.002539220681996, 40.644992852774791 ], [ -112.002076421224004, 40.6449927628029 ], [ -112.001984885591995, 40.644992743717893 ], [ -112.001984641250004, 40.644992745081097 ], [ -112.001786753173008, 40.644992703503206 ] ] ] } },
{ "type": "Feature", "properties": { "PrecinctID": "KRN016", "VistaID": "KRN016", "CountyID": 18, "district": "2" }, "geometry": { "type": "Polygon", "coordinates": [ [ [ -111.991692952060006, 40.6527912686335 ], [ -111.992889957176004, 40.652789928071698 ], [ -111.993382574413999, 40.652792440176903 ], [ -111.993457424737997, 40.65279282183149 ], [ -111.994082192237997, 40.6527960086473 ], [ -111.996457552547, 40.652815085921596 ], [ -111.996439765006002, 40.653529034267599 ], [ -111.996484133696001, 40.65387101599449 ], [ -111.996462074665999, 40.654216519383297 ], [ -111.996467244471006, 40.654926034541504 ], [ -111.996460850261997, 40.655631149905794 ], [ -111.996452836391995, 40.655896253788796 ], [ -111.99645019534502, 40.655983630169899 ], [ -111.996437676423, 40.656397712502709 ], [ -111.994908091631999, 40.656409712845793 ], [ -111.994069461313998, 40.656387386576803 ], [ -111.993550859408998, 40.656382157508695 ], [ -111.993143318917006, 40.6563248544469 ], [ -111.993142921862002, 40.655830918891091 ], [ -111.993142864370014, 40.655758624494887 ], [ -111.993141498930996, 40.6540622508914 ], [ -111.991697178633999, 40.654046183536401 ], [ -111.991688593435001, 40.653525801143502 ], [ -111.991685529281, 40.653101354105999 ], [ -111.991692952060006, 40.6527912686335 ] ] ] } },
{ "type": "Feature", "properties": { "PrecinctID": "KRN017", "VistaID": "KRN017", "CountyID": 18, "district": "1/3" }, "geometry": { "type": "Polygon", "coordinates": [ [ [ -112.003497653919993, 40.667575651650807 ], [ -112.003498964561999, 40.66748234340379 ], [ -112.003521560785003, 40.665874902829785 ], [ -112.003513586440008, 40.663691040436696 ], [ -112.003518369969001, 40.663633933767997 ], [ -112.001150052452005, 40.663649420292408 ], [ -112.001165363338018, 40.662561455779397 ], [ -112.001182831079007, 40.66001506841949 ], [ -112.001168811970004, 40.653607412944595 ], [ -112.001193444674001, 40.652805727208005 ], [ -112.003621062676999, 40.652806812878794 ], [ -112.003690483583995, 40.652806843547509 ], [ -112.003934770544021, 40.652806953954702 ], [ -112.004141431568002, 40.652803096517793 ], [ -112.004617766840994, 40.653258431324488 ], [ -112.005903194029003, 40.65448719545121 ], [ -112.005816679979006, 40.654660239844198 ], [ -112.005858050990994, 40.654744565378103 ], [ -112.005894697762997, 40.654819267950209 ], [ -112.005926182815003, 40.655030538371186 ], [ -112.005911242036007, 40.656415915078192 ], [ -112.005909189384994, 40.657129413278298 ], [ -112.005899543276001, 40.657820490147998 ], [ -112.005926849364997, 40.658517009555396 ], [ -112.005917733261995, 40.659269896848613 ], [ -112.00590850576701, 40.660017131857003 ], [ -112.005921054333001, 40.660735944973197 ], [ -112.005910602434994, 40.6614249940015 ], [ -112.005919941320997, 40.662119338125201 ], [ -112.005906741475997, 40.6625939182384 ], [ -112.005900150537002, 40.662890714696999 ], [ -112.005910606027996, 40.663230972144191 ], [ -112.005923335155998, 40.663643902873609 ], [ -112.006228869251999, 40.663634089812099 ], [ -112.006404052411, 40.663628464046901 ], [ -112.006841332527998, 40.663614416667293 ], [ -112.007730920678995, 40.663622543228399 ], [ -112.008306413789001, 40.663612038527091 ], [ -112.008631308377019, 40.66364818216109 ], [ -112.008807130237003, 40.663695290420407 ], [ -112.009098174507997, 40.663774727654797 ], [ -112.00957246341801, 40.663938897094596 ], [ -112.009517484726004, 40.664241009373789 ], [ -112.009383105743012, 40.664530073401899 ], [ -112.009337776753995, 40.664585808315309 ], [ -112.009221590451006, 40.664728673024101 ], [ -112.009046532159005, 40.664880342511999 ], [ -112.008858255157008, 40.665028718443594 ], [ -112.008608244132006, 40.6651740693123 ], [ -112.007996988192005, 40.665359958269811 ], [ -112.007269191115, 40.665647080924302 ], [ -112.007015531133007, 40.665738645326797 ], [ -112.006634953575002, 40.66588417044759 ], [ -112.00646076036, 40.665949918643499 ], [ -112.006383342649997, 40.665990217497288 ], [ -112.006287298372996, 40.666055902900716 ], [ -112.006201824572003, 40.666117918954605 ], [ -112.006110948303004, 40.666209713020194 ], [ -112.006031893862996, 40.666301401344199 ], [ -112.005951483865005, 40.666384970132597 ], [ -112.005872593817003, 40.666489228428709 ], [ -112.005830583204997, 40.666589211551695 ], [ -112.005762719078007, 40.666731629751098 ], [ -112.005734321535002, 40.666810253886403 ], [ -112.005703543457003, 40.666888887468296 ], [ -112.005683847894005, 40.666993550398402 ], [ -112.005686475467002, 40.667250288134611 ], [ -112.005686455703994, 40.667251098293491 ], [ -112.005324587358004, 40.667259096993696 ], [ -112.004928586624018, 40.667268095274899 ], [ -112.004241587434009, 40.667262095739503 ], [ -112.003880587758999, 40.667259095630996 ], [ -112.003879587935018, 40.667355096993603 ], [ -112.003878067087001, 40.6675762546678 ], [ -112.003788241847005, 40.667576112260413 ], [ -112.003497653919993, 40.667575651650807 ] ] ] } },
{ "type": "Feature", "properties": { "PrecinctID": "KRN018", "VistaID": "KRN018", "CountyID": 18, "district": "1/3" }, "geometry": { "type": "Polygon", "coordinates": [ [ [ -112.020377325096007, 40.656869400213999 ], [ -112.020377111296, 40.656853585684303 ], [ -112.020364515119994, 40.655204880978182 ], [ -112.020365348756002, 40.655146299770394 ], [ -112.020366205748999, 40.655086024977201 ], [ -112.020375486244006, 40.654432930975091 ], [ -112.020381458244003, 40.653572895424389 ], [ -112.020364930141, 40.653041735817098 ], [ -112.021556872351994, 40.653027500151993 ], [ -112.022423094424994, 40.653023650906192 ], [ -112.023920838430016, 40.653029524958789 ], [ -112.023961767470993, 40.653029687842896 ], [ -112.024231189293005, 40.653030744886102 ], [ -112.024403191516996, 40.653041185827497 ], [ -112.024529426374002, 40.653048848877802 ], [ -112.024565491936002, 40.6530510379311 ], [ -112.024619583092004, 40.653054320829398 ], [ -112.024609639640019, 40.653342327227598 ], [ -112.024568588427996, 40.65453109209809 ], [ -112.024591590689994, 40.656725093684493 ], [ -112.024591589791001, 40.656874668769902 ], [ -112.024537530076003, 40.656874602665901 ], [ -112.024501491462999, 40.65687455836941 ], [ -112.024375343743003, 40.656874402990987 ], [ -112.020377325096007, 40.656869400213999 ] ] ] } },
{ "type": "Feature", "properties": { "PrecinctID": "KRN019", "VistaID": "KRN019", "CountyID": 18, "district": "1/3" }, "geometry": { "type": "Polygon", "coordinates": [ [ [ -112.022423094424994, 40.653023650906192 ], [ -112.022451295235996, 40.65251858539829 ], [ -112.022423481599006, 40.651814494201702 ], [ -112.022419895523996, 40.651205926744197 ], [ -112.022383775164997, 40.650603433148603 ], [ -112.022328553928006, 40.650413955598609 ], [ -112.022166443951008, 40.650177578516697 ], [ -112.022004757082001, 40.649968207898404 ], [ -112.021458534676995, 40.649352332260897 ], [ -112.020931306250006, 40.648730772118697 ], [ -112.020926387974001, 40.648725094660684 ], [ -112.020669896502, 40.648428905162 ], [ -112.020615212457002, 40.648365756930197 ], [ -112.020287112681004, 40.647986868328886 ], [ -112.019630920316004, 40.6473121832083 ], [ -112.019362041975, 40.6469944234466 ], [ -112.018929034245019, 40.646512697667497 ], [ -112.018772457891004, 40.646328496293989 ], [ -112.018651560823002, 40.646153856493193 ], [ -112.018565158163995, 40.646070190791804 ], [ -112.018406645043001, 40.645867937471287 ], [ -112.018489352033001, 40.645825025486104 ], [ -112.018601500407996, 40.645766836141085 ], [ -112.019188633886998, 40.645462198020198 ], [ -112.019989592456, 40.645059994314302 ], [ -112.020193365397006, 40.644950343056195 ], [ -112.020401948816001, 40.644847968456894 ], [ -112.020582158947008, 40.6447674596902 ], [ -112.020762601740998, 40.644726749274298 ], [ -112.021000498985003, 40.644725694825993 ], [ -112.021432782671994, 40.644744800308608 ], [ -112.022406332759999, 40.644737893571595 ], [ -112.023389139087996, 40.644734998780891 ], [ -112.023400377909994, 40.644002789921508 ], [ -112.023286431108005, 40.643983590844996 ], [ -112.023110515823006, 40.64398437402189 ], [ -112.022919177361999, 40.643985225360304 ], [ -112.022774228801012, 40.6439740686682 ], [ -112.022696644004995, 40.6439783669394 ], [ -112.022696515546002, 40.643859942171694 ], [ -112.022696438291007, 40.643790400811199 ], [ -112.022695786113999, 40.643190272299989 ], [ -112.022703502642003, 40.642843508746786 ], [ -112.022695595670996, 40.642488966660899 ], [ -112.022496037625999, 40.642103710259605 ], [ -112.022363808310999, 40.6418518292027 ], [ -112.022062756807998, 40.641302991263103 ], [ -112.021856920437003, 40.640915730790105 ], [ -112.021786482636998, 40.640761509256606 ], [ -112.021755839305996, 40.640637303159401 ], [ -112.021711237952005, 40.639207657394699 ], [ -112.021719744997995, 40.63856909050849 ], [ -112.022304585976997, 40.638566092517806 ], [ -112.022731115056999, 40.638564392429394 ], [ -112.024059587717005, 40.638559091752498 ], [ -112.024578588474, 40.638558090377195 ], [ -112.024625587431998, 40.638558090377209 ], [ -112.024645588420995, 40.638557090365111 ], [ -112.024642960848993, 40.6386947558196 ], [ -112.024641641223994, 40.638763997782696 ], [ -112.024631588177996, 40.639291090389499 ], [ -112.024615588283993, 40.640147091923403 ], [ -112.024600589114002, 40.640910091521093 ], [ -112.024600589114002, 40.6409630923145 ], [ -112.024591588893003, 40.641496091703402 ], [ -112.024586588869994, 40.641754090448096 ], [ -112.024579587401007, 40.642231092087506 ], [ -112.024581588846999, 40.642516092173295 ], [ -112.024586588869994, 40.643184092013591 ], [ -112.024588587622006, 40.643373091825403 ], [ -112.024591587995005, 40.643659093105306 ], [ -112.024593586745993, 40.644210092154317 ], [ -112.024601587142001, 40.645807092660192 ], [ -112.024601588039999, 40.645864091901991 ], [ -112.024606588062994, 40.646247093018403 ], [ -112.024609590232998, 40.646416092408209 ], [ -112.024610588261012, 40.646815092661207 ], [ -112.024611589882994, 40.647068091189603 ], [ -112.024613588633997, 40.647553091357686 ], [ -112.024626589053, 40.647872092336208 ], [ -112.024632588003001, 40.648014091798409 ], [ -112.024649590416018, 40.648414091222399 ], [ -112.024649508669, 40.648420916471984 ], [ -112.024644588596004, 40.648834092910391 ], [ -112.024643587873001, 40.648888092039883 ], [ -112.024630590149002, 40.650093093179798 ], [ -112.024628589600994, 40.650246092938588 ], [ -112.024628240157, 40.6502927540228 ], [ -112.024626589950998, 40.650514092993497 ], [ -112.024624590301997, 40.650661092803105 ], [ -112.024619590279002, 40.6511020916519 ], [ -112.024618588657006, 40.651250091351002 ], [ -112.024616589006996, 40.651358093153206 ], [ -112.024612590605997, 40.651682094103109 ], [ -112.024612588809006, 40.651791092975188 ], [ -112.024613589533004, 40.651961093130311 ], [ -112.024615588283993, 40.652306092534694 ], [ -112.024616589006996, 40.652471092360202 ], [ -112.024616588108998, 40.652540091719999 ], [ -112.024617587934003, 40.6526420933099 ], [ -112.024617589730994, 40.652724092617497 ], [ -112.024618589555004, 40.652971093139399 ], [ -112.024619573210998, 40.653052752644001 ], [ -112.024619589379995, 40.653054093882091 ], [ -112.024619583092004, 40.653054320829398 ], [ -112.024565491936002, 40.6530510379311 ], [ -112.024529426374002, 40.653048848877802 ], [ -112.024403191516996, 40.653041185827497 ], [ -112.024231189293005, 40.653030744886102 ], [ -112.023961767470993, 40.653029687842896 ], [ -112.023920838430016, 40.653029524958789 ], [ -112.022423094424994, 40.653023650906192 ] ] ] } },
{ "type": "Feature", "properties": { "PrecinctID": "KRN901", "VistaID": "KRN901", "CountyID": 18, "district": "1/3" }, "geometry": { "type": "Polygon", "coordinates": [ [ [ -112.024615588283993, 40.652306092534694 ], [ -112.024669648000014, 40.652306279274306 ], [ -112.024705689307012, 40.652306404675997 ], [ -112.024831828942993, 40.652306839492816 ], [ -112.024905278793995, 40.652307093703797 ], [ -112.025730522417007, 40.652309954771106 ], [ -112.025713599954003, 40.653044596171206 ], [ -112.025713589174003, 40.653045095046494 ], [ -112.02549458979, 40.653046093478402 ], [ -112.024921751201006, 40.653050452502498 ], [ -112.024835797700007, 40.653051106083403 ], [ -112.024709667047006, 40.653052067031389 ], [ -112.024673629332995, 40.6530523410039 ], [ -112.024619573210998, 40.653052752644001 ], [ -112.024618589555004, 40.652971093139399 ], [ -112.024617589730994, 40.652724092617497 ], [ -112.024617587934003, 40.6526420933099 ], [ -112.024616588108998, 40.652540091719999 ], [ -112.024616589006996, 40.652471092360202 ], [ -112.024615588283993, 40.652306092534694 ] ] ] } }
]
}
