{"type":"FeatureCollection","features":[{"type":"Feature","id":1,"geometry":{"type":"Polygon","coordinates":[[[-111.92184970984771,40.522386007562552],[-111.92193687517967,40.522607372995168],[-111.92192859641672,40.522739658498573],[-111.92189971042239,40.522990006957386],[-111.92185040047841,40.523070399518396],[-111.9217418002346,40.523199752605741],[-111.92171257518183,40.523321255201687],[-111.92175157234726,40.52341469628211],[-111.92176312597944,40.52344238069454],[-111.92186819473962,40.523498295682884],[-111.92191261501858,40.523482720663495],[-111.92208672724524,40.52341700027813],[-111.92252073124467,40.523203996998753],[-111.92257971332413,40.52317531720297],[-111.92284770941413,40.523045004759133],[-111.92322203745351,40.522875438992756],[-111.92329753621259,40.522841239005821],[-111.92331570890801,40.522833006963005],[-111.92349350770628,40.522766217473695],[-111.92370170882424,40.522688007495269],[-111.92414171093048,40.522553006746854],[-111.92422091803101,40.52253589375492],[-111.92430354158014,40.522518400006476],[-111.92454555433197,40.522468852987998],[-111.92483671105323,40.522421007750914],[-111.92532566082875,40.522369670436781],[-111.92923571146115,40.522359006195835],[-111.93588471332977,40.522301006233029],[-111.93876871397656,40.522299005418191],[-111.94122571363042,40.522321005800706],[-111.94369371391379,40.522329005448206],[-111.94943671556085,40.52229100521312],[-111.95434271682144,40.52228400420384],[-111.95773265262945,40.522303003888261],[-111.9577325432268,40.522077276577484],[-111.95773128819,40.521599236412456],[-111.95772500683546,40.521244524593861],[-111.95772313783789,40.520616668456796],[-111.95772185211595,40.520133862289072],[-111.95771943456154,40.519657017772836],[-111.95771880119656,40.519418435633867],[-111.95771841137022,40.519271606077659],[-111.95771816638894,40.519144440962449],[-111.95771793828295,40.519026479679731],[-111.95771617958091,40.518356625927169],[-111.95771527952613,40.518222575705067],[-111.95771439892779,40.518091250549432],[-111.9577147021506,40.517729065659402],[-111.95771479057699,40.517451173886194],[-111.95771426278796,40.517317907468282],[-111.95771366447903,40.517166732417266],[-111.9577113503488,40.516472457566856],[-111.95770854444137,40.515530076765891],[-111.95770721213911,40.514982040896946],[-111.95771171590718,40.514636003669274],[-111.95768471498184,40.507811002751104],[-111.95768750500143,40.507757615283339],[-111.95769699191085,40.507597382768267],[-111.957705446671,40.506856252885662],[-111.95770694884263,40.506055886240091],[-111.95771182715121,40.504624175269647],[-111.95771391887868,40.50347197758331],[-111.95772050895366,40.501475039620367],[-111.95771163945633,40.501196283244703],[-111.95769797638043,40.500963421309571],[-111.95769724941275,40.500482574433434],[-111.95772917569214,40.50033153523534],[-111.95772870528113,40.500261365357531],[-111.95348970169049,40.500250519385396],[-111.95340727799436,40.500250307021282],[-111.95117488008349,40.500244532137387],[-111.95085903329451,40.500246890753445],[-111.95054338374796,40.500255722056508],[-111.95022815781938,40.50027101887374],[-111.94991358422676,40.500292771324098],[-111.94959988811389,40.500320964139036],[-111.9492872969378,40.500355574838927],[-111.94827944070312,40.500477592588204],[-111.94828179270347,40.49991402082555],[-111.94754171510017,40.499903970725725],[-111.94755245939031,40.499301261666716],[-111.94677891138484,40.499299895566622],[-111.94680571223272,40.497764002836206],[-111.94470171080646,40.497759003023312],[-111.94470666727028,40.500493115448791],[-111.94470697456069,40.500793520075213],[-111.9442292990058,40.500812120730863],[-111.94375130189007,40.500825029870278],[-111.94327309894098,40.500832246151603],[-111.9427948058802,40.500833767334377],[-111.94231654079499,40.500829592071604],[-111.94183841943057,40.50081972172876],[-111.94136055754359,40.500804159474285],[-111.94088307207033,40.500782908474008],[-111.93748753866512,40.500611450332578],[-111.93719304903452,40.500592920410263],[-111.93689945300238,40.500567440219505],[-111.93660703158827,40.500535033035803],[-111.93631606351411,40.500495732052286],[-111.93591893104036,40.500422107892781],[-111.93583417629428,40.500406219893193],[-111.93571941274638,40.50038358188759],[-111.93556088176142,40.500350430965049],[-111.93547010743308,40.500330371063896],[-111.93534406839227,40.500301864970716],[-111.93527653287312,40.500284196978306],[-111.93519050114001,40.500263738295644],[-111.93511496210334,40.500244194302702],[-111.93500565781683,40.500216006645999],[-111.93492860727699,40.500194370686657],[-111.93486056202819,40.500174989636619],[-111.93476750192828,40.500148838025794],[-111.93465516750068,40.500115514453647],[-111.93455658326609,40.500084617282106],[-111.93443922739502,40.500046928087869],[-111.93436015203524,40.500020724300327],[-111.93425355237567,40.499985854396293],[-111.93419323432722,40.499964346861873],[-111.93409011701294,40.499927366446592],[-111.93404080759571,40.49990924926977],[-111.93385982971215,40.49984072324024],[-111.93360455483523,40.499738286668425],[-111.93345181603034,40.499673086722218],[-111.93339922950442,40.499649929126726],[-111.93326336497348,40.499587525867781],[-111.93306362810155,40.499494382085686],[-111.93289140545716,40.499408285140383],[-111.9327504817149,40.499335415386369],[-111.93255616022905,40.499229630861272],[-111.93229048334895,40.499074299838874],[-111.93215543129736,40.498994163409115],[-111.93162739694384,40.498713841761209],[-111.93155761700423,40.4988069237274],[-111.93139852951833,40.499035450813267],[-111.93141899226778,40.499147528702998],[-111.9314189150241,40.499280939581041],[-111.93142754559591,40.499430621645821],[-111.93145058428942,40.499591118884148],[-111.93141397488196,40.499843791574953],[-111.93137991878841,40.500060521571079],[-111.9313407455835,40.500207172610395],[-111.93128721431322,40.500269730523172],[-111.93125993587137,40.500375788999165],[-111.93120140408335,40.500501406966762],[-111.9309577093873,40.50049400376858],[-111.93042869337863,40.500506662549263],[-111.92955484910821,40.500512847606359],[-111.9292426363338,40.500506137801914],[-111.92530947197814,40.500542803286017],[-111.92531128232454,40.500833429965994],[-111.91981158922306,40.499778981776814],[-111.91956471788846,40.500216028889966],[-111.91934683055356,40.500602446311596],[-111.91933627929734,40.500621159445352],[-111.91769564980558,40.500201178359482],[-111.91766983065509,40.500194569166268],[-111.91760434532415,40.500515768257223],[-111.91758570615457,40.500617005177041],[-111.91757981619324,40.500824658956326],[-111.91757680414422,40.500850681200227],[-111.91755098439928,40.501073773513454],[-111.91737608257094,40.501449460174967],[-111.91733520689688,40.501537261193008],[-111.91729481259441,40.501611377941288],[-111.91725657192839,40.501681544257508],[-111.91714839338594,40.501856462159353],[-111.91657314828585,40.502032951330932],[-111.91631464330561,40.502011175425672],[-111.91618374898846,40.501730929143093],[-111.91608383009887,40.501701490059041],[-111.91595481535498,40.501663477978298],[-111.91568663290325,40.501679649530203],[-111.91535702376879,40.501878448323929],[-111.91507342629501,40.502152107023605],[-111.91513888003803,40.502480693611261],[-111.9151655270071,40.502591714721412],[-111.91524434497433,40.502682830020319],[-111.91530081762686,40.502748112941291],[-111.91527181464949,40.50312226941783],[-111.91526810389098,40.503170134044559],[-111.91530964862102,40.503687475054299],[-111.91541231089116,40.503963775888515],[-111.91542846679948,40.503992200380736],[-111.9155730715663,40.504246618624613],[-111.91575311238782,40.504440415339865],[-111.91601241217802,40.504591152824482],[-111.91626586383335,40.504686790469975],[-111.91641081243398,40.504741485555677],[-111.91648173117392,40.50484348183101],[-111.91654042836979,40.504927900746516],[-111.91662125300552,40.505044143123946],[-111.9166825248776,40.505301761448031],[-111.91659065543594,40.50550998257431],[-111.91644133717118,40.50574096102148],[-111.91629841824609,40.506025482128251],[-111.91631138840732,40.506372609679033],[-111.91613081744931,40.506791147179449],[-111.91586862143353,40.507094735849371],[-111.91564098830025,40.50727015868339],[-111.91554490186311,40.507344206502353],[-111.91548693714999,40.507388039719906],[-111.91543292210703,40.5074288860922],[-111.91526773333439,40.507545401410908],[-111.91507853848829,40.507678850467521],[-111.91504159091016,40.507705495297017],[-111.91495960529384,40.507764619605609],[-111.91490591237761,40.50780595810383],[-111.91488189969111,40.507824445563188],[-111.91482982264554,40.507864540908166],[-111.91479071562357,40.507914867733028],[-111.91477700637567,40.50793250997836],[-111.91476034804677,40.507953946894759],[-111.91473672268651,40.507984350319596],[-111.91471157885999,40.508016707066375],[-111.91467078275005,40.508059570419839],[-111.91465458716442,40.508076587440023],[-111.91449433198218,40.508244962044401],[-111.91443288299375,40.508345193214822],[-111.91431721409938,40.508533863819437],[-111.91424244992295,40.50862425269348],[-111.91420896118463,40.508664741332147],[-111.9141896405152,40.508688100400754],[-111.91413896629739,40.508749365780801],[-111.91407439322836,40.508827434623235],[-111.91404726567602,40.508860231402913],[-111.91398195447098,40.508939192570594],[-111.91396514611051,40.508959513176023],[-111.913914069724,40.509021263482644],[-111.91388300990792,40.50905881475849],[-111.9138639006803,40.509147062440611],[-111.91382417159802,40.50933053270095],[-111.91381101691047,40.509391282675175],[-111.91380576466153,40.509415536700537],[-111.91378672425573,40.509544566827678],[-111.91385677148864,40.50963536798907],[-111.91395402648463,40.509676147613],[-111.91403610233959,40.509710563262317],[-111.91411050765979,40.509755873244373],[-111.91425601560044,40.509844481140078],[-111.91438929917571,40.509856953925542],[-111.91467303015149,40.509867623572802],[-111.91524106437078,40.510123447873106],[-111.91528188799271,40.510297745303447],[-111.91516633939216,40.510517220467136],[-111.9150783418621,40.51068436436082],[-111.91503697777497,40.510867508411373],[-111.91504822557685,40.510945636982683],[-111.9150651318274,40.511063070165562],[-111.91506897681784,40.511089781210572],[-111.91508370252974,40.511192064473718],[-111.91509919212514,40.511299655735691],[-111.91510355013136,40.511375996730138],[-111.91511770721971,40.511624006355333],[-111.91512416917938,40.511756629624244],[-111.91512014732493,40.511820761432006],[-111.91511771525121,40.511859538133962],[-111.91511088916876,40.511968388170501],[-111.91510868087933,40.512003606794025],[-111.91509423095019,40.512130483681076],[-111.91508512749459,40.512210420609655],[-111.91507721140475,40.512279935443587],[-111.91506260902945,40.512408152012299],[-111.91503764729586,40.512627325801063],[-111.91494037100418,40.512968989247099],[-111.91489750413577,40.513071545707881],[-111.91482290172007,40.513250025111347],[-111.91483888391558,40.513463522502356],[-111.91484082180418,40.513489407247128],[-111.91484447668314,40.513538223623492],[-111.91493493159025,40.513704780405305],[-111.9148747131528,40.51393654736588],[-111.91485117426275,40.514027141420542],[-111.91479152279894,40.514238123679],[-111.91474832297007,40.514390922613451],[-111.91473167018364,40.514468109680287],[-111.91471327399088,40.514553370282037],[-111.91469377025724,40.514699709236261],[-111.91467946455597,40.514807037500802],[-111.91465775200768,40.514969937756319],[-111.91465438208439,40.514995219870862],[-111.91454554681789,40.515197335937366],[-111.91452813274157,40.515229675110909],[-111.91435975188733,40.5155423717774],[-111.91423127965604,40.515664223682279],[-111.91417544946478,40.515730731366695],[-111.9140141909008,40.515922825890172],[-111.91395508107995,40.516021647830598],[-111.91394491912401,40.516036114563164],[-111.9139128339651,40.516081795259787],[-111.91387500611086,40.516136905450928],[-111.91383366932472,40.51622850136954],[-111.91382113004741,40.516256285204697],[-111.91380691516828,40.516306073337446],[-111.91376881040001,40.516439542726751],[-111.91383628179152,40.516565412222199],[-111.91384744974037,40.516677738607733],[-111.91384600340334,40.51672198543092],[-111.91385667595226,40.516745392449231],[-111.91403135872984,40.517121219980432],[-111.9142324601499,40.517492209598196],[-111.91447912024834,40.517668154859827],[-111.91472081236502,40.517733187817498],[-111.91483982173395,40.517752191162515],[-111.91488254454617,40.517759013095301],[-111.91499969047494,40.517777785122384],[-111.9152493112248,40.517888813755839],[-111.91526967718949,40.51791451067956],[-111.91532867984401,40.517988960259146],[-111.91535982595566,40.518147154030991],[-111.91538013083921,40.518221939743867],[-111.91538309121425,40.51823971472605],[-111.91539268766975,40.518297339187441],[-111.91539599958993,40.51831722747508],[-111.91541075257739,40.518405816169306],[-111.91551458216993,40.518510375105002],[-111.91560528851193,40.518664933621132],[-111.91559464998542,40.518753476331263],[-111.9155776500303,40.51880447677835],[-111.91547301794176,40.519173447960078],[-111.91546129890835,40.519248727190615],[-111.91545681492737,40.519279025840028],[-111.91543701964927,40.519444897370462],[-111.91551506019053,40.519557028758598],[-111.91575498143986,40.519707670042784],[-111.91579329667388,40.519731719075864],[-111.91583133230989,40.519755583569754],[-111.91597385245821,40.519845003892677],[-111.91606865006463,40.519908476775598],[-111.91638665024716,40.520026476478726],[-111.91701200194801,40.520205423710451],[-111.91721061204156,40.520166802672328],[-111.91737423183334,40.52010632826228],[-111.91743868096894,40.52008250726432],[-111.91758590923044,40.520094427853557],[-111.91779666281046,40.520111491059467],[-111.9180387171312,40.520073991658471],[-111.91841261636529,40.520063904771298],[-111.91860161494894,40.519993013840292],[-111.91870569322973,40.519968780426282],[-111.91876497778352,40.519954976235439],[-111.91879716113078,40.519944763989471],[-111.91897809556862,40.519887353157017],[-111.91914712188044,40.519787545906041],[-111.91929508518827,40.519700174160306],[-111.91935776588637,40.519663161390781],[-111.91944348670246,40.519612543991208],[-111.91955563407282,40.51949739484013],[-111.91957146997837,40.519481134993129],[-111.9196806031327,40.519369080076878],[-111.9197129050081,40.519308736601332],[-111.91974327131854,40.519252010455496],[-111.91975372941172,40.519232473734093],[-111.91979855424678,40.519148737051829],[-111.92005804423121,40.519224918229384],[-111.92020677288042,40.519268581749465],[-111.92026661216742,40.519327581854284],[-111.9204367510139,40.519495332489711],[-111.92053726330317,40.519658499326454],[-111.92056727571176,40.519707219948963],[-111.92059799489347,40.519866421547142],[-111.92056541835525,40.520006980508718],[-111.92053108505726,40.520118128456829],[-111.92050979588879,40.520187045733657],[-111.92044198351624,40.520344826680173],[-111.92036965085495,40.52063747684582],[-111.92022265075546,40.520861476339967],[-111.9201686765316,40.520910994348974],[-111.92014791700753,40.520929743995836],[-111.92004962100312,40.521018524695393],[-111.9200078588817,40.521056243651863],[-111.91991929136711,40.52112565132402],[-111.91969249631244,40.521303383430279],[-111.91941504461137,40.521455943374136],[-111.91936571754376,40.521561118815399],[-111.91934917304548,40.521596396795495],[-111.9193366496297,40.521623100421479],[-111.91936719359187,40.521674590482093],[-111.91950729287244,40.521910763813942],[-111.91973508535253,40.522082894680146],[-111.91976694700666,40.522106970015663],[-111.91987172119649,40.522181787326602],[-111.92012634174213,40.522363606958358],[-111.9204654698985,40.522529177329609],[-111.92082288823595,40.522558256592163],[-111.92098801190691,40.522557700547289],[-111.92117124557497,40.52255708279845],[-111.92124456423161,40.52235080383538],[-111.92159037173373,40.522222813604259],[-111.92175581455449,40.522259141972384],[-111.92184970984771,40.522386007562552]]]},"properties":{"OBJECTID_1":1,"OBJECTID":355,"DIST_NAME":"D5","LABEL":"Council District #5","GlobalID":"{5C5C848E-9C9D-417A-9379-F965CF740D3C}","NAME":"Spencer Haymond","PHONE_NUM":"801-381-5757","EMAIL":"shaymond@rivertonutah.gov","PIC_LINK":"https://www.rivertonutah.gov/departments/recorder/elections/spencer-haymond-2023.JPG","WEBSITE":"http://cms8.revize.com/revize/rivertonut/government/city-council/district5.php","Shape__Area":94085538.45060347,"Shape__Length":45108.967841408157}},{"type":"Feature","id":4,"geometry":{"type":"Polygon","coordinates":[[[-112.00486645377651,40.519111568834127],[-112.00476469442667,40.520575297456844],[-112.00472229940539,40.521613189062883],[-112.00473555363477,40.522445961568181],[-112.00539246360273,40.522452502303352],[-112.00552486179085,40.522451940346215],[-112.00924200630224,40.522446630069958],[-112.00954845779405,40.522379546012168],[-112.00989134729228,40.522301805484162],[-112.01021543070041,40.52221461498015],[-112.01044625118969,40.522150684682366],[-112.01069798665796,40.522073489119727],[-112.01069837901613,40.52202025144863],[-112.01070892299595,40.515974318549532],[-112.0092953069489,40.515997699147121],[-112.00908752272504,40.515990589440626],[-112.00908250759491,40.513846918176824],[-112.00904806947969,40.511723982819149],[-112.0054046252815,40.511718362803208],[-112.0053937244793,40.507975999142758],[-112.01018862761175,40.507980538558591],[-112.02434383062997,40.507972428786246],[-112.02434856474054,40.507835448400648],[-112.02431652575176,40.503707807315664],[-112.01844991597306,40.503685063515803],[-112.0185135486327,40.503432204396923],[-112.01865640390798,40.502924034919417],[-112.01884787783516,40.502241704244],[-112.01890570024152,40.502046057759813],[-112.01903949284545,40.501578435165037],[-112.01930296340622,40.501334220910799],[-112.01943615000572,40.501197810293768],[-112.01969172651633,40.500970997038877],[-112.01972072741282,40.500828997079765],[-112.01979672685009,40.500446997297196],[-112.01484472605078,40.500469997586954],[-112.01484472582786,40.500397997440359],[-112.01488072567045,40.496755997043806],[-112.01965172625552,40.496774997071249],[-112.019632726308,40.493142996356511],[-112.01647872471113,40.493175997691907],[-112.01123272436845,40.493169997071199],[-112.0052926409922,40.493179548221406],[-112.00531672286449,40.495953997723738],[-112.00536672391546,40.50054499835111],[-111.99177745148033,40.500511425345628],[-111.99170709291012,40.500511423434752],[-111.99186933900759,40.500695267994239],[-111.99193407852425,40.500799243518401],[-111.99197910298918,40.500874708186814],[-111.9920108099558,40.500943080809087],[-111.99202921771929,40.501006743368855],[-111.99203974430513,40.501059716646679],[-111.99204647566781,40.501127598845976],[-111.99205014673812,40.501203833317994],[-111.9920499078364,40.501278892732543],[-111.99204601104819,40.501387922285318],[-111.9920458095965,40.501468342723349],[-111.99204184099116,40.501567245485212],[-111.99203946634165,40.501670907448315],[-111.99203978860659,40.501824001125115],[-111.99203942979625,40.501990799159479],[-111.99204163601807,40.50218856204507],[-111.9920385462256,40.502409580453957],[-111.99203670385569,40.502587107048718],[-111.99203974112504,40.502683597400839],[-111.99204496762908,40.502759230010241],[-111.992050804605,40.502811031471978],[-111.99206859504145,40.502897332781927],[-111.9920878819611,40.502974693097386],[-111.9921054191785,40.503025850128552],[-111.9921283929831,40.503073409000322],[-111.9921489746396,40.503113830871406],[-111.99218059381651,40.503169693737441],[-111.99221463214612,40.503220224875186],[-111.9922506287139,40.503277260806342],[-111.99231255621004,40.503380414805036],[-111.99239158679842,40.503517808283384],[-111.99247703522708,40.503679479713504],[-111.99255288446555,40.503830111529155],[-111.99263348895376,40.503969166992881],[-111.99274733373504,40.504172417689006],[-111.99277665081897,40.504240859517083],[-111.99279716477824,40.504315116510092],[-111.99281954735196,40.504475146323664],[-111.99283179622708,40.504615204154],[-111.99285697246137,40.504816205992604],[-111.99287022104949,40.504962999570544],[-111.99289321045816,40.505165848666763],[-111.9929207596967,40.505349685239239],[-111.9929332429007,40.505522147751897],[-111.99294676107802,40.505665058631287],[-111.99294553650252,40.505841390959887],[-111.99293900119612,40.505973902481998],[-111.99293467451892,40.506066372843918],[-111.99291480278308,40.506254221903134],[-111.99289697448246,40.506379155660355],[-111.99287809739417,40.506531733640927],[-111.99284950580598,40.506722477784315],[-111.99283322825515,40.506889342471801],[-111.99281811062978,40.507043811136455],[-111.99280885708399,40.507145833953452],[-111.99279354672004,40.507273616414906],[-111.99278073972556,40.507402341158084],[-111.99276812530658,40.507557752976716],[-111.99276518416382,40.507669280100487],[-111.99282355183254,40.508013825722713],[-111.9928442321059,40.508110956724657],[-111.99289941251305,40.508316598887852],[-111.99294836199634,40.508524172855736],[-111.99303168154445,40.508822148618833],[-111.99309695514033,40.509042044028483],[-111.99314082990102,40.50923820271364],[-111.99322780776096,40.509523771748697],[-111.99326630882018,40.509667530944142],[-111.9933151433041,40.509858901859701],[-111.99340577240476,40.510131112297998],[-111.99348564042143,40.510296619195515],[-111.99356779304971,40.510432569192744],[-111.99367748650222,40.510577933973991],[-111.99375832258387,40.510704358507489],[-111.99379514158365,40.510788077320939],[-111.99382832597421,40.510887061900362],[-111.99384882357035,40.510958459255299],[-111.99386573241244,40.511051793706294],[-111.99387763985534,40.511144196413433],[-111.99387690174623,40.511214729533485],[-111.99387376230412,40.511298617600751],[-111.99387545883431,40.511360563310319],[-111.99387917249715,40.511527953298376],[-111.99408228676721,40.511528748792877],[-111.99423040787383,40.511529819102208],[-111.99440921945474,40.51153039231118],[-111.99458247322669,40.511535003499247],[-111.99494894191696,40.511544691059107],[-111.99520430060464,40.511549665089511],[-111.99570967993277,40.511551316282883],[-111.99638133953823,40.511553167085069],[-111.99662181512213,40.511554337568349],[-111.99675483636759,40.511553929580714],[-111.9968991079532,40.511551183558623],[-111.99706349304219,40.511547959394505],[-111.99727007146039,40.511543364497868],[-111.99794610684117,40.511542046532163],[-111.99864684979615,40.511547752150761],[-111.99893966333751,40.511546495943172],[-111.99953575927691,40.511547738968268],[-112.00009151404905,40.511549970649291],[-112.00052584124575,40.511550920821861],[-112.00108415982305,40.511552947723075],[-112.00155563969385,40.511554949199692],[-112.00253067232221,40.511565910027265],[-112.00296424258434,40.511567554161985],[-112.00348884358148,40.511567561921993],[-112.00377608311709,40.511564387628951],[-112.00380678598434,40.51191572336397],[-112.00381797362844,40.5120612429576],[-112.00383510607591,40.512206182927088],[-112.00385815463207,40.512350300516466],[-112.00388708069353,40.512493354347171],[-112.00392183581285,40.512635104822273],[-112.00396236177961,40.512775314527815],[-112.004008590718,40.512913748630432],[-112.00406044520044,40.513050175270649],[-112.0047790786988,40.515243834803172],[-112.00481520837771,40.515383227634587],[-112.00484477410464,40.515524158762929],[-112.00486771107276,40.515666319273059],[-112.00488396900521,40.515809397555053],[-112.00486645377651,40.519111568834127]]]},"properties":{"OBJECTID_1":4,"OBJECTID":332,"DIST_NAME":"D1","LABEL":"Council District #1","GlobalID":"{8B18F453-3ABC-4172-BCEB-F8892F7AF49B}","NAME":"Andy Pierucci","PHONE_NUM":"801-999-0195","EMAIL":"apierucci@rivertonutah.gov","PIC_LINK":"https://www.rivertonutah.gov/assets/staff-photos/andy-pierucci-new.jpg","WEBSITE":"http://cms8.revize.com/revize/rivertonut/government/city-council/district1.php","Shape__Area":41448673.825620152,"Shape__Length":44729.898458110401}},{"type":"Feature","id":5,"geometry":{"type":"Polygon","coordinates":[[[-111.95774694193247,40.530504915110946],[-111.95774500814689,40.530673599224968],[-111.9577457328279,40.530781644526201],[-111.95774656950486,40.530906211309635],[-111.95774791984222,40.531922459061732],[-111.95774873223456,40.532043578490821],[-111.95774947106439,40.53215373012042],[-111.95774969652648,40.532420153002477],[-111.95775009819552,40.532549721387483],[-111.95775053637468,40.532690891705684],[-111.95775112923488,40.533157614918139],[-111.95775165460741,40.533497783527785],[-111.95775314574442,40.534010966327607],[-111.95775155511456,40.534156210572974],[-111.95775276484704,40.534303303557607],[-111.95775259461587,40.534539943133368],[-111.95775532448916,40.534976128269477],[-111.9577557346455,40.535147078685164],[-111.95775717101729,40.53574605345964],[-111.95775785078098,40.536313000414026],[-111.95775975673294,40.536713446581885],[-111.95775773277849,40.536876100415434],[-111.96702759576455,40.536886067413128],[-111.98407959435566,40.536906178916709],[-111.98439985358456,40.536906619398223],[-111.9862866427106,40.536909198109612],[-111.99313281517063,40.536920162534095],[-111.99845787450123,40.536929899971724],[-111.99995584970733,40.536933023247265],[-111.99993472699138,40.529627001603949],[-111.99909272630215,40.5296470017121],[-111.99901597919431,40.522910610046864],[-111.9985806911278,40.522478456486553],[-111.99857750743139,40.522384472119924],[-111.99735972525055,40.522342001731921],[-111.99324372496589,40.522312001344041],[-111.98406850434577,40.522259001935232],[-111.97671572059292,40.522257002823828],[-111.96721471942857,40.522273003761185],[-111.95773271754118,40.52230300453531],[-111.95434271682144,40.52228400420384],[-111.9495527161442,40.522290004696124],[-111.94943571542993,40.522294505084894],[-111.94942071506746,40.522446005292743],[-111.94937071571732,40.52268200474424],[-111.9492363655099,40.523099513451072],[-111.94919519852402,40.523296964885816],[-111.94917507712482,40.523465742360465],[-111.94915042935951,40.523706021262747],[-111.94912359664946,40.523993963367793],[-111.94909558411067,40.524292394454413],[-111.94906726406197,40.524544124638595],[-111.94907233416363,40.52474521179856],[-111.94908454706908,40.524892897181893],[-111.94909508498431,40.524975777274918],[-111.94913094069517,40.525110028229953],[-111.94917418390796,40.525228048610437],[-111.94926691735812,40.525464064464778],[-111.94934468102157,40.52570299694041],[-111.94939564612538,40.525855299519364],[-111.9494611092382,40.526122872296476],[-111.94950773087866,40.526374315026594],[-111.94953637022229,40.526550530528766],[-111.9495748955768,40.526710504956426],[-111.94962975343732,40.526884713335988],[-111.94967524591341,40.526964600806735],[-111.94976962026411,40.527070033722815],[-111.94991568943206,40.527248657769661],[-111.95014010527034,40.527564228327996],[-111.95024598033554,40.527708694399834],[-111.95031416439029,40.527819946097807],[-111.95048574008635,40.528077579648844],[-111.95068608229843,40.528340820975885],[-111.95089788167866,40.528636424127022],[-111.95118130922229,40.528996561900932],[-111.95134641849342,40.529219907123057],[-111.95143385888208,40.529409238472276],[-111.95157081466098,40.529719425126096],[-111.95179409791467,40.530238962153042],[-111.95196369794967,40.530573802620864],[-111.95213038432185,40.530845748995169],[-111.95228154383811,40.531087902813205],[-111.95251780469758,40.531087813242635],[-111.952677989599,40.53081324576118],[-111.95346917626222,40.530812924641317],[-111.95359520254321,40.530812293861317],[-111.95361772368933,40.530775565081314],[-111.95369832083468,40.530636798998515],[-111.9537363841867,40.530544389714585],[-111.9537564653391,40.530464848974773],[-111.95376006963934,40.530246995268399],[-111.95755280614527,40.530243961781409],[-111.95774596613559,40.530243112204268],[-111.95774694193247,40.530504915110946]]]},"properties":{"OBJECTID_1":5,"OBJECTID":331,"DIST_NAME":"D2","LABEL":"Council District #2","GlobalID":"{9C3882DB-46CE-47DE-85F3-1CD7B575ED7E}","NAME":"Troy McDougal","PHONE_NUM":"801-931-9933","EMAIL":"tmcdougal@rivertonutah.gov","PIC_LINK":"https://www.rivertonutah.gov/assets/staff-photos/troy-mcdougal-new.jpg","WEBSITE":"http://cms8.revize.com/revize/rivertonut/government/city-council/district2.php","Shape__Area":68197829.227711976,"Shape__Length":38546.030193117447}},{"type":"Feature","id":2,"geometry":{"type":"Polygon","coordinates":[[[-111.99170709291012,40.500511423434752],[-111.97675371872252,40.50051000030362],[-111.97664468915733,40.500509868409303],[-111.97664537242647,40.500525950079059],[-111.97664714212836,40.502333031937653],[-111.97639610872466,40.502209951756946],[-111.9761425756343,40.502092106635104],[-111.97588665201492,40.501979547309858],[-111.97562844805343,40.501872322243187],[-111.97536807491851,40.501770477600417],[-111.97510564471276,40.501674057230346],[-111.97484127042448,40.501583102646379],[-111.97457506587894,40.501497653008649],[-111.97430714568945,40.501417745107155],[-111.97399487560574,40.501331451944083],[-111.97368078226327,40.501252051141925],[-111.97336501776908,40.501179581152392],[-111.97304773503954,40.501114077070774],[-111.97272908772626,40.501055570618945],[-111.97240923014165,40.501004090130039],[-111.97175973048857,40.500920790299041],[-111.97110515540621,40.500865286712632],[-111.97044754275808,40.500837753020221],[-111.97011823746796,40.500834504270074],[-111.96484344465745,40.500838449008171],[-111.96453072387524,40.500835564158187],[-111.96421812650595,40.500826317824185],[-111.96390578194389,40.500810713833523],[-111.9635938194787,40.500788758645207],[-111.96328236824191,40.500760461347205],[-111.96297255698599,40.500725889479561],[-111.96130490732712,40.50049026471882],[-111.96078761633783,40.500417170736071],[-111.9604861028842,40.500377186782401],[-111.96018333007275,40.500343193183326],[-111.95987950442276,40.500315210732438],[-111.95957482891319,40.500293260239332],[-111.95926951001259,40.500277355297257],[-111.95896375299077,40.500267506804448],[-111.95865776427252,40.500263722054584],[-111.95772870528113,40.500261365357531],[-111.95772917569214,40.50033153523534],[-111.95769724941275,40.500482574433434],[-111.95769797638043,40.500963421309571],[-111.95771163945633,40.501196283244703],[-111.95772050895366,40.501475039620367],[-111.95771391887868,40.50347197758331],[-111.95771182715121,40.504624175269647],[-111.95770694884263,40.506055886240091],[-111.957705446671,40.506856252885662],[-111.95769699191085,40.507597382768267],[-111.95768750500143,40.507757615283339],[-111.95768471498184,40.507811002751104],[-111.95771171590718,40.514636003669274],[-111.95770721213911,40.514982040896946],[-111.95770854444137,40.515530076765891],[-111.9577113503488,40.516472457566856],[-111.95771366447903,40.517166732417266],[-111.95771426278796,40.517317907468282],[-111.95771479057699,40.517451173886194],[-111.9577147021506,40.517729065659402],[-111.95771439892779,40.518091250549432],[-111.95771527952613,40.518222575705067],[-111.95771617958091,40.518356625927169],[-111.95771793828295,40.519026479679731],[-111.95771816638894,40.519144440962449],[-111.95771841137022,40.519271606077659],[-111.95771880119656,40.519418435633867],[-111.95771943456154,40.519657017772836],[-111.95772185211595,40.520133862289072],[-111.95772313783789,40.520616668456796],[-111.95772500683546,40.521244524593861],[-111.95773128819,40.521599236412456],[-111.9577325432268,40.522077276577484],[-111.95773270928045,40.522303004567583],[-111.96721471942857,40.522273003761185],[-111.97671572059292,40.522257002823828],[-111.98406846544076,40.522259007499393],[-111.99324372496589,40.522312001344041],[-111.99735972525055,40.522342001731921],[-111.99857750743139,40.522384472119924],[-112.00473555363477,40.522445961568181],[-112.00472229940539,40.521613189062883],[-112.00476469442667,40.520575297456844],[-112.00486645377651,40.519111568834127],[-112.00488396900521,40.515809397555053],[-112.00486771107276,40.515666319273059],[-112.00484477410464,40.515524158762929],[-112.00481520837771,40.51538322763458],[-112.0047790786988,40.515243834803172],[-112.00406044520044,40.513050175270649],[-112.004008590718,40.512913748630432],[-112.00396236177961,40.512775314527815],[-112.00392183581285,40.512635104822273],[-112.00388708069353,40.512493354347171],[-112.00385815463207,40.512350300516466],[-112.00383510607591,40.512206182927088],[-112.00381797362844,40.5120612429576],[-112.00380678598434,40.51191572336397],[-112.00377608311709,40.511564387628951],[-112.00348884358148,40.511567561921993],[-112.00296424258434,40.511567554161985],[-112.00253067232221,40.511565910027265],[-112.00155563969385,40.511554949199692],[-112.00108415982305,40.511552947723075],[-112.00052584124575,40.511550920821861],[-112.00009151404905,40.511549970649291],[-111.99953575927691,40.511547738968268],[-111.99893966333751,40.511546495943172],[-111.99864684979615,40.511547752150761],[-111.99794610684117,40.511542046532163],[-111.99727007146039,40.511543364497868],[-111.99706349304219,40.511547959394505],[-111.9968991079532,40.511551183558623],[-111.99675483636759,40.511553929580714],[-111.99662181512213,40.511554337568349],[-111.99638133953823,40.511553167085069],[-111.99570967993277,40.511551316282883],[-111.99520430060464,40.511549665089511],[-111.99494894191696,40.511544691059107],[-111.99458247322669,40.511535003499247],[-111.99440921945474,40.51153039231118],[-111.99423040787383,40.511529819102208],[-111.99408228676721,40.511528748792877],[-111.99387917249715,40.511527953298376],[-111.99387545883431,40.511360563310319],[-111.99387376230412,40.511298617600751],[-111.99387690174623,40.511214729533485],[-111.99387763985534,40.511144196413433],[-111.99386573241244,40.511051793706294],[-111.99384882357035,40.510958459255299],[-111.99382832597421,40.510887061900362],[-111.99379514158365,40.510788077320939],[-111.99375832258387,40.510704358507489],[-111.99367748650222,40.510577933973991],[-111.99356779304971,40.510432569192744],[-111.99348564042143,40.510296619195515],[-111.99340577240476,40.510131112297998],[-111.9933151433041,40.509858901859701],[-111.99326630882018,40.509667530944142],[-111.99322780776096,40.509523771748697],[-111.99314082990102,40.50923820271364],[-111.99309695514033,40.509042044028483],[-111.99303168154445,40.508822148618833],[-111.99294836199634,40.508524172855736],[-111.99289941251305,40.508316598887852],[-111.9928442321059,40.508110956724657],[-111.99282355183254,40.508013825722713],[-111.99276518416382,40.507669280100487],[-111.99276812530658,40.507557752976716],[-111.99278073972556,40.507402341158084],[-111.99279354672004,40.507273616414906],[-111.99280885708399,40.507145833953452],[-111.99281811062978,40.507043811136455],[-111.99283322825515,40.506889342471801],[-111.99284950580598,40.506722477784315],[-111.99287809739417,40.506531733640927],[-111.99289697448246,40.506379155660355],[-111.99291480278308,40.506254221903134],[-111.99293467451892,40.506066372843918],[-111.99293900119612,40.505973902481998],[-111.99294553650252,40.505841390959887],[-111.99294676107802,40.505665058631287],[-111.9929332429007,40.505522147751897],[-111.9929207596967,40.505349685239239],[-111.99289321045816,40.505165848666763],[-111.99287022104949,40.504962999570544],[-111.99285697246137,40.504816205992604],[-111.99283179622708,40.504615204154],[-111.99281954735196,40.504475146323664],[-111.99279716477824,40.504315116510092],[-111.99277665081897,40.504240859517083],[-111.99274733373504,40.504172417689006],[-111.99263348895376,40.503969166992881],[-111.99255288446555,40.503830111529155],[-111.99247703522708,40.503679479713504],[-111.99239158679842,40.503517808283384],[-111.99231255621004,40.503380414805036],[-111.9922506287139,40.503277260806342],[-111.99221463214612,40.503220224875186],[-111.99218059381651,40.503169693737441],[-111.9921489746396,40.503113830871406],[-111.9921283929831,40.503073409000322],[-111.9921054191785,40.503025850128552],[-111.9920878819611,40.502974693097386],[-111.99206859504145,40.502897332781927],[-111.992050804605,40.502811031471978],[-111.99204496762908,40.502759230010241],[-111.99203974112504,40.502683597400839],[-111.99203670385569,40.502587107048718],[-111.9920385462256,40.502409580453957],[-111.99204163601807,40.50218856204507],[-111.99203942979625,40.501990799159479],[-111.99203978860659,40.501824001125115],[-111.99203946634165,40.501670907448315],[-111.99204184099116,40.501567245485212],[-111.9920458095965,40.501468342723349],[-111.99204601104819,40.501387922285318],[-111.9920499078364,40.501278892732543],[-111.99205014673812,40.501203833317994],[-111.99204647566781,40.501127598845976],[-111.99203974430513,40.501059716646679],[-111.99202921771929,40.501006743368855],[-111.9920108099558,40.500943080809087],[-111.99197910298918,40.500874708186814],[-111.99193407852425,40.500799243518401],[-111.99186933900759,40.500695267994239],[-111.99170709291012,40.500511423434752]]]},"properties":{"OBJECTID_1":2,"OBJECTID":341,"DIST_NAME":"D3","LABEL":"Council District #3","GlobalID":"{D01CCA22-7EBF-4817-95DD-C0D8A44C3B3D}","NAME":"Alexander Johnson","PHONE_NUM":"801-810-0612","EMAIL":"ajohnson@rivertonutah.gov","PIC_LINK":"https://www.rivertonutah.gov/assets/staff-photos/alexander-johnson-1.2026.png?t=202601081546520","WEBSITE":"http://cms8.revize.com/revize/rivertonut/government/city-council/district3.php","Shape__Area":89582153.048011452,"Shape__Length":42212.87383911603}},{"type":"Feature","id":3,"geometry":{"type":"Polygon","coordinates":[[[-111.94937071571732,40.52268200474424],[-111.94942071506746,40.522446005292743],[-111.94943571542993,40.522294505084894],[-111.94369371391379,40.522329005448206],[-111.94122571363042,40.522321005800706],[-111.93876871397656,40.522299005418191],[-111.93588471332977,40.522301006233029],[-111.92923571028106,40.522359006200162],[-111.92532565846295,40.522369669544823],[-111.92483670868739,40.522421006858892],[-111.92454555196613,40.522468852096026],[-111.92430354158014,40.522518400006476],[-111.92422091803101,40.52253589375492],[-111.92414119140147,40.522552773576777],[-111.92370170882424,40.522688007495269],[-111.92349350770628,40.522766217473695],[-111.92331570890801,40.522833006963005],[-111.92329753621259,40.522841239005821],[-111.92322203745351,40.522875438992756],[-111.92284770941413,40.523045004759133],[-111.92257971332413,40.52317531720297],[-111.92252073124467,40.523203996998753],[-111.92241096038661,40.523257871468054],[-111.9223700014376,40.523277974001871],[-111.92232074289309,40.5233021500052],[-111.92208672724524,40.52341700027813],[-111.92190962659302,40.523483821115683],[-111.92186671270579,40.523499098025383],[-111.92185691890879,40.523526259477102],[-111.92194539572621,40.523607697851595],[-111.9219624599701,40.523627040197134],[-111.92195490878147,40.523665702922919],[-111.92194392799638,40.523721920281659],[-111.92192455054679,40.523821121656937],[-111.92192682109561,40.523877046353],[-111.92193695362062,40.523946292859833],[-111.92193624512652,40.524109263326686],[-111.92188581429613,40.524404237902964],[-111.92188007094647,40.524663228555987],[-111.92184860819489,40.524758046157295],[-111.92180198160341,40.524898559403425],[-111.9216042042153,40.525073802176571],[-111.92149513339022,40.525089324081677],[-111.9213944647347,40.525059052117427],[-111.92134568112502,40.525044382429265],[-111.92094864833192,40.525136766919275],[-111.92069801551403,40.525312525752369],[-111.92046139409213,40.525526843167832],[-111.92032056737895,40.525598583618965],[-111.9199793780224,40.525944366036043],[-111.91979070059938,40.526041139403446],[-111.91968505519564,40.526173559785342],[-111.91956029952635,40.526329781277624],[-111.9195167090986,40.526441007705408],[-111.91943552886617,40.526546839105521],[-111.91936453500095,40.526728965685507],[-111.91927057325594,40.527061813226318],[-111.91938137509204,40.527288991658033],[-111.91943250621247,40.527523948310595],[-111.91950381611289,40.527796746822915],[-111.91956370992133,40.527904007719009],[-111.91975495410853,40.528235777573769],[-111.92002548177869,40.528583870476083],[-111.92021776249186,40.528855011051014],[-111.92041421378811,40.529062799071355],[-111.92061620833536,40.529256731366367],[-111.92089277362057,40.529430350635955],[-111.92107529994527,40.52955848596595],[-111.92123530710695,40.529724787132814],[-111.92141528510865,40.529875796609538],[-111.92155626237154,40.530171127663088],[-111.92157788516849,40.530398927054414],[-111.92148934497156,40.530611297726111],[-111.92132150402443,40.530801561538908],[-111.92102418960859,40.53095428605431],[-111.92084010824979,40.53124237173725],[-111.92061098732319,40.531646057572551],[-111.92028467241506,40.531920281227514],[-111.919808701384,40.532119211870722],[-111.91963871072602,40.532124008172033],[-111.91917255392869,40.53214418270278],[-111.91888771021631,40.532098008250436],[-111.91851585870322,40.532032786890809],[-111.91823306320903,40.531945696885387],[-111.91807003797653,40.531903697592014],[-111.91777470988164,40.531891008649552],[-111.91743766922828,40.531905951143251],[-111.91719352943264,40.532007151108132],[-111.91707550145381,40.532219925789313],[-111.917086435638,40.532386762720947],[-111.91725721433824,40.532674427778012],[-111.91733489048279,40.532972604999188],[-111.91739998820604,40.533265504550457],[-111.91740471233921,40.533538263415821],[-111.91746288743316,40.533803821879367],[-111.91768264978946,40.534302735972403],[-111.91779579506625,40.534583880827526],[-111.91781489861309,40.534862215059192],[-111.91781286099783,40.535261237070515],[-111.91781427759561,40.535398338420919],[-111.91767163540916,40.535832364009622],[-111.91752720327173,40.536181910564949],[-111.91746833124473,40.536314502181938],[-111.91739044579856,40.53658783224499],[-111.91739151272759,40.536762268786198],[-111.91740924621094,40.53683241765642],[-111.91743909658901,40.536899706396412],[-111.91756627288203,40.536974823883078],[-111.92022368773976,40.536948385279672],[-111.9202625917862,40.537070814254498],[-111.92032710277368,40.537273828930928],[-111.92037138425225,40.537413180089573],[-111.92042571280663,40.537576760138613],[-111.92047082043921,40.537712578049906],[-111.92052460945358,40.537874532642064],[-111.9206025860517,40.53796250871283],[-111.92207227454705,40.537957406899203],[-111.92207176043355,40.537874286191673],[-111.9291432822972,40.537952820902873],[-111.92931849011971,40.53795027742153],[-111.92931646170948,40.540347665290568],[-111.93045665125432,40.540348049539993],[-111.93109571378876,40.540264008120829],[-111.93278940946195,40.53997995515131],[-111.93337701030919,40.539872652103867],[-111.93406039319775,40.539777196938488],[-111.93407367374239,40.540391899753764],[-111.93532924397684,40.540394392207709],[-111.93617171544034,40.539782007802252],[-111.93707334385351,40.539136953590393],[-111.93870786213733,40.539130848597026],[-111.93886831806958,40.53914437529783],[-111.93885962463317,40.540655923772853],[-111.94143746065194,40.540650838925067],[-111.94147334334347,40.536855251209111],[-111.94821625056962,40.536866318557536],[-111.94821370254162,40.54045005835291],[-111.95776027293851,40.540474952055334],[-111.95775773277849,40.536876100415434],[-111.95775975673294,40.536713446581885],[-111.95775785078098,40.536313000414026],[-111.95775717101729,40.53574605345964],[-111.9577557346455,40.535147078685164],[-111.95775532448916,40.534976128269477],[-111.95775259461587,40.534539943133368],[-111.95775276484704,40.534303303557607],[-111.95775155511456,40.534156210572974],[-111.95775314574442,40.534010966327607],[-111.95775165460741,40.533497783527785],[-111.95775112923488,40.533157614918139],[-111.95775053637468,40.532690891705684],[-111.95775009819552,40.532549721387483],[-111.95774969652648,40.532420153002477],[-111.95774947106439,40.53215373012042],[-111.95774873223456,40.532043578490821],[-111.95774791984222,40.531922459061732],[-111.95774656950486,40.530906211309635],[-111.9577457328279,40.530781644526201],[-111.95774500814689,40.530673599224968],[-111.95774694193247,40.530504915110946],[-111.95774596613559,40.530243112204268],[-111.95755280614527,40.530243961781409],[-111.95376006963934,40.530246995268399],[-111.9537564653391,40.530464848974773],[-111.9537363841867,40.530544389714585],[-111.95369832083468,40.530636798998515],[-111.95361772368933,40.530775565081314],[-111.95359520254321,40.530812293861317],[-111.95346917626222,40.530812924641317],[-111.952677989599,40.53081324576118],[-111.95251780469758,40.531087813242635],[-111.95228154383811,40.531087902813205],[-111.95213038432185,40.530845748995169],[-111.95196369794967,40.530573802620864],[-111.95179409791467,40.530238962153042],[-111.95157081466098,40.529719425126096],[-111.95143385888208,40.529409238472276],[-111.95134641849342,40.529219907123057],[-111.95118130922229,40.528996561900932],[-111.95089788167866,40.528636424127022],[-111.95068608229843,40.528340820975885],[-111.95048574008635,40.528077579648844],[-111.95031416439029,40.527819946097807],[-111.95024598033554,40.527708694399834],[-111.95014010527034,40.527564228327996],[-111.94991568943206,40.527248657769661],[-111.94976962026411,40.527070033722815],[-111.94967524591341,40.526964600806735],[-111.94962975343732,40.526884713335988],[-111.9495748955768,40.526710504956426],[-111.94953637022229,40.526550530528766],[-111.94950773087866,40.526374315026594],[-111.9494611092382,40.526122872296476],[-111.94939564612538,40.525855299519364],[-111.94934468102157,40.52570299694041],[-111.94926691735812,40.525464064464778],[-111.94917418390796,40.525228048610437],[-111.94913094069517,40.525110028229953],[-111.94909508498431,40.524975777274918],[-111.94908454706908,40.524892897181893],[-111.94907233416363,40.52474521179856],[-111.94906726406197,40.524544124638595],[-111.94909558411067,40.524292394454413],[-111.94912359664946,40.523993963367793],[-111.94915042935951,40.523706021262747],[-111.94917507712482,40.523465742360465],[-111.94919519852402,40.523296964885816],[-111.9492363655099,40.523099513451072],[-111.94937071571732,40.52268200474424]]]},"properties":{"OBJECTID_1":3,"OBJECTID":338,"DIST_NAME":"D4","LABEL":"Council District #4","GlobalID":"{773E5644-46B7-4959-8DBD-13347B376EFE}","NAME":"Shannon Smith","PHONE_NUM":"801-520-4136","EMAIL":"ssmith@rivertonutah.gov","PIC_LINK":"https://www.rivertonutah.gov/assets/staff-photos/shannon-smith-2026-1.jpg?t=202601141012210","WEBSITE":"http://cms8.revize.com/revize/rivertonut/government/city-council/district4.php","Shape__Area":57889433.540194154,"Shape__Length":39195.621591067247}}]}