{"type": "FeatureCollection", "crs": {"type": "name", "properties": {"name": "EPSG:4326"}}, "features": [{"type": "Feature", "geometry": {"type": "Polygon", "coordinates": [[[-111.599468518685, 40.5774319812715], [-111.5998364821, 40.5772246703198], [-111.600106856136, 40.5770710167806], [-111.600404080816, 40.5768811879896], [-111.600690711664, 40.576695917807], [-111.60098530428, 40.5764763722119], [-111.601277531631, 40.5762568374954], [-111.60174054399, 40.5758463267807], [-111.602114110198, 40.5754750187072], [-111.602343788754, 40.5751323864336], [-111.602346102815, 40.575126968823], [-111.602555162341, 40.5747249863527], [-111.602688998742, 40.5742351081472], [-111.602708770661, 40.5738052838991], [-111.602664310343, 40.5734586759748], [-111.602593232044, 40.5727788798335], [-111.602403965997, 40.5723573531235], [-111.60204588405, 40.5718177891643], [-111.601946803467, 40.5714399340434], [-111.601932460067, 40.5712895616432], [-111.601904024795, 40.571016742127], [-111.601854430605, 40.5707557441264], [-111.601804109678, 40.5704136704274], [-111.60182523446, 40.5701342863563], [-111.601980315119, 40.5696424973282], [-111.602081162688, 40.5692951315547], [-111.602279713722, 40.5687769888558], [-111.602637204577, 40.5680670298913], [-111.602903809282, 40.5674980821522], [-111.603149696142, 40.5672535599203], [-111.603463293516, 40.5669194961019], [-111.603467970145, 40.5669140662255], [-111.603908363824, 40.566492854011], [-111.603913048538, 40.566488324877], [-111.60393647121, 40.5664656805673], [-111.60430545062, 40.5661169102811], [-111.604536747043, 40.5658537230962], [-111.60458141577, 40.5658028594015], [-111.604989504234, 40.5653376685679], [-111.605173190845, 40.5651403141936], [-111.605429415517, 40.564865102964], [-111.605432902777, 40.5648587782639], [-111.605591374576, 40.5646165106782], [-111.605677324484, 40.5644539006688], [-111.605726554857, 40.5644113014789], [-111.605735971896, 40.5644076484417], [-111.605773640951, 40.5643930362908], [-111.605784232088, 40.5643884763055], [-111.605937791899, 40.5643876710401], [-111.60602112771, 40.5644593048126], [-111.606134255249, 40.5645596106637], [-111.606318468272, 40.5646829659633], [-111.606573124486, 40.5647582039858], [-111.607273710694, 40.5648977644215], [-111.608063576866, 40.5649818962116], [-111.608720292051, 40.5651027598964], [-111.609146600145, 40.5652176276231], [-111.609876098631, 40.5655480066987], [-111.610448893203, 40.5657927248731], [-111.610457194534, 40.565796284344], [-111.610467858435, 40.5657998315313], [-111.610648227568, 40.5658629308982], [-111.610721466314, 40.5658885793937], [-111.610978175178, 40.5659286629532], [-111.611114019314, 40.5659279443728], [-111.6112059529, 40.5659049354651], [-111.611275482503, 40.5658865498975], [-111.611312372718, 40.5658641933626], [-111.611356546474, 40.5658374734687], [-111.611461104085, 40.5657738581728], [-111.611625167897, 40.5656288484283], [-111.612070588547, 40.5653769444743], [-111.612078832387, 40.5653741977411], [-111.612289774782, 40.5653181261447], [-111.6126378477, 40.565273038722], [-111.613122815782, 40.5653425362594], [-111.61373229216, 40.5654636224434], [-111.614234519574, 40.5654825738509], [-111.614252246928, 40.5654833804679], [-111.614337239232, 40.5654766224913], [-111.614677207549, 40.565449589213], [-111.615066770956, 40.565420489563], [-111.61582728737, 40.5652650892199], [-111.616547432597, 40.5652162040954], [-111.617354162842, 40.565205589737], [-111.618099485151, 40.5651970997503], [-111.618449148986, 40.5651970301435], [-111.618494011749, 40.5651940875484], [-111.618531802975, 40.5651929840752], [-111.619007818448, 40.5651877321704], [-111.619563001548, 40.5651847561363], [-111.619890038617, 40.5651649836928], [-111.620264741193, 40.5651899991699], [-111.620378323279, 40.5652092086097], [-111.620519116234, 40.5652327766582], [-111.620860045749, 40.5653102223701], [-111.621759483029, 40.5654882645268], [-111.622211060732, 40.56552276957], [-111.622728446318, 40.5655199818978], [-111.623023665958, 40.5655084804457], [-111.623381322104, 40.5656056483414], [-111.623840733117, 40.565720283184], [-111.624078465968, 40.5657642231672], [-111.624361403842, 40.5658165677289], [-111.624600132027, 40.5658658168236], [-111.624825366618, 40.5659122557066], [-111.62515424164, 40.5659627276135], [-111.625354208419, 40.5659976807567], [-111.625436921697, 40.5659999354454], [-111.625485377722, 40.56600237575], [-111.625522013714, 40.5660039787352], [-111.625638815362, 40.5659880314527], [-111.625674193713, 40.565981533526], [-111.625697802337, 40.5659796043472], [-111.625726127116, 40.5659767477705], [-111.625809904, 40.5659663846604], [-111.625878509236, 40.5659759227343], [-111.625957770289, 40.5659881058356], [-111.626160862306, 40.5659779959021], [-111.626295735363, 40.5659997873621], [-111.626430834795, 40.5660459006419], [-111.626520954683, 40.5660823482217], [-111.626608720086, 40.566119708847], [-111.626627645793, 40.5661223088313], [-111.626665487324, 40.5661266080177], [-111.626738826682, 40.5661370209189], [-111.626809567214, 40.5661222228475], [-111.626833166855, 40.5661193922085], [-111.626844971616, 40.5661184272799], [-111.627092975805, 40.5661107754093], [-111.627270728145, 40.5661701696789], [-111.627424972473, 40.5662423031145], [-111.627561019627, 40.5662631855194], [-111.627723053247, 40.5662839266592], [-111.627889956633, 40.5663199557929], [-111.628091359818, 40.5663819225547], [-111.628263231787, 40.5664440503072], [-111.628841077585, 40.5667156751503], [-111.629147068025, 40.5668446378779], [-111.629386274114, 40.5669063967035], [-111.629664041285, 40.5669229006076], [-111.630124990213, 40.566947413862], [-111.630426213294, 40.5669457699552], [-111.630436844856, 40.566945711951], [-111.630567932412, 40.5669413930276], [-111.630632885098, 40.5669392366366], [-111.63070372714, 40.5669352466306], [-111.631010916831, 40.566939875365], [-111.631452224096, 40.567011336488], [-111.63220985602, 40.5671792616377], [-111.632975668003, 40.5673372267655], [-111.633499719987, 40.5674136321159], [-111.633697563149, 40.5674729058098], [-111.633834174445, 40.5675532361469], [-111.633948724915, 40.5676742268906], [-111.634060998156, 40.5678042386569], [-111.634298700465, 40.5679560839844], [-111.634664017444, 40.5681108311733], [-111.635132923649, 40.5682262696736], [-111.635291302023, 40.5682344078457], [-111.635455586821, 40.568242513262], [-111.635581968103, 40.5682400157185], [-111.635834695634, 40.5682314182993], [-111.635930261109, 40.5682182795791], [-111.636403352565, 40.568151711798], [-111.636846036947, 40.5681177417393], [-111.637494650226, 40.5681231728829], [-111.637688124881, 40.5680950781917], [-111.637728134945, 40.568078641451], [-111.637802247753, 40.5680458007122], [-111.637909052948, 40.5679847621788], [-111.637912570751, 40.5679820401187], [-111.638037761766, 40.5678418016742], [-111.6380412625, 40.5678372780906], [-111.638096038173, 40.5677585988052], [-111.638196741113, 40.5679008320572], [-111.638174628184, 40.5679359083835], [-111.638509777938, 40.5686570154943], [-111.638829820725, 40.5687949730703], [-111.638847258821, 40.568802533877], [-111.639031562575, 40.5690644818632], [-111.639510558657, 40.5692952502885], [-111.639680911574, 40.5695556528126], [-111.639851383069, 40.5698160550057], [-111.640021738681, 40.5700765476232], [-111.640192213769, 40.5703369491541], [-111.640362572077, 40.5705974411087], [-111.640533048961, 40.5708578419774], [-111.640703409963, 40.5711182431975], [-111.640775328187, 40.5714000905625], [-111.640847248207, 40.5716819381052], [-111.640860134539, 40.5717324063432], [-111.640919285906, 40.5719637851431], [-111.640991206824, 40.5722456323585], [-111.641063127742, 40.5725274797514], [-111.641135049559, 40.5728093266395], [-111.64122623395, 40.5731411557372], [-111.641317420138, 40.5734730753047], [-111.641408488647, 40.5738049052047], [-111.641409155197, 40.5741097596301], [-111.641409820848, 40.5744145246463], [-111.641411700124, 40.5753289089373], [-111.641498670518, 40.5756024743812], [-111.641585641811, 40.5758760393888], [-111.641672613103, 40.5761496046426], [-111.641759586192, 40.57642316946], [-111.64184656018, 40.5766968245874], [-111.641933534167, 40.5769703892141], [-111.642020509053, 40.5772439540869], [-111.642107483939, 40.5775175192057], [-111.642194342044, 40.5777910845704], [-111.642281319625, 40.5780647388786], [-111.642368297205, 40.5783383033702], [-111.642396922022, 40.5784280518914], [-111.642455275684, 40.5786118674254], [-111.642542255062, 40.5788854317266], [-111.642629234439, 40.5791589962736], [-111.642716214715, 40.5794325603842], [-111.642803196787, 40.5797062141183], [-111.642890178859, 40.579979778038], [-111.64297716183, 40.5802533422035], [-111.643064144801, 40.5805269059325], [-111.64315112867, 40.5808004699074], [-111.643238114335, 40.5810741235037], [-111.643325100001, 40.5813476866052], [-111.64335401677, 40.5816279701392], [-111.64338281586, 40.5819083439203], [-111.643411732629, 40.5821886271519], [-111.643440650296, 40.5824689098913], [-111.643444046826, 40.5825027641876], [-111.643469450284, 40.5827492835587], [-111.643498367951, 40.5830295666778], [-111.643527287415, 40.5833099400419], [-111.643761329089, 40.5835279998211], [-111.643886517409, 40.5836445967605], [-111.643995374357, 40.5837461503083], [-111.644229538202, 40.5839642987196], [-111.644463586164, 40.5841824477839], [-111.644697751806, 40.5844005054008], [-111.644931802464, 40.5846186530424], [-111.644931868041, 40.5846500932328], [-111.644931839295, 40.584745497082], [-111.645294792805, 40.5846544628621], [-111.645657863097, 40.5845635172073], [-111.646020813913, 40.5844724806932], [-111.646383764729, 40.5843815334265], [-111.646746713748, 40.5842904953002], [-111.647109661869, 40.5841995457393], [-111.647472609091, 40.5841085046364], [-111.647835555416, 40.5840175527814], [-111.648198500841, 40.5839265100663], [-111.648561444471, 40.5838354658628], [-111.6489243881, 40.5837445102254], [-111.64928744851, 40.5836534637275], [-111.649650389445, 40.5835625057959], [-111.650013329481, 40.5834714570035], [-111.650376269517, 40.5833804974599], [-111.649760620815, 40.5845012336755], [-111.650204517024, 40.5846429667455], [-111.650648414132, 40.5847846080976], [-111.65048155656, 40.5851983310971], [-111.651123869056, 40.5850366075003], [-111.651272659711, 40.5853798153214], [-111.651421333586, 40.5857231127976], [-111.65104011463, 40.5858190438286], [-111.651826100978, 40.5860689292671], [-111.652612211293, 40.5863188990475], [-111.652741795968, 40.5866181597019], [-111.652506920657, 40.5868413736264], [-111.652272044448, 40.587064586806], [-111.65203716734, 40.5872877992405], [-111.651990082145, 40.5873309473597], [-111.651941450949, 40.5873730223602], [-111.651891035698, 40.5874139369231], [-111.651839072651, 40.587453688322], [-111.651785560908, 40.5874921878738], [-111.651730500469, 40.587529344167], [-111.65167401081, 40.5875653379845], [-111.651616089238, 40.587599897816], [-111.651556854328, 40.5876331143954], [-111.651496187503, 40.5876649870422], [-111.651434444497, 40.587695425027], [-111.651371386358, 40.5877243383029], [-111.65130725024, 40.5877518162386], [-111.651238503967, 40.5877791406702], [-111.650852580535, 40.5878663585661], [-111.650466656204, 40.587953575666], [-111.650080730076, 40.5880407012391], [-111.649694803949, 40.5881279153829], [-111.649620980399, 40.5881435551804], [-111.649547882688, 40.5881609031677], [-111.649475630291, 40.5881801373936], [-111.649404103733, 40.5882010798062], [-111.649333539271, 40.5882238184059], [-111.649263936006, 40.5882481730939], [-111.649195414313, 40.588274323283], [-111.648850583415, 40.5884078792129], [-111.648505751618, 40.588541434194], [-111.648160800346, 40.5886749889083], [-111.647815964956, 40.5888084519439], [-111.647768203329, 40.5888307912623], [-111.647719482301, 40.5888517846346], [-111.647669924043, 40.588871611475], [-111.647619406385, 40.5888900923716], [-111.647568168278, 40.5889073166909], [-111.647516207027, 40.588923193022], [-111.647463524429, 40.588937722048], [-111.647410238163, 40.5889509030877], [-111.64735646501, 40.5889626460943], [-111.647302207665, 40.5889731297992], [-111.647247462535, 40.5889820854251], [-111.647192349994, 40.5889897810682], [-111.647136986823, 40.5889959472689], [-111.647081256241, 40.5890007634404], [-111.647025512184, 40.5890041388533], [-111.6469695166, 40.5890059841425], [-111.646964081792, 40.5890061042057], [-111.646538858862, 40.5890019088159], [-111.646113635933, 40.5889976220141], [-111.645688413902, 40.5889934232129], [-111.645657789435, 40.5891144024742], [-111.645626591844, 40.5892372765983], [-111.645266975574, 40.589223070306], [-111.644907476984, 40.5892087719172], [-111.644547860715, 40.5891945628903], [-111.644396424521, 40.5891885611121], [-111.644188243547, 40.589180263131], [-111.643828746753, 40.5891660520514], [-111.643469129585, 40.5891517495574], [-111.64301592144, 40.5892608477807], [-111.642981612982, 40.589269146434], [-111.642562712396, 40.5893699437796], [-111.642109500657, 40.5894790382361], [-111.64163413826, 40.5895332995676], [-111.641158775862, 40.5895876502196], [-111.641159842163, 40.5918520943451], [-111.641161028837, 40.5941166275448], [-111.633811264711, 40.5941184529114], [-111.633895178138, 40.5944192461795], [-111.633979090667, 40.5947199501012], [-111.634063004993, 40.5950207433918], [-111.634146919318, 40.5953214459724], [-111.634230835441, 40.5956222392854], [-111.634314751563, 40.5959230326094], [-111.634940908757, 40.5960873355209], [-111.634814385541, 40.5963677537306], [-111.634715208838, 40.5966781115027], [-111.635057599014, 40.5968287481032], [-111.635399990088, 40.5969793836822], [-111.635742265279, 40.5971300189218], [-111.636084659946, 40.5972806524578], [-111.635904669004, 40.5975183947864], [-111.635724676266, 40.5977560462339], [-111.635403999269, 40.5976150216804], [-111.63508332317, 40.5974739061113], [-111.634762648869, 40.5973328795984], [-111.634441974567, 40.5971917620695], [-111.63423742099, 40.5976447655442], [-111.633863614034, 40.5975466401414], [-111.633489927452, 40.5974486025843], [-111.633352016293, 40.597412423101], [-111.633116123191, 40.5973505642013], [-111.632863879852, 40.5972843807768], [-111.632742319828, 40.5972524349563], [-111.632368518262, 40.5971543949214], [-111.631994717594, 40.5970563526966], [-111.631968414923, 40.5970493796385], [-111.631630632206, 40.5969606894789], [-111.631632674975, 40.5969642813965], [-111.631484725143, 40.5972300391092], [-111.631336773514, 40.5974957957654], [-111.631188704206, 40.5977616434471], [-111.63104075078, 40.5980274007185], [-111.630892796456, 40.5982931569334], [-111.630744840335, 40.5985589134561], [-111.630596883317, 40.5988246696043], [-111.630012560665, 40.5990517265174], [-111.629999060783, 40.5990489177338], [-111.629654834451, 40.5989418782975], [-111.629310726697, 40.5988348373256], [-111.628966502161, 40.5987277961824], [-111.628300005221, 40.5985226002038], [-111.628213879243, 40.5985136090234], [-111.627930543416, 40.5984842495575], [-111.627561081611, 40.598445898207], [-111.627126568305, 40.5984528527032], [-111.626691934624, 40.5984597164821], [-111.626627803896, 40.5984392540569], [-111.626845228534, 40.5982196113544], [-111.627062651376, 40.5979999679304], [-111.627280071522, 40.5977802344312], [-111.626918999084, 40.597703187128], [-111.626558045223, 40.5976261390538], [-111.62619709226, 40.5975490895267], [-111.625977341884, 40.5975033826584], [-111.625836139298, 40.5974719485107], [-111.625475188132, 40.5973948967596], [-111.625301091036, 40.5976984445668], [-111.625126993043, 40.5980019916778], [-111.625013366939, 40.5981999891824], [-111.624952893252, 40.5983056294917], [-111.624778673088, 40.5986091765741], [-111.624397558337, 40.5985249335998], [-111.624016325907, 40.5984406898372], [-111.623635094375, 40.5983564446043], [-111.623631237009, 40.5983610595695], [-111.623889377787, 40.5985790293483], [-111.624147520362, 40.5987970891326], [-111.624405663836, 40.5990150574897], [-111.624138375513, 40.5991990203856], [-111.623784931568, 40.5989004865137], [-111.623431492114, 40.5986020420252], [-111.623065680164, 40.5987783360969], [-111.622717899198, 40.5987072403945], [-111.622607124348, 40.5990223338661], [-111.622496349497, 40.5993374278988], [-111.622385571951, 40.5996524310953], [-111.622274794405, 40.5999675248862], [-111.62194126611, 40.6001212997532], [-111.621607736018, 40.6002750729023], [-111.621274204129, 40.6004288456976], [-111.620940671342, 40.6005826174572], [-111.62060713586, 40.6007362981494], [-111.62027359948, 40.6008900678376], [-111.619940062202, 40.6010438371721], [-111.61959749416, 40.6008854087133], [-111.619348512604, 40.6011982677441], [-111.619099410674, 40.6015110366441], [-111.61869540146, 40.6017394123787], [-111.618291509026, 40.6019677852871], [-111.618328134239, 40.6022868608365], [-111.618364761248, 40.6026060262559], [-111.618401270578, 40.6029251915153], [-111.618437898485, 40.6032443566149], [-111.61807915448, 40.6032682584191], [-111.618047155591, 40.6029895183138], [-111.61801527528, 40.602710687017], [-111.61798327729, 40.6024319459506], [-111.617951279299, 40.6021532050858], [-111.617919282207, 40.6018744644227], [-111.617887284217, 40.6015956339309], [-111.617855287125, 40.6013168929889], [-111.61782340861, 40.6010381515667], [-111.617791411518, 40.6007593209966], [-111.617786656735, 40.6007179057841], [-111.617759415324, 40.6004805799775], [-111.61772741913, 40.6002018391602], [-111.617665738108, 40.6002162225024], [-111.617337027478, 40.6004068042222], [-111.617008315949, 40.6005974747484], [-111.616679601725, 40.6007880540172], [-111.616368744213, 40.6009284491604], [-111.6160578867, 40.6010688426447], [-111.615747026493, 40.6012092351521], [-111.61553150808, 40.6013065981016], [-111.615436283965, 40.6013496266825], [-111.61512542196, 40.6014901079487], [-111.614836689953, 40.6016852441625], [-111.61454795615, 40.6018804698365], [-111.614018755023, 40.6015785172336], [-111.6137735949, 40.6011492901971], [-111.613716106315, 40.6008340178212], [-111.613692834559, 40.6007061266467], [-111.613088215373, 40.6005567285359], [-111.613060091816, 40.6000269811785], [-111.612830209342, 40.599716317017], [-111.612600328664, 40.5994056520938], [-111.612050390827, 40.5994057748666], [-111.611546379358, 40.5992188994059], [-111.611293775795, 40.5988390750693], [-111.610763662878, 40.5986015250091], [-111.610116417733, 40.5984537782869], [-111.609971649733, 40.5980911279034], [-111.609417766495, 40.5977727082755], [-111.609618269568, 40.5975188633825], [-111.609818890321, 40.5972650175256], [-111.610019509277, 40.597011171387], [-111.610220007858, 40.5967573256488], [-111.610420624119, 40.5965034789467], [-111.610161426023, 40.5963844911493], [-111.610429924377, 40.5960447019022], [-111.610698420036, 40.5957049129745], [-111.610389854126, 40.5955633036184], [-111.609867246633, 40.5955632715592], [-111.60934452146, 40.5955632374537], [-111.609344330119, 40.5953078391858], [-111.609170806149, 40.5948356128087], [-111.60913038286, 40.594535562879], [-111.609089958672, 40.5942354229266], [-111.608777197629, 40.5938385225389], [-111.608711042997, 40.5935239755789], [-111.608671827043, 40.5933093604218], [-111.608659371902, 40.5932390672324], [-111.608608537138, 40.5929504229721], [-111.608557702374, 40.5926616881055], [-111.608506869407, 40.5923730440813], [-111.608456035542, 40.5920843094501], [-111.608405201677, 40.5917955749364], [-111.608354251929, 40.5915069312664], [-111.608303418962, 40.591218196306], [-111.608252587791, 40.590929551508], [-111.608201756621, 40.5906408167831], [-111.608150926349, 40.5903521722215], [-111.608100095179, 40.5900634377323], [-111.608049265805, 40.5897747927249], [-111.607998318752, 40.5894860584714], [-111.607947489378, 40.5891973236535], [-111.608184719173, 40.5889559900869], [-111.608421947172, 40.5887145662839], [-111.608659174272, 40.5884731416092], [-111.608576123228, 40.5881628658162], [-111.608493191659, 40.5878525885836], [-111.60841026009, 40.5875423119581], [-111.60832721174, 40.5872320352574], [-111.608153025712, 40.5866053090703], [-111.606533570765, 40.5852354757025], [-111.603614570708, 40.5854760763538], [-111.603246830974, 40.5851726886385], [-111.60223218925, 40.5850325810515], [-111.601152667603, 40.5851945966465], [-111.601024275891, 40.5852138228567], [-111.60073079539, 40.5850996764476], [-111.600137195837, 40.5848685327325], [-111.599549093075, 40.5848026691939], [-111.599131958576, 40.5846157385902], [-111.598800482931, 40.5844671907325], [-111.598791703696, 40.5838404925327], [-111.59878292446, 40.5832137952833], [-111.598795768572, 40.5826532901342], [-111.598802131339, 40.5823730825321], [-111.59881497635, 40.5818126678999], [-111.598825891779, 40.5813407289653], [-111.598827938141, 40.5812522519838], [-111.59883544087, 40.5811793317116], [-111.598856334785, 40.5809783268948], [-111.59888473143, 40.5807044013663], [-111.598913245754, 40.5804305654573], [-111.598970155823, 40.5798827142507], [-111.599018142029, 40.5794207631691], [-111.599027064995, 40.5793349533936], [-111.598981566224, 40.5793074419798], [-111.598510539097, 40.5790221414772], [-111.598479121418, 40.578718436565], [-111.598447585161, 40.5784147323208], [-111.598090778822, 40.5779147832356], [-111.598349147773, 40.5779089462417], [-111.59851534149, 40.5778639423538], [-111.598633295677, 40.5778417099035], [-111.598868488093, 40.5777170702221], [-111.599328041938, 40.5774987451914], [-111.599468518685, 40.5774319812715]]]}, "properties": {"NAME": "Alta", "COUNTYNBR": "18", "ENTITYNBR": 3010, "SHORTDESC": "ALTA", "POPLASTCENSUS": 228, "UGRCODE": "ALA"}}]}