{"type": "FeatureCollection", "crs": {"type": "name", "properties": {"name": "EPSG:4326"}}, "features": [{"type": "Feature", "geometry": {"type": "Polygon", "coordinates": [[[-111.649820888787, 40.5843914236322], [-111.649760566916, 40.584501238451], [-111.650091972492, 40.5846070491285], [-111.650204450549, 40.5846429606055], [-111.650648337775, 40.5847846817774], [-111.650481517932, 40.5851983672545], [-111.65112381875, 40.5850366327423], [-111.651272523167, 40.5853798780851], [-111.65142122489, 40.5857231250774], [-111.651040074206, 40.5858191004521], [-111.651433073668, 40.5859440579554], [-111.651826069537, 40.5860690124964], [-111.651849008018, 40.5860763052903], [-111.651822860755, 40.5861766476414], [-111.651810283442, 40.5862249096083], [-111.651804411155, 40.586249550186], [-111.651771707988, 40.5863025452371], [-111.651719126001, 40.5863877525572], [-111.651714276895, 40.5863956115455], [-111.651699917325, 40.5864188781024], [-111.651687737966, 40.586438614931], [-111.651568116506, 40.5865080604692], [-111.651541780597, 40.5866396722417], [-111.65154419437, 40.5867454454261], [-111.65148720974, 40.5868966406124], [-111.651389402969, 40.5869250937497], [-111.651147246813, 40.5869358567931], [-111.650972325962, 40.586921564055], [-111.650924297536, 40.5869418608201], [-111.650863133943, 40.5870086930192], [-111.650701226088, 40.5870546703898], [-111.650589762229, 40.5870542562962], [-111.650442873307, 40.5870443951365], [-111.650389769399, 40.5870658447772], [-111.650101506312, 40.5871822854661], [-111.649957583627, 40.5872340866185], [-111.64968643704, 40.5872047563092], [-111.649569843801, 40.5872210178028], [-111.64947542817, 40.587234186219], [-111.649335950349, 40.5872952924667], [-111.648958546539, 40.5872667016836], [-111.649042870496, 40.5873756358447], [-111.648760600969, 40.5875185934985], [-111.648566285492, 40.5875413036781], [-111.648512615645, 40.5875475743878], [-111.648458507421, 40.5876100699731], [-111.648401314381, 40.5875914638817], [-111.648327894175, 40.5876292388671], [-111.648288495863, 40.5876901919431], [-111.648187615955, 40.587691612264], [-111.648209169234, 40.5877497239619], [-111.648076585084, 40.5877002501606], [-111.647939310831, 40.5876588630145], [-111.647862832759, 40.5876817375545], [-111.647822896357, 40.5876936806658], [-111.647788481898, 40.5877039742385], [-111.64769604256, 40.5877608818605], [-111.647606028674, 40.5879161644701], [-111.647484225206, 40.588017222404], [-111.647481919231, 40.5881105332778], [-111.647456030683, 40.5881402602221], [-111.647463867585, 40.5881613902483], [-111.647274541351, 40.5882125514348], [-111.647095976934, 40.5883204512284], [-111.647074696743, 40.5882840089399], [-111.646953216669, 40.5881363246908], [-111.646925373387, 40.588102473246], [-111.646813588829, 40.5880092271687], [-111.646746361608, 40.5879531431588], [-111.64673814921, 40.5879308349279], [-111.646727249951, 40.58790122932], [-111.646630091763, 40.5876373010025], [-111.646594980212, 40.587541921062], [-111.646570619698, 40.5874757477118], [-111.646513848867, 40.5873215262562], [-111.646836170679, 40.5872106559362], [-111.647081095443, 40.587126406786], [-111.64738192596, 40.5870229263874], [-111.647429545653, 40.5870065461435], [-111.647452228114, 40.5869987438493], [-111.647533507681, 40.5869707853368], [-111.64754673717, 40.586966233712], [-111.647606807513, 40.5869455712962], [-111.647856073835, 40.5868598257495], [-111.648320557634, 40.5867000470313], [-111.648204118905, 40.5866613512318], [-111.648262723198, 40.586555890363], [-111.647811314378, 40.5866682435091], [-111.647427978991, 40.5867636499371], [-111.647058335727, 40.586855650691], [-111.646688687072, 40.5869476485897], [-111.646319040214, 40.5870396456795], [-111.646207153249, 40.5867783527111], [-111.645985632293, 40.5862610180561], [-111.646379285729, 40.5860080374766], [-111.646668331248, 40.5858222815958], [-111.646880296824, 40.5856860598793], [-111.647086753931, 40.5855533758389], [-111.647144758149, 40.5855152708544], [-111.646273494731, 40.585807066272], [-111.64620396423, 40.5855328623911], [-111.6474357593, 40.5852768582084], [-111.647511551957, 40.5852611051748], [-111.64754091968, 40.5852550007113], [-111.648187982468, 40.5848298897686], [-111.648451361323, 40.5847315395284], [-111.648527963362, 40.5847125505924], [-111.648768680417, 40.5846528794258], [-111.648975185134, 40.5846039122714], [-111.649209640932, 40.5845445234481], [-111.649375140252, 40.5845026022151], [-111.649792938606, 40.5843983959637], [-111.649810653383, 40.5843939778797], [-111.649820888787, 40.5843914236322]]]}, "properties": {"PrecinctID": "ALT002", "VistaID": "ALT002", "CountyID": 18}}, {"type": "Feature", "geometry": {"type": "Polygon", "coordinates": [[[-111.598090490463, 40.5779141166379], [-111.598349491827, 40.577909116132], [-111.598515491509, 40.577864116338], [-111.598633491509, 40.5778421158667], [-111.598868492584, 40.5777171159357], [-111.599404779623, 40.5774623795642], [-111.599468491736, 40.5774321150014], [-111.599836491982, 40.5772251151776], [-111.60010649142, 40.577071115714], [-111.600415491217, 40.5768741152586], [-111.600690492475, 40.5766961143102], [-111.600996491898, 40.5764681156388], [-111.601277493004, 40.5762571151945], [-111.601740491888, 40.5758461152642], [-111.602053491882, 40.5755351149553], [-111.602250491526, 40.5753341150134], [-111.602508492167, 40.5748461162875], [-111.602642492061, 40.5745451162578], [-111.602726492625, 40.5741331164338], [-111.602733492298, 40.5735181148982], [-111.602682492244, 40.573034115087], [-111.602613491749, 40.5727211154061], [-111.602409491534, 40.5723291148699], [-111.602246492226, 40.5720701158145], [-111.601994490534, 40.5715191146262], [-111.601829491576, 40.5706551145678], [-111.601818490807, 40.5706001152968], [-111.601814491508, 40.5702761153737], [-111.602227491061, 40.5689051144226], [-111.602465490712, 40.5683081153733], [-111.602627491094, 40.5679791147059], [-111.603001491188, 40.5674821147538], [-111.603184490588, 40.567186114296], [-111.603315492804, 40.5670771145008], [-111.603482490514, 40.5669301142829], [-111.603621491329, 40.5668211147532], [-111.603934491324, 40.5664881153781], [-111.604153492505, 40.5662861137797], [-111.604415491547, 40.5659971143549], [-111.604568489912, 40.5658441140338], [-111.605371491249, 40.564948113575], [-111.605656491655, 40.5645601149768], [-111.605823491161, 40.5644131133252], [-111.605895491131, 40.5644191139143], [-111.605974490774, 40.5645011144038], [-111.606181492259, 40.5646291137189], [-111.606740491403, 40.5648471135989], [-111.607049491199, 40.5649041136852], [-111.608056491853, 40.5649721136888], [-111.608689492413, 40.5650861142824], [-111.608738492817, 40.5651061139953], [-111.609146492348, 40.565218113506], [-111.609882491941, 40.565551114423], [-111.610467492821, 40.5658001133682], [-111.610648492571, 40.5658631144674], [-111.610721492365, 40.5658891144054], [-111.610978492283, 40.5659291140279], [-111.611133492992, 40.5659261141423], [-111.611205492064, 40.5659051135749], [-111.611275493283, 40.5658861138357], [-111.611312492194, 40.5658641142027], [-111.611356492575, 40.5658371131544], [-111.611461493056, 40.5657741127132], [-111.611565493711, 40.5656821143563], [-111.611625493087, 40.565629113888], [-111.612070493326, 40.5653771130316], [-111.612289493609, 40.5653181131787], [-111.612637492865, 40.5652731131056], [-111.613122492389, 40.5653421138423], [-111.613635493298, 40.5654451139194], [-111.613767492644, 40.5654661132664], [-111.614234493523, 40.5654821139018], [-111.614252493965, 40.5654831129604], [-111.614337493455, 40.5654771138316], [-111.614673493016, 40.565450113992], [-111.615041492363, 40.565422115082], [-111.615107493384, 40.5654121142499], [-111.615827492186, 40.565265113787], [-111.616547492784, 40.5652161126511], [-111.617354493422, 40.565206113153], [-111.618099494134, 40.5651971140812], [-111.618531493056, 40.5651931130526], [-111.619007494156, 40.5651881129608], [-111.619562493999, 40.5651851144069], [-111.619889494238, 40.5651651126703], [-111.620264494156, 40.5651901124516], [-111.620378493959, 40.5652091123885], [-111.620519493526, 40.5652331130911], [-111.620859494183, 40.5653101131831], [-111.621759494707, 40.5654881123478], [-111.622210495692, 40.565523113508], [-111.622728494827, 40.5655201122394], [-111.623023495278, 40.5655081126231], [-111.623304496384, 40.5655851123987], [-111.623878495596, 40.5656981122104], [-111.62425449534, 40.5657441124173], [-111.624785495792, 40.5659011125886], [-111.625101494363, 40.5659801127442], [-111.62539149569, 40.5659991131392], [-111.625436495896, 40.5660001115077], [-111.625485496299, 40.5660021130214], [-111.625521495386, 40.5660041131703], [-111.625638494664, 40.5659881126597], [-111.62567449375, 40.5659811131602], [-111.625697494215, 40.5659801127442], [-111.625726494527, 40.565977112861], [-111.625809495266, 40.5659661130603], [-111.625878495762, 40.5659761124449], [-111.625957495404, 40.5659881133422], [-111.626160495794, 40.565978113277], [-111.626295495513, 40.5660001135549], [-111.626430495232, 40.5660461128718], [-111.626520496542, 40.5660821127899], [-111.626608495507, 40.5661201128341], [-111.626629497221, 40.566122112297], [-111.626665496307, 40.5661271116367], [-111.626689496597, 40.566131111927], [-111.627080495511, 40.5661361126307], [-111.627269494758, 40.5662051124776], [-111.627834495546, 40.5663001113494], [-111.629185496156, 40.5669291111515], [-111.629560496973, 40.5669451121195], [-111.629656496335, 40.5669441130828], [-111.629813496693, 40.5669331127587], [-111.629893496161, 40.5669421129619], [-111.63000949741, 40.5669411132427], [-111.630124497038, 40.5669471108754], [-111.630367497611, 40.5669461125211], [-111.630426497162, 40.5669461118387], [-111.63056749583, 40.5669411125603], [-111.630632495229, 40.5669391138042], [-111.63070349807, 40.5669351135622], [-111.630834496692, 40.5669381127201], [-111.631010497318, 40.566940112841], [-111.631452496285, 40.5670111126603], [-111.632209496694, 40.5671791128746], [-111.632975497323, 40.5673371114402], [-111.633499498103, 40.5674141118412], [-111.633697497572, 40.5674731118936], [-111.633834498737, 40.5675531126333], [-111.633948495845, 40.5676741115658], [-111.634060496896, 40.5678041124142], [-111.634298498344, 40.5679561126448], [-111.634664498042, 40.568113112404], [-111.635132496949, 40.5682261127242], [-111.635291497856, 40.5682341123712], [-111.635455497888, 40.5682421126997], [-111.635581497386, 40.5682401126177], [-111.635799497844, 40.5682331119889], [-111.636249499004, 40.5681731129057], [-111.636476496988, 40.568143111638], [-111.636543498732, 40.5681421126191], [-111.636845497958, 40.5681181122772], [-111.637352497223, 40.5681251129181], [-111.637535499317, 40.5681211120645], [-111.63768849858, 40.5680951116288], [-111.637747499029, 40.5680701122501], [-111.637908498688, 40.5679851115632], [-111.638041498757, 40.5678371129515], [-111.638093614518, 40.5677618333521], [-111.638320906252, 40.5682508445481], [-111.63850970787, 40.5686570352834], [-111.638847171684, 40.5688025277355], [-111.639031449387, 40.5690645125702], [-111.639510475114, 40.5692952550651], [-111.639680881032, 40.5695556923903], [-111.639851290543, 40.5698161280196], [-111.640021700952, 40.5700765640001], [-111.640192113158, 40.5703369989669], [-111.640362527161, 40.5705974349674], [-111.640532942062, 40.5708578699542], [-111.640703356064, 40.5711183052922], [-111.640775287762, 40.5714001465158], [-111.640847218562, 40.5716819865523], [-111.640919149362, 40.5719638288135], [-111.640991082857, 40.5722456692053], [-111.641063015453, 40.5725275097746], [-111.641134948049, 40.5728093505215], [-111.641226115373, 40.5731412280652], [-111.641317282696, 40.5734731039628], [-111.641408450019, 40.5738049809436], [-111.641409081535, 40.5741097664533], [-111.641409714847, 40.5744145526217], [-111.641410346363, 40.5747193394486], [-111.641410977878, 40.5750241248872], [-111.641411609394, 40.5753289123489], [-111.641498575297, 40.5756024955329], [-111.641585540301, 40.575876076916], [-111.641672508, 40.5761496599095], [-111.641759476598, 40.5764232424667], [-111.641846443399, 40.5766968252696], [-111.641933412895, 40.5769704062716], [-111.642020380594, 40.5772439895664], [-111.642107350988, 40.5775175710601], [-111.642194321383, 40.5777911534818], [-111.642281292675, 40.5780647354671], [-111.642368265764, 40.5783383170159], [-111.642455237955, 40.5786118988105], [-111.642542211044, 40.5788854801685], [-111.642629186828, 40.57915906109], [-111.642716162613, 40.5794326415749], [-111.6428031366, 40.5797062236702], [-111.642890111486, 40.5799798046465], [-111.642977089965, 40.5802533865508], [-111.643064067546, 40.580526966654], [-111.643151046025, 40.5808005483674], [-111.643238024504, 40.5810741282795], [-111.643325004779, 40.5813477098018], [-111.643353882023, 40.5816280301774], [-111.643382762859, 40.581908348696], [-111.643411640102, 40.5821886687689], [-111.643440518244, 40.5824689869848], [-111.643469397283, 40.5827493074372], [-111.643498276323, 40.5830296267147], [-111.643527156261, 40.5833099448176], [-111.643761248241, 40.5835280707734], [-111.643995343814, 40.5837461939711], [-111.644229437591, 40.5839643171398], [-111.64446353496, 40.5841824409616], [-111.644697633229, 40.5844005627076], [-111.644931732395, 40.584618685789], [-111.644931802464, 40.5847455284641], [-111.645294765856, 40.5846545351776], [-111.645657731045, 40.5845635404029], [-111.64602069264, 40.5844725441399], [-111.646383655134, 40.584381547071], [-111.646746615831, 40.584290549196], [-111.647109574732, 40.5841995498327], [-111.647472536328, 40.5841085482989], [-111.647835493432, 40.584017548688], [-111.648198450536, 40.5839265455422], [-111.648561405843, 40.5838355415903], [-111.648924362049, 40.5837445368324], [-111.64928731556, 40.5836535305862], [-111.64965026907, 40.5835625235339], [-111.650013219886, 40.5834715143111], [-111.650376172499, 40.583380506329], [-111.650269884733, 40.5835740089205], [-111.650245021162, 40.5836192729909], [-111.650244156085, 40.5836208482648], [-111.650222273124, 40.5836606892438], [-111.650068371953, 40.5839408730318], [-111.649914469884, 40.584221055646], [-111.649820888787, 40.5843914236322], [-111.649810653383, 40.5843939778797], [-111.649792938606, 40.5843983959637], [-111.649375140252, 40.5845026022151], [-111.649209640932, 40.5845445234481], [-111.648975185134, 40.5846039122714], [-111.648768680417, 40.5846528794258], [-111.648527963362, 40.5847125505924], [-111.648451361323, 40.5847315395284], [-111.648187982468, 40.5848298897686], [-111.64754091968, 40.5852550007113], [-111.647511551957, 40.5852611051748], [-111.6474357593, 40.5852768582084], [-111.64620396423, 40.5855328623911], [-111.646273494731, 40.585807066272], [-111.647144758149, 40.5855152708544], [-111.647086753931, 40.5855533758389], [-111.646880296824, 40.5856860598793], [-111.646668331248, 40.5858222815958], [-111.646379285729, 40.5860080374766], [-111.645985632293, 40.5862610180561], [-111.646207153249, 40.5867783527111], [-111.646319040214, 40.5870396456795], [-111.646688687072, 40.5869476485897], [-111.647058335727, 40.586855650691], [-111.647427978991, 40.5867636499371], [-111.647811314378, 40.5866682435091], [-111.648262723198, 40.586555890363], [-111.648204118905, 40.5866613512318], [-111.648320557634, 40.5867000470313], [-111.647856073835, 40.5868598257495], [-111.647606807513, 40.5869455712962], [-111.64754673717, 40.586966233712], [-111.647533507681, 40.5869707853368], [-111.647452228114, 40.5869987438493], [-111.647429545653, 40.5870065461435], [-111.64738192596, 40.5870229263874], [-111.647081095443, 40.587126406786], [-111.646836170679, 40.5872106559362], [-111.646513848867, 40.5873215262562], [-111.646570619698, 40.5874757477118], [-111.646594980212, 40.587541921062], [-111.646630091763, 40.5876373010025], [-111.646727249951, 40.58790122932], [-111.64673814921, 40.5879308349279], [-111.646746361608, 40.5879531431588], [-111.646813588829, 40.5880092271687], [-111.646925373387, 40.588102473246], [-111.646953216669, 40.5881363246908], [-111.647074696743, 40.5882840089399], [-111.647095976934, 40.5883204512284], [-111.647274541351, 40.5882125514348], [-111.647463867585, 40.5881613902483], [-111.647456030683, 40.5881402602221], [-111.647481919231, 40.5881105332778], [-111.647484225206, 40.588017222404], [-111.647606028674, 40.5879161644701], [-111.64769604256, 40.5877608818605], [-111.647788481898, 40.5877039742385], [-111.647822896357, 40.5876936806658], [-111.647862832759, 40.5876817375545], [-111.647939310831, 40.5876588630145], [-111.648076585084, 40.5877002501606], [-111.648209169234, 40.5877497239619], [-111.648187615955, 40.587691612264], [-111.648288495863, 40.5876901919431], [-111.648327894175, 40.5876292388671], [-111.648401314381, 40.5875914638817], [-111.648458507421, 40.5876100699731], [-111.648512615645, 40.5875475743878], [-111.648566285492, 40.5875413036781], [-111.648760600969, 40.5875185934985], [-111.649042870496, 40.5873756358447], [-111.648958546539, 40.5872667016836], [-111.649335950349, 40.5872952924667], [-111.64947542817, 40.587234186219], [-111.649569843801, 40.5872210178028], [-111.64968643704, 40.5872047563092], [-111.649957583627, 40.5872340866185], [-111.650101506312, 40.5871822854661], [-111.650389769399, 40.5870658447772], [-111.650442873307, 40.5870443951365], [-111.650589762229, 40.5870542562962], [-111.650701226088, 40.5870546703898], [-111.650863133943, 40.5870086930192], [-111.650924297536, 40.5869418608201], [-111.650972325962, 40.586921564055], [-111.651147246813, 40.5869358567931], [-111.651389402969, 40.5869250937497], [-111.65148720974, 40.5868966406124], [-111.65154419437, 40.5867454454261], [-111.651541780597, 40.5866396722417], [-111.651568116506, 40.5865080604692], [-111.651687737966, 40.586438614931], [-111.651699917325, 40.5864188781024], [-111.651714276895, 40.5863956115455], [-111.651719126001, 40.5863877525572], [-111.651771707988, 40.5863025452371], [-111.651804411155, 40.586249550186], [-111.651810283442, 40.5862249096083], [-111.651822860755, 40.5861766476414], [-111.651849008018, 40.5860763052903], [-111.652219070796, 40.5861939661218], [-111.652371059454, 40.5862422901568], [-111.652612072953, 40.5863189195137], [-111.652676757043, 40.5864682177753], [-111.652742480484, 40.586619913642], [-111.652808203925, 40.5867716105291], [-111.652634062812, 40.5869246905704], [-111.651847502441, 40.5876161128244], [-111.65135450342, 40.5876611142445], [-111.651056503494, 40.5877631133036], [-111.650764504315, 40.5878321133614], [-111.650727502708, 40.5878411141645], [-111.650063503983, 40.5879861126108], [-111.649868505786, 40.588032113186], [-111.649821503235, 40.5880421133662], [-111.649740503942, 40.5880621137221], [-111.649426504123, 40.588145112611], [-111.649110503756, 40.588249114509], [-111.649071503397, 40.5882641137068], [-111.648163503376, 40.5886071139549], [-111.647858503778, 40.5887261142285], [-111.647562503502, 40.5888331147638], [-111.647270503424, 40.5889121137678], [-111.647071502334, 40.588939114373], [-111.646978502447, 40.588952113271], [-111.646667503001, 40.5889571143157], [-111.646107503134, 40.5889431132996], [-111.646022501847, 40.5889411138363], [-111.645817502706, 40.5889421132269], [-111.645699502705, 40.5889431132996], [-111.645379503038, 40.5889601145331], [-111.644951503416, 40.5889981138639], [-111.644663501739, 40.5890241143631], [-111.644359503762, 40.5890521136299], [-111.64388450159, 40.5890961140132], [-111.643681502098, 40.5891021137532], [-111.643607503377, 40.5891051139641], [-111.64344650282, 40.5891031138235], [-111.643324433451, 40.5891027133861], [-111.643141502323, 40.5891021137532], [-111.643052503533, 40.5891011136829], [-111.642934502634, 40.5891071141046], [-111.642775500829, 40.5891161147361], [-111.642493502593, 40.589160113713], [-111.642319501617, 40.5891951140879], [-111.642117501951, 40.5892381136267], [-111.641854486914, 40.5892971176291], [-111.641264501283, 40.5894311135644], [-111.641169227761, 40.5894508420002], [-111.641066502713, 40.5894721135042], [-111.641066992295, 40.5895435526091], [-111.641075501137, 40.5907861140842], [-111.64107850151, 40.5917331146414], [-111.641079502233, 40.5918641144765], [-111.641083502431, 40.5927941131552], [-111.641086501906, 40.5937241145882], [-111.641088502454, 40.5943011148301], [-111.63431150056, 40.5942791156724], [-111.633865500496, 40.5942731150327], [-111.634138698835, 40.5952764769918], [-111.634134405786, 40.5952771563766], [-111.634146786368, 40.5953215271438], [-111.634230697998, 40.5956222788478], [-111.634314613222, 40.5959230285167], [-111.634940870129, 40.5960873341566], [-111.634814246302, 40.596367770101], [-111.634687624271, 40.596648204187], [-111.634715159431, 40.5966781735736], [-111.635057519064, 40.5968287978962], [-111.635399879595, 40.5969794205153], [-111.635742242821, 40.5971300407488], [-111.636084606946, 40.5972806620071], [-111.635904604326, 40.597518392058], [-111.635724598112, 40.5977561226278], [-111.635403922912, 40.5976150435072], [-111.635083250407, 40.5974739647711], [-111.6347625788, 40.597332884373], [-111.634441905396, 40.5971918029952], [-111.634237368888, 40.5976447805502], [-111.633863585288, 40.5975467138071], [-111.633489799891, 40.5974486462381], [-111.633352700809, 40.5974126761568], [-111.633352500485, 40.5974131154237], [-111.632906501319, 40.5972961161811], [-111.631967501336, 40.597052116204], [-111.631632500702, 40.5969641156471], [-111.631484501462, 40.5972301155036], [-111.631450499331, 40.597271114754], [-111.631041501772, 40.5980181154928], [-111.630596501533, 40.5988241157578], [-111.629654501176, 40.5989411171008], [-111.628688644261, 40.5987190990052], [-111.628288500497, 40.5986271173012], [-111.628116499172, 40.5985901158679], [-111.627968501729, 40.5985621165024], [-111.627518500568, 40.5984841158697], [-111.626691500738, 40.5984591155689], [-111.626627500266, 40.5984391155944], [-111.627279500194, 40.5977801157479], [-111.625982500909, 40.5975031166431], [-111.625824462996, 40.5974692078697], [-111.625474498225, 40.5973941164468], [-111.62501349989, 40.5981991167978], [-111.624778498815, 40.5986091172332], [-111.623630498594, 40.5983601176147], [-111.624405498546, 40.599014116226], [-111.624137499655, 40.5991981166386], [-111.623430497679, 40.5986011164436], [-111.623065499603, 40.5987781151037], [-111.622717499448, 40.5987071169383], [-111.622606498222, 40.5990221169662], [-111.622274499757, 40.5999671163291], [-111.62191559675, 40.600132407161], [-111.621273498053, 40.6004281165748], [-111.619939498958, 40.6010431176047], [-111.619596499725, 40.6008851167934], [-111.619098498884, 40.6015101172412], [-111.618575079314, 40.6018061629479], [-111.618521668182, 40.6018363707846], [-111.61829049932, 40.6019671182471], [-111.618437498735, 40.6032441179037], [-111.618078499608, 40.6032681186027], [-111.617822572278, 40.6010313985454], [-111.617786498632, 40.6007161174288], [-111.617726498357, 40.6002011168555], [-111.61667949752, 40.6007871168709], [-111.61605749773, 40.6010681176212], [-111.61552949765, 40.6013091176005], [-111.615121497221, 40.6014931171525], [-111.614836498612, 40.6016851173016], [-111.614547498009, 40.6018801172189], [-111.614018497206, 40.601578118235], [-111.613773497882, 40.6011491176375], [-111.613715497257, 40.6008341174015], [-111.613692497691, 40.6007061177799], [-111.613087498517, 40.6005561180928], [-111.613059497131, 40.6000261170025], [-111.612883482133, 40.5997884981792], [-111.612827090391, 40.599712371254], [-111.612599497722, 40.59940511735], [-111.612049496105, 40.59940511735], [-111.611545498111, 40.5992181177502], [-111.611293497318, 40.5988381167513], [-111.61076349669, 40.5986011178077], [-111.610515496094, 40.5985471175683], [-111.61011549696, 40.5984531180327], [-111.609971496121, 40.59809111699], [-111.609634497634, 40.597897117554], [-111.609417496102, 40.5977721175875], [-111.610420496558, 40.5965031174333], [-111.610160497165, 40.5963841173575], [-111.610697496568, 40.5957041176356], [-111.610389496596, 40.5955631174023], [-111.609343496483, 40.5955631167202], [-111.609343496483, 40.5953071175104], [-111.609170494434, 40.5948351169091], [-111.609089496039, 40.594235116653], [-111.608891497469, 40.59398411712], [-111.608777494972, 40.5938381173549], [-111.608711495748, 40.5935251161021], [-111.608672496288, 40.5933161176337], [-111.608658496044, 40.5932381177018], [-111.608607495991, 40.5929501166926], [-111.608547581954, 40.5926050165816], [-111.608525945132, 40.5924803921307], [-111.608507494635, 40.5923741164099], [-111.608456494581, 40.5920861178185], [-111.608404494703, 40.5917951165325], [-111.608354493576, 40.5915071168116], [-111.608303495319, 40.5912191165325], [-111.608252495265, 40.5909301170166], [-111.608201495211, 40.5906401168864], [-111.608150496056, 40.5903521169662], [-111.608099494206, 40.59006111632], [-111.608049494875, 40.589777117558], [-111.607999495545, 40.5894901160321], [-111.607946494045, 40.5891971162722], [-111.60818349477, 40.5889571163623], [-111.608421495319, 40.5887141160449], [-111.608658494248, 40.5884731163685], [-111.60857449548, 40.5881611153274], [-111.608489493295, 40.5878481161527], [-111.608409493827, 40.5875421161689], [-111.608326495783, 40.5872311156582], [-111.608152494808, 40.5866051160072], [-111.606533494409, 40.5852351168571], [-111.606403492916, 40.5852521176688], [-111.60361349273, 40.5854751164798], [-111.603246493207, 40.5851731163881], [-111.603056494135, 40.585146116309], [-111.602231493056, 40.5850321178256], [-111.601167494297, 40.5851921161088], [-111.601024492385, 40.5852141168917], [-111.600730492658, 40.5851001157954], [-111.600134492806, 40.5848681165787], [-111.599549492825, 40.5848031167302], [-111.599266491171, 40.584676115889], [-111.59913149235, 40.5846151157216], [-111.598800491914, 40.5844671156879], [-111.598782492371, 40.5832141159343], [-111.598786170972, 40.583054292348], [-111.59878957379, 40.5829064075703], [-111.598817492531, 40.5816931163461], [-111.598825492028, 40.5813411158041], [-111.598827491678, 40.5812521162148], [-111.598834490453, 40.5811771177876], [-111.598967492319, 40.5799051159079], [-111.599018491474, 40.5794221174849], [-111.59902649187, 40.5793351164575], [-111.598981490766, 40.5793081153864], [-111.598510492384, 40.5790221169152], [-111.598447490838, 40.5784151157651], [-111.598090490463, 40.5779141166379]]]}, "properties": {"PrecinctID": "ALT001", "VistaID": "ALT001", "CountyID": 18}}]}