{"type":"FeatureCollection","crs":{"type":"name","properties":{"name":"EPSG:4326"}},"features":[{"type":"Feature","id":258,"geometry":{"type":"Polygon","coordinates":[[[-111.87217841058,40.5732794541081],[-111.872030961109,40.5732789457666],[-111.871984174154,40.5732787588061],[-111.871331522947,40.5732765664554],[-111.870523390433,40.5732739210324],[-111.870235344739,40.5732729384662],[-111.869713482848,40.5732711029779],[-111.869209462396,40.5732694012278],[-111.868687482826,40.5732676523963],[-111.868507543088,40.5732670232809],[-111.867924363992,40.5732651004532],[-111.867427667505,40.5732633359279],[-111.867430445994,40.5736888881563],[-111.867433401451,40.5741281327036],[-111.86743493757,40.5743476641699],[-111.86743635601,40.5745672863474],[-111.867437893028,40.5747869084864],[-111.867439310569,40.5750064405206],[-111.867440375073,40.5752260659942],[-111.867440907774,40.575459388229],[-111.867441380288,40.5756240648362],[-111.867442102533,40.5758812590686],[-111.867443897367,40.5760934015187],[-111.86744319219,40.5763040313044],[-111.867444280049,40.5767267128518],[-111.867444882819,40.5769380536476],[-111.867445102906,40.5770374183268],[-111.867445678726,40.577237498191],[-111.867445972475,40.5773608260284],[-111.867446136867,40.5774375788214],[-111.867446457566,40.5775721668679],[-111.867447060335,40.5777835077221],[-111.867447635257,40.5780017854278],[-111.867448303604,40.5782456468217],[-111.867448659336,40.5783829371402],[-111.867449357327,40.578665626544],[-111.867448240721,40.5789021762503],[-111.867377349273,40.5789021680629],[-111.86693698973,40.5789019606498],[-111.866745935137,40.5789018624014],[-111.866237519229,40.5789016222388],[-111.866079477723,40.5789052396885],[-111.866071210527,40.5789513365703],[-111.865083209242,40.5789418037571],[-111.865083766198,40.5789850411809],[-111.865084313272,40.5794861032446],[-111.865028733607,40.5794915641678],[-111.865029397462,40.5796073221246],[-111.865029790924,40.5796837127827],[-111.86502999035,40.5797266829587],[-111.865030741341,40.5798491963522],[-111.865030848241,40.579875861528],[-111.865031364772,40.5799709897273],[-111.865031905558,40.5800680097214],[-111.865032012457,40.58009467481],[-111.865032656549,40.5802179994271],[-111.865032961977,40.5802600679859],[-111.865034659792,40.5802600557051],[-111.865067105144,40.5802598128183],[-111.865067105144,40.5802611016195],[-111.865067081788,40.5803497197763],[-111.86506705933,40.5804763829243],[-111.865065276174,40.5805397277124],[-111.865067018906,40.5805397243011],[-111.865897309265,40.5805380882331],[-111.865897313756,40.5805393681595],[-111.865899109489,40.5810441853299],[-111.865610413414,40.5810412140945],[-111.865067290197,40.5810353732799],[-111.864629039001,40.5810306684252],[-111.864627331303,40.581030649322],[-111.864627368134,40.5809797466759],[-111.864627369033,40.5809784885902],[-111.86399159717,40.5809716243814],[-111.863356180142,40.5809647540316],[-111.863171552097,40.5809686565541],[-111.863176273642,40.5810051069222],[-111.86288828544,40.5810019432882],[-111.862726269787,40.5810001803313],[-111.862731073977,40.5815487237425],[-111.862731075773,40.5815489570731],[-111.861888750684,40.5808049973904],[-111.861581752334,40.5805357644434],[-111.862754521802,40.580541334443],[-111.864437985306,40.5805396492521],[-111.864423013085,40.5787436919149],[-111.864423003204,40.5787424276467],[-111.863798622877,40.5787377294535],[-111.863294645545,40.5787333894581],[-111.863205697959,40.5787322855259],[-111.863204008228,40.5787322650574],[-111.863194790615,40.5780519036608],[-111.863189904678,40.5776166373986],[-111.863195250552,40.5776097510115],[-111.86319559281,40.5776030631711],[-111.863195628743,40.5776023610911],[-111.862878587228,40.5774978861825],[-111.862764441,40.577460091147],[-111.862739994248,40.5774517152937],[-111.862699394888,40.577436794182],[-111.862658294269,40.5774196242214],[-111.862637974377,40.5774105865365],[-111.862615503021,40.5773995838392],[-111.862588505053,40.5773857318732],[-111.86255672715,40.5773676810556],[-111.862508246871,40.5773370534684],[-111.862485714428,40.5773213661123],[-111.862457946605,40.5773004359858],[-111.862456246094,40.5772991546329],[-111.862445142019,40.5772901380828],[-111.862433079441,40.5772800482788],[-111.862417782928,40.57726655927],[-111.862405227176,40.5772548517361],[-111.862387165648,40.5772376899165],[-111.862372199716,40.5772223068417],[-111.862346435135,40.5771941211313],[-111.862331544661,40.5771754043394],[-111.862310401014,40.5771481758735],[-111.862281968437,40.5771054162362],[-111.86223894722,40.5770306942672],[-111.862186129874,40.5769382985933],[-111.86211094358,40.5768060707176],[-111.862022948208,40.576651596771],[-111.861946552781,40.57651721634],[-111.861881869589,40.5764023864305],[-111.861815372699,40.5762843276476],[-111.86174538226,40.5761609794034],[-111.861709114577,40.5760968376261],[-111.861672709452,40.5760311653671],[-111.861598709832,40.5758623529091],[-111.861568044043,40.575673037882],[-111.861583664848,40.5755921127617],[-111.861618401801,40.5754541098372],[-111.861653721762,40.5753144062947],[-111.861654045155,40.5753131276329],[-111.861647929425,40.5753130901055],[-111.861647429063,40.5753130866939],[-111.861909187357,40.5742869295615],[-111.861901354048,40.573326655476],[-111.861904110079,40.5732468172113],[-111.861908418848,40.5731591438965],[-111.861258315713,40.5731585881315],[-111.861256617897,40.5731585860845],[-111.861255129389,40.5729595939557],[-111.861253658846,40.5727619529563],[-111.861252187406,40.5725643120555],[-111.861250786933,40.5723721655102],[-111.861249386459,40.5721800190954],[-111.861248212361,40.5720239063801],[-111.861248096478,40.5720057094576],[-111.861696693572,40.5720069588414],[-111.861909237663,40.5720076254979],[-111.861928495746,40.5720076616625],[-111.86192610443,40.5716924634129],[-111.861925687612,40.571623098705],[-111.861924300613,40.571432764525],[-111.86192429163,40.571431493295],[-111.861578009055,40.5714303831011],[-111.861370192797,40.5714296802739],[-111.860981383975,40.5714288853287],[-111.860945110903,40.5714286151155],[-111.860779710398,40.5714282261723],[-111.860455750957,40.5714266758584],[-111.860258921993,40.5714260699259],[-111.859806073173,40.5714245769299],[-111.859326641408,40.571423009557],[-111.85913477384,40.5714223647301],[-111.858835513578,40.5714214367252],[-111.858572758154,40.5714205073556],[-111.858564960777,40.5714204746025],[-111.858310004526,40.5714196666923],[-111.858040043715,40.5714187898642],[-111.85793389968,40.5714182501202],[-111.857932057235,40.5714182296495],[-111.857966056672,40.5709353889932],[-111.857977403292,40.5709172873053],[-111.857990149488,40.5708978236182],[-111.857991535588,40.5708952906909],[-111.857996367626,40.5708888307706],[-111.85799641344,40.5708887686756],[-111.857996398169,40.5708823633436],[-111.857996384694,40.5708772374399],[-111.857993050148,40.5708659109108],[-111.857990421677,40.5708635881498],[-111.857988256738,40.5708606314743],[-111.857985618386,40.5708574980668],[-111.857982383552,40.570854008466],[-111.857979266398,40.5708504281108],[-111.857975940835,40.5708490115266],[-111.857972489508,40.5708470551936],[-111.857942166875,40.5708316051428],[-111.857928366058,40.5708240507066],[-111.857931317023,40.5705463783567],[-111.857929919245,40.5705201734712],[-111.858196942565,40.5703593690198],[-111.858197100668,40.5703592741708],[-111.858154824154,40.5703324905642],[-111.858153390443,40.5703315816505],[-111.858147139965,40.5703231598685],[-111.858051669712,40.5702018006581],[-111.857914292152,40.5700273302866],[-111.857821947137,40.569910091384],[-111.858176227414,40.5697888146741],[-111.858073268804,40.5696083233137],[-111.858015616726,40.5695156915235],[-111.857929304797,40.5694121920695],[-111.857925056664,40.5694145865304],[-111.857583964554,40.569606850066],[-111.857470072549,40.5695229233435],[-111.857296437188,40.5693950234616],[-111.85726399543,40.5693711238785],[-111.856950051306,40.5695353589605],[-111.857010239328,40.5696025279024],[-111.857010798979,40.5696031481814],[-111.857010823233,40.5696031795706],[-111.856870880085,40.5696027462625],[-111.856748094759,40.5696023668619],[-111.85670371439,40.5695530850333],[-111.856564110805,40.5693954137813],[-111.856563711953,40.5693956075764],[-111.856306043689,40.5695206571732],[-111.856304482417,40.5695193101631],[-111.856105249561,40.5693474658487],[-111.856103745782,40.5693462280155],[-111.856014040017,40.5692689343677],[-111.855984325544,40.5692433322047],[-111.855984355189,40.5692433124157],[-111.856043412232,40.569203503793],[-111.855833049251,40.5690218337468],[-111.855768936489,40.5688205126256],[-111.855656188039,40.5686406321176],[-111.855541431855,40.5685349087792],[-111.855644156004,40.5684750505383],[-111.855409931074,40.5682274222289],[-111.85540952234,40.5682275184457],[-111.855360581225,40.5682390487733],[-111.855360054812,40.5682374942912],[-111.855284846959,40.5680155619152],[-111.855285023028,40.5677881792084],[-111.855685629424,40.5677893563374],[-111.855901585317,40.5677900087056],[-111.856550162664,40.567791868228],[-111.85739472905,40.5677942511462],[-111.857910874062,40.5677957346697],[-111.857909883221,40.5676256560627],[-111.857908912142,40.5674848566237],[-111.857906778643,40.5671419991871],[-111.857904510397,40.5667794130661],[-111.857903670472,40.5666396033817],[-111.85790260507,40.566250883729],[-111.857900899169,40.5662501835771],[-111.857867691148,40.5662365483563],[-111.857561540808,40.5661104464874],[-111.857254203793,40.5659839028604],[-111.856875346508,40.5659828396626],[-111.856657387373,40.5659822036546],[-111.855748696547,40.5659796596226],[-111.854992871135,40.5659775086599],[-111.85423704752,40.5659754429987],[-111.853945845146,40.5659746227394],[-111.853761391373,40.5659704914166],[-111.853345013256,40.5659729371815],[-111.853308627894,40.5659728457383],[-111.853230016323,40.5659685615551],[-111.853224548278,40.5655379826832],[-111.853232470521,40.5652316260987],[-111.853217723777,40.5628610780184],[-111.853216868581,40.5627192865172],[-111.853220602877,40.5627157453086],[-111.853400526446,40.5627172992366],[-111.853838226975,40.5627210915849],[-111.854078116681,40.5627101294661],[-111.854237624238,40.5627689487227],[-111.854472400734,40.5628389224763],[-111.854737177368,40.5629178620966],[-111.854911824232,40.5629688207959],[-111.855052502202,40.5630516508642],[-111.855355695288,40.5632345368462],[-111.855627583884,40.5633986450404],[-111.85575030004,40.5634252130418],[-111.856047260615,40.5634894973114],[-111.856330600035,40.5635508190613],[-111.856607243414,40.563610734254],[-111.856609320319,40.5636111832971],[-111.856475572851,40.5639098985887],[-111.856475282695,40.5639105475825],[-111.856789934691,40.5640094730135],[-111.857430057993,40.5642219247093],[-111.857432945178,40.5642167682684],[-111.857598055528,40.5639273524959],[-111.857621015568,40.5639307851335],[-111.857851327437,40.5639650200539],[-111.858078442202,40.5639986475922],[-111.85824721139,40.564023699674],[-111.858403667369,40.5640469644579],[-111.858404737263,40.5640471234645],[-111.858517358152,40.5642448393378],[-111.858632999177,40.564447758138],[-111.858734192597,40.5646254272547],[-111.858734624686,40.564626187477],[-111.858875929681,40.5646835132683],[-111.859003104175,40.5647350889002],[-111.859260066364,40.5648393012135],[-111.859499890494,40.5649612072148],[-111.859936618147,40.5651831763337],[-111.860355988553,40.5653963544913],[-111.860775242177,40.5656094412085],[-111.861281299109,40.5657836822056],[-111.861571761272,40.565883495417],[-111.861968706135,40.5660144946998],[-111.862367688376,40.5662213313074],[-111.862668471283,40.5663703441386],[-111.862669542075,40.566370875052],[-111.863018081219,40.5667796116457],[-111.863131593236,40.5670176759976],[-111.863279208895,40.5673447618057],[-111.86334937181,40.5675004493857],[-111.863489840473,40.5675562448308],[-111.864160245983,40.5678225752478],[-111.865054009504,40.5681776774099],[-111.865947900585,40.5685327722288],[-111.866955077309,40.5687218788597],[-111.868123165656,40.5689411974182],[-111.868124143921,40.5689413809789],[-111.868219556682,40.5690844435387],[-111.868332067977,40.5691702616847],[-111.868477270761,40.5692923419925],[-111.868478733218,40.5692935702733],[-111.868619903465,40.5693207964766],[-111.869072687606,40.5694005418457],[-111.869479252527,40.5694689214587],[-111.869990897879,40.5694686730737],[-111.870271668117,40.5694655668961],[-111.870471513624,40.5694623494909],[-111.870585664343,40.5695012183278],[-111.870851733652,40.569585246069],[-111.871390400328,40.5697555032544],[-111.871932986353,40.5699270797137],[-111.871932095224,40.5698038466711],[-111.871701757304,40.5695875736509],[-111.871695017244,40.5688861128055],[-111.871802109002,40.5686905355879],[-111.871799317038,40.5686912411734],[-111.871591220506,40.5687438372927],[-111.871591563663,40.5687420426231],[-111.871662027513,40.568373943973],[-111.871660078169,40.5683739330548],[-111.871428104417,40.5683726460718],[-111.870932732047,40.5683699854424],[-111.870870824649,40.5683696415191],[-111.86996701976,40.5682724906016],[-111.868949057863,40.5681630381041],[-111.868949845686,40.5681620308968],[-111.869070731075,40.5680074428235],[-111.869084609148,40.5677286976636],[-111.86908287001,40.567728056213],[-111.868907747038,40.5676634532416],[-111.868080774157,40.5673586881846],[-111.867890745441,40.5675543450404],[-111.867383110168,40.5674432058476],[-111.867233485876,40.5674104562383],[-111.866779674063,40.5671399963426],[-111.866024747864,40.5671902516854],[-111.865672660375,40.5672137009812],[-111.865346639301,40.5671697483016],[-111.864671167293,40.5668124741603],[-111.864097221081,40.5665084347208],[-111.863919150737,40.5662528906945],[-111.863746640067,40.5660017554377],[-111.86368906704,40.5659156118122],[-111.863542815922,40.5657589617534],[-111.86326156239,40.5654842246179],[-111.863260557175,40.5654836329623],[-111.862884599652,40.5652625424311],[-111.862671989086,40.5651446741785],[-111.862246187641,40.5649094816242],[-111.861573586648,40.5645611761501],[-111.861067474919,40.5642990105858],[-111.860729255621,40.5641867597678],[-111.860448574316,40.5640936284404],[-111.860026722763,40.563953620017],[-111.859882703959,40.5639057746452],[-111.859882704857,40.5639050655972],[-111.859882762349,40.5636149715001],[-111.859882973453,40.5630960648488],[-111.859881266654,40.5630951722155],[-111.859873459396,40.5630910905332],[-111.859806270803,40.5630560962904],[-111.859639668352,40.5629694104264],[-111.859399814578,40.5628446222487],[-111.859190900579,40.5626914052103],[-111.85894347221,40.5625099167616],[-111.858943398548,40.5625098382801],[-111.858855926894,40.5624163360974],[-111.858839039465,40.5623981740971],[-111.858713756822,40.5621615442045],[-111.858680105033,40.5620979220025],[-111.858601303918,40.561948962445],[-111.858530769101,40.5618275976033],[-111.8585298097,40.5618276078401],[-111.857867714505,40.5618345054059],[-111.85738742395,40.5618343777869],[-111.857352695979,40.5618343648203],[-111.85700068844,40.5618342740539],[-111.856504215634,40.5618341723682],[-111.855997112164,40.5618340570334],[-111.855846859051,40.5618339997073],[-111.855846850967,40.5618327242002],[-111.855845638241,40.5616268970326],[-111.85584570292,40.5614557299252],[-111.855845869108,40.5611163678825],[-111.855845928397,40.5610839359344],[-111.855836424221,40.5609034709178],[-111.855834765931,40.5609031221788],[-111.855272536446,40.5607846770736],[-111.854751863924,40.5606830381691],[-111.854433059915,40.5606183710702],[-111.854433047338,40.5606174381383],[-111.854430087389,40.5604124528127],[-111.854436617243,40.5602478138425],[-111.854460653465,40.5596485529624],[-111.854489846017,40.5588603397578],[-111.854492474488,40.558695459465],[-111.854490747027,40.5586954533227],[-111.854001082552,40.5586936877306],[-111.854001085247,40.5586924176236],[-111.85400344602,40.5573553269093],[-111.854462327925,40.5573556272093],[-111.854462762709,40.5569439228694],[-111.854619265402,40.55694402661],[-111.854614483669,40.5564937129614],[-111.854897838361,40.5564844096843],[-111.854908857995,40.5559485760067],[-111.85519138444,40.5559486469882],[-111.855590843687,40.5559488421873],[-111.855679009739,40.5559488967884],[-111.855680728216,40.5559488974709],[-111.855677312821,40.5563092592638],[-111.855677301143,40.5563105348761],[-111.856847576888,40.5563112303544],[-111.858018206569,40.5563119108175],[-111.858018875814,40.5562625379839],[-111.858652754926,40.5562652857735],[-111.858654478793,40.5562652925985],[-111.858653286729,40.5563569210101],[-111.858650283661,40.5566026126003],[-111.858647466544,40.5568165920464],[-111.858645793881,40.5569538082585],[-111.858643045935,40.5571824712905],[-111.858640262954,40.5574083421189],[-111.858637466498,40.557633221882],[-111.858634774248,40.557857019818],[-111.858631952639,40.5580799174806],[-111.858628605516,40.5583541697278],[-111.8586243484,40.5586495991012],[-111.858625080527,40.558761735675],[-111.858625088612,40.5587630139705],[-111.860336352279,40.5587610927736],[-111.86163961372,40.5587665144391],[-111.86269701076,40.5587670918219],[-111.86507226327,40.5587690587452],[-111.86722982075,40.558770719915],[-111.86935229812,40.5587724240813],[-111.870512110288,40.5587742197006],[-111.870513299657,40.558774221748],[-111.870549535899,40.558863406161],[-111.87055670715,40.5588817335992],[-111.870557231766,40.5588830774109],[-111.870747394332,40.5593747837533],[-111.8707549833,40.5593952670031],[-111.870761859903,40.5594154847623],[-111.870768382571,40.5594357052453],[-111.870774315045,40.5594560199042],[-111.870779896278,40.5594765181437],[-111.870785004997,40.5594970197892],[-111.870789641202,40.5595175248409],[-111.870793805791,40.5595381233857],[-111.870797381086,40.5595588167886],[-111.870800602445,40.5595795122325],[-111.870803352188,40.5596003018518],[-111.870805511738,40.559621096242],[-111.870807316453,40.5596418926732],[-111.870808650451,40.5596627825973],[-111.87080939246,40.5596835872052],[-111.87080978143,40.5597044846234],[-111.870809578411,40.5597252967256],[-111.870809023252,40.5597462009556],[-111.870807875205,40.5597670198696],[-111.870806373222,40.559787841507],[-111.870804281046,40.5598086679153],[-111.870801714559,40.5598294069603],[-111.870798794136,40.5598501494113],[-111.870795281723,40.5598708058642],[-111.870791297695,40.5598914664054],[-111.870786957036,40.5599120389012],[-111.870782025285,40.5599325260814],[-111.870776739598,40.5599530153028],[-111.870687260209,40.5602949322686],[-111.870686926934,40.5602962057576],[-111.870705417856,40.5602962289616],[-111.870707480388,40.5602962310089],[-111.870641331145,40.5605331200084],[-111.870623139362,40.5605330763305],[-111.870616493626,40.5605579911686],[-111.87056592117,40.560748187026],[-111.870532806574,40.5608726672259],[-111.870511290126,40.5609533678729],[-111.870489893154,40.5610340670576],[-111.870462750558,40.5611363408007],[-111.870434141013,40.5612439409904],[-111.870398320691,40.5613784414961],[-111.870316724019,40.5616995881537],[-111.870285991755,40.5618439601268],[-111.870258673987,40.5620239803789],[-111.870252749597,40.5621593371581],[-111.87024745852,40.562279823768],[-111.870242303089,40.5623959738829],[-111.870242246495,40.5623972473319],[-111.870712271103,40.5623979400172],[-111.870892295282,40.5623982041248],[-111.871468161194,40.5623990865307],[-111.871971969643,40.5623998795359],[-111.872152380996,40.5623986067694],[-111.872154100372,40.5623985944854],[-111.872148649394,40.5629706019714],[-111.872151911177,40.5634948872018],[-111.8721210792,40.5660246892468],[-111.872121427746,40.5670616847339],[-111.872123517228,40.5672226322244],[-111.872132595602,40.5679219364044],[-111.872140881662,40.5683599693558],[-111.872117019713,40.568360059431],[-111.87195643867,40.5683755059582],[-111.871957303747,40.56847855937],[-111.871850443754,40.5686736847861],[-111.87173123552,40.5688914251522],[-111.871737660271,40.5695776635148],[-111.871968233549,40.5697938444466],[-111.87196928368,40.5699384268728],[-111.872145654411,40.5699378161502],[-111.872160918585,40.5717230553722],[-111.871981259121,40.5717255828093],[-111.8716592086,40.5717255807623],[-111.871660932467,40.5719949296824],[-111.871600396797,40.5722370907241],[-111.871497141743,40.5726480166135],[-111.87149681835,40.5726493014673],[-111.871957426817,40.5726471773304],[-111.871989561351,40.5726472046241],[-111.872170872816,40.5726475314669],[-111.872172567937,40.5726475348786],[-111.87217841058,40.5732794541081]]]},"properties":{"OBJECTID":258,"COUNTYNBR":"18","NAME":"White City","COUNTYSEAT":0,"SHORTDESC":"WHITE CITY","UPDATED":1724630400000,"FIPS":"84050","ENTITYNBR":3904,"SALESTAXID":null,"IMSCOLOR":3,"MINNAME":"White City","POPLASTCENSUS":5522,"POPLASTESTIMATE":5598,"UGRCODE":"WMT","GNIS":null,"GlobalID":"e5edbafd-1cc5-4c19-9c58-0ee68a2b1762","Shape__Area":3930916.25390625,"Shape__Length":18516.503459415959}}]}