{"type":"FeatureCollection","crs":{"type":"name","properties":{"name":"EPSG:4326"}},"features":[{"type":"Feature","geometry":{"type":"Polygon","coordinates":[[[-111.864612591746,40.5804709261751],[-111.864556841401,40.5804349387736],[-111.864332771925,40.5804417204834],[-111.864321496272,40.5787468699837],[-111.863190435582,40.5787370164689],[-111.863190488583,40.5775435835275],[-111.862821418443,40.5774186608204],[-111.862761995786,40.5773953099396],[-111.862704856645,40.5773688532399],[-111.862677231654,40.5773545018269],[-111.862650277704,40.5773394210361],[-111.862624033423,40.5773236347476],[-111.862598527557,40.577307157289],[-111.86257378975,40.5772900118579],[-111.86254985414,40.5772722175581],[-111.862526748572,40.5772537969049],[-111.862504499998,40.5772347730958],[-111.862483135365,40.5772151686463],[-111.862462681624,40.5771950067537],[-111.862443164827,40.5771743133451],[-111.862424604734,40.5771531129826],[-111.862407030993,40.5771314295462],[-111.862390457974,40.5771092923742],[-111.862374908136,40.5770867280759],[-111.861917725844,40.5762929956744],[-111.861913922377,40.5753115971963],[-111.861649321813,40.5753115808206],[-111.861910542915,40.5742921814346],[-111.861905453959,40.573244682176],[-111.861998263402,40.573244991275],[-111.86199822208,40.5732398594113],[-111.86201465586,40.5732372105752],[-111.862111406212,40.5732214315068],[-111.862186321215,40.5732021499919],[-111.862276830074,40.5731768365983],[-111.86236413015,40.5731443975297],[-111.862448289715,40.5731036223058],[-111.862521538344,40.5730688646114],[-111.862576800903,40.5730359751461],[-111.862638294178,40.5729970278462],[-111.862706862583,40.5729622851079],[-111.86278797686,40.5729310168328],[-111.862875302987,40.5729033526704],[-111.862965815439,40.5728792469085],[-111.863029749436,40.57286598355],[-111.863098456182,40.5728574256186],[-111.863167762104,40.5728525455093],[-111.863422450657,40.5728528027522],[-111.863511533889,40.5727683724376],[-111.863941884402,40.5723463509598],[-111.864054861922,40.5722355574877],[-111.864164857934,40.5721276897461],[-111.864410808574,40.5718864924715],[-111.86459641219,40.5717044721557],[-111.864795274939,40.5715094504241],[-111.864877029715,40.5714292756366],[-111.865041950519,40.5713388524283],[-111.865244632905,40.5712277263442],[-111.865449241279,40.5711155431004],[-111.865656773669,40.5710017574853],[-111.865864303365,40.5708879716769],[-111.866074756178,40.5707725814391],[-111.866285208093,40.5706571923671],[-111.866498582227,40.5705402002196],[-111.866679779607,40.5704408490917],[-111.866922111833,40.5703079758201],[-111.867212404213,40.5701488064986],[-111.867454970001,40.570015803679],[-111.867513418885,40.5699837547591],[-111.86760600375,40.5698653912305],[-111.86775359246,40.5696767074911],[-111.867972559505,40.5693967689824],[-111.868151756336,40.5691676747841],[-111.868218378093,40.5690825021666],[-111.868500547008,40.5692990941248],[-111.869489546322,40.5694730941905],[-111.870469546313,40.56946409501],[-111.871931204993,40.5699216766938],[-111.871930301288,40.5698026115759],[-111.871712924261,40.5695985585265],[-111.871699954385,40.5695863815414],[-111.871695539165,40.569132379377],[-111.87173154993,40.5691329252809],[-111.871732018851,40.5691329355166],[-111.871732495856,40.5691329457523],[-111.871732546162,40.5691390933122],[-111.871736547258,40.5695770944138],[-111.871967547237,40.5697930952009],[-111.871968546163,40.5699330934558],[-111.871980546757,40.569937094201],[-111.872150974234,40.5699361204566],[-111.872155547558,40.5699360952088],[-111.872158547032,40.5701450944084],[-111.872158547032,40.5701750940963],[-111.872161547405,40.5703450952579],[-111.872165546705,40.5707040953447],[-111.872169546903,40.5710170949075],[-111.872170547626,40.5711440943867],[-111.872173547101,40.5713910936882],[-111.872176547474,40.5715270940914],[-111.872178547124,40.5716550949809],[-111.87217804766,40.5717217111359],[-111.872052056247,40.5717223614187],[-111.871959078818,40.5717228411132],[-111.871657397597,40.5717243921026],[-111.871658865444,40.5719939232152],[-111.871498743439,40.5726480527777],[-111.871959949286,40.572647684312],[-111.872049560727,40.5726476106188],[-111.872175552141,40.5726475089495],[-111.872175547649,40.5726480950831],[-111.872174546926,40.5730730951176],[-111.872174547824,40.5730850961069],[-111.872182535644,40.573274803295],[-111.872056611604,40.573277885414],[-111.871958108638,40.5732775653977],[-111.867425040831,40.5732628460093],[-111.867440623906,40.576035779144],[-111.867448205687,40.5773843822923],[-111.867451203365,40.5789062017036],[-111.866265320291,40.5789076815693],[-111.866261238346,40.5789451980993],[-111.866071250952,40.5789452861134],[-111.8650951757,40.5789457200433],[-111.865098612654,40.5794900194989],[-111.865041551667,40.5794900454254],[-111.865046453774,40.5802585165121],[-111.865080654433,40.5802583698249],[-111.865081693784,40.5804213596597],[-111.865067091669,40.5804211959162],[-111.865067069211,40.5804763569982],[-111.864612591746,40.5804709261751]]]},"properties":{"PrecinctID":"WHT001","VistaID":"WHT001","CountyID":18,"SubPrecinctID":null,"AliasName":null,"VersionNbr":null}},{"type":"Feature","geometry":{"type":"Polygon","coordinates":[[[-111.858531035002,40.5618376781358],[-111.855834774914,40.5618369131045],[-111.85583525192,40.5608962975407],[-111.854421936975,40.5606204594183],[-111.854456394552,40.5597311707944],[-111.854488911769,40.5588920391125],[-111.854490385904,40.5588539940157],[-111.854490382311,40.5588515882572],[-111.854839141542,40.558852175194],[-111.854976908971,40.5589571180517],[-111.855119663846,40.5588521137704],[-111.857925205784,40.5588700344508],[-111.862307406031,40.558864448315],[-111.862321736855,40.558856225058],[-111.862694271796,40.5588577831704],[-111.86269516023,40.5587690096062],[-111.86269690386,40.5587690123362],[-111.863249514185,40.5587693153598],[-111.869669010851,40.5587726308744],[-111.869866998641,40.5587727271048],[-111.870518117322,40.5587730430956],[-111.87055026623,40.5588619101548],[-111.870550383909,40.5588622336525],[-111.870794378018,40.5595367004197],[-111.870802631739,40.5595834303344],[-111.87080873669,40.5596303526749],[-111.87081268209,40.5596774080653],[-111.870814469738,40.5597245412249],[-111.870814090649,40.5597716920957],[-111.870811551112,40.5598188033497],[-111.870806850228,40.5598658210717],[-111.870799995184,40.5599126831565],[-111.870790992268,40.5599593315944],[-111.870779856752,40.5600057111054],[-111.870766599415,40.5600517670923],[-111.870751236427,40.5600974415458],[-111.870249361152,40.561935734455],[-111.870229262246,40.5623963553717],[-111.870064186931,40.562392024553],[-111.870031033707,40.5623920211408],[-111.869782300087,40.5623919842886],[-111.869534190795,40.5623919467539],[-111.869530361277,40.5623919467539],[-111.869353783933,40.5623919208209],[-111.869350406268,40.5623919180911],[-111.869026483658,40.5623918703197],[-111.868889777139,40.5623918491638],[-111.86877454395,40.5623918307377],[-111.868450622238,40.5623917802364],[-111.868270664534,40.5623917515736],[-111.86791075182,40.5623916935655],[-111.867797379041,40.5623916744569],[-111.867687065925,40.5623916553484],[-111.867676809859,40.5623916553484],[-111.867511318624,40.5623916280504],[-111.867442865203,40.5623916150839],[-111.8672599206,40.5623915850561],[-111.867208920547,40.5623915755019],[-111.867001538175,40.562391540697],[-111.86697497589,40.5623915352374],[-111.866741033031,40.5623914956554],[-111.866507089273,40.562391454026],[-111.866489092425,40.5623914519787],[-111.866273144617,40.5623914130791],[-111.866237154513,40.5623914076196],[-111.866039200859,40.5623913714498],[-111.865985213907,40.5623913618955],[-111.865697242773,40.5623913107118],[-111.865679288145,40.5623913066171],[-111.865499330441,40.5623912738596],[-111.86548132461,40.5623912697649],[-111.865163639901,40.5623912124392],[-111.865157413678,40.5623912103919],[-111.86492346992,40.5623911660327],[-111.864911702888,40.5623911639854],[-111.86468952706,40.5623911216736],[-111.864659762282,40.5623911155315],[-111.864455583302,40.562391076632],[-111.864407821675,40.5623910677601],[-111.864221637748,40.5623910315904],[-111.864155884662,40.5623910186238],[-111.86398769399,40.5623909865488],[-111.863903944056,40.5623909688051],[-111.863753752927,40.5623909394598],[-111.86365200345,40.5623909196688],[-111.863501811423,40.5623908889586],[-111.863400065539,40.5623908684851],[-111.863249871715,40.5623908377749],[-111.863148126729,40.562390816619],[-111.862997933803,40.5623907865913],[-111.862896185224,40.562390764753],[-111.862745994095,40.5623907347252],[-111.862644246415,40.5623907128869],[-111.862644281449,40.5622946417975],[-111.862266371887,40.5622945687754],[-111.862160085019,40.5622967062075],[-111.862159457097,40.5624513197554],[-111.862050403418,40.5624518227196],[-111.861762457437,40.5624517653939],[-111.861762433182,40.5625176714109],[-111.86127652636,40.5625175629017],[-111.861187569791,40.5625239369594],[-111.861187894981,40.5624315055575],[-111.861096452773,40.5624339964934],[-111.860821334735,40.5624339357555],[-111.86073149063,40.5624136868328],[-111.860613894871,40.5623871812152],[-111.860427165666,40.5623450932292],[-111.860411806271,40.5623416325299],[-111.860237572632,40.5622511356222],[-111.860161687448,40.5622117220739],[-111.860067922197,40.5621630203459],[-111.85993505418,40.5620442792384],[-111.85980398459,40.5619271457803],[-111.859739607724,40.5618442801978],[-111.85970071696,40.561794214658],[-111.859582365718,40.561641874219],[-111.859479905674,40.561466217941],[-111.859377446527,40.5612905618846],[-111.859274989177,40.5611149060497],[-111.859176275108,40.5609456690044],[-111.85914232418,40.5608874609982],[-111.859098915789,40.5608181485603],[-111.858603682657,40.5609377387799],[-111.858125047697,40.5610569698107],[-111.858166173469,40.56112896544],[-111.858284236352,40.56135203579],[-111.858296416609,40.5613750483102],[-111.858397452824,40.5615659502364],[-111.858488867184,40.5617386655531],[-111.858498492632,40.5617568523007],[-111.858539039889,40.5618334632982],[-111.858531035002,40.5618376781358]]]},"properties":{"PrecinctID":"WHT004","VistaID":"WHT004","CountyID":18,"SubPrecinctID":null,"AliasName":null,"VersionNbr":null}},{"type":"Feature","geometry":{"type":"Polygon","coordinates":[[[-111.861760938386,40.5806884760081],[-111.861579686209,40.580531068423],[-111.862754387953,40.5805413214801],[-111.864333547171,40.5805582382019],[-111.864332771925,40.5804417204834],[-111.864556841401,40.5804349387736],[-111.864612591746,40.5804709261751],[-111.865067069211,40.5804763569982],[-111.865067091669,40.5804211959162],[-111.865081693784,40.5804213596597],[-111.865082444776,40.5805390290746],[-111.865905684258,40.5805382035357],[-111.865904096935,40.5810497088936],[-111.864632336716,40.581036183803],[-111.864632340309,40.5809840312626],[-111.86367300157,40.5809738205735],[-111.863672644939,40.5809930302583],[-111.863361228674,40.5809914508289],[-111.863361228674,40.5810127707348],[-111.862731516846,40.5810060648136],[-111.862731496185,40.5814452435835],[-111.862735597893,40.5815348910565],[-111.861760938386,40.5806884760081]]]},"properties":{"PrecinctID":"WHT005","VistaID":"WHT005","CountyID":18,"SubPrecinctID":null,"AliasName":null,"VersionNbr":null}},{"type":"Feature","geometry":{"type":"Polygon","coordinates":[[[-111.854490382311,40.5588515882572],[-111.8544902817,40.5586728329936],[-111.854003290611,40.5586729920129],[-111.85402351079,40.5573573116191],[-111.854482365746,40.5573575934916],[-111.854488689885,40.5569458884813],[-111.85464531924,40.5569459847143],[-111.854652239861,40.5564953591725],[-111.854900838734,40.556495163975],[-111.85490969792,40.5559502788798],[-111.855681053406,40.5559505901063],[-111.855681546581,40.5563124377156],[-111.858025773079,40.5563138238946],[-111.85802628422,40.5562654557187],[-111.858653973042,40.5562646653709],[-111.858623018894,40.558766730787],[-111.862158843548,40.5587687188674],[-111.86269516023,40.5587690096062],[-111.862694271796,40.5588577831704],[-111.862321736855,40.558856225058],[-111.862307406031,40.558864448315],[-111.857925205784,40.5588700344508],[-111.855119663846,40.5588521137704],[-111.854976908971,40.5589571180517],[-111.854839141542,40.558852175194],[-111.854490382311,40.5588515882572]]]},"properties":{"PrecinctID":"WHT006","VistaID":"WHT006","CountyID":18,"SubPrecinctID":null,"AliasName":null,"VersionNbr":null}},{"type":"Feature","geometry":{"type":"Polygon","coordinates":[[[-111.853124541532,40.5659738557082],[-111.853124542431,40.5659720957674],[-111.853122542781,40.5658440942438],[-111.853122541883,40.565722165966],[-111.853122543679,40.5657086084329],[-111.853122543679,40.5656260948814],[-111.853121542058,40.5655450948278],[-111.853126542081,40.5654630949348],[-111.853149542545,40.5644670947222],[-111.853171544083,40.5635240955141],[-111.853177541236,40.5630170954112],[-111.853178541061,40.5629030960707],[-111.853180541609,40.5627170951854],[-111.854082542681,40.5627220947794],[-111.854235541943,40.5627680963491],[-111.854918542732,40.5629710940126],[-111.85562554381,40.5633970945405],[-111.855756543331,40.5634190943019],[-111.856403542338,40.5635550931627],[-111.856595542857,40.5635960946317],[-111.856607542553,40.5636100948114],[-111.856437542673,40.563978094778],[-111.856475542308,40.5639870946962],[-111.856691543117,40.5640610955701],[-111.856811542767,40.5641020946819],[-111.857041542921,40.5641810942312],[-111.85717454299,40.5642260950385],[-111.857296543189,40.5642680951732],[-111.85742954236,40.5642190946723],[-111.857595544736,40.5639280949829],[-111.857623541631,40.5639300951938],[-111.857747543276,40.5639480957243],[-111.858398544277,40.564045094595],[-111.85873254329,40.5646250949133],[-111.859270544313,40.564844094557],[-111.86077154561,40.5656070957454],[-111.861943545222,40.5660110956072],[-111.862666545295,40.5663690946495],[-111.863022544947,40.5667890950114],[-111.863069545701,40.5668910945066],[-111.863347546434,40.5674990948286],[-111.86395254471,40.567740096375],[-111.864381546852,40.5679100948513],[-111.865275546629,40.5682650948732],[-111.865964546367,40.5685350950706],[-111.867622546226,40.5688470941696],[-111.868122546716,40.5689400953715],[-111.86819454489,40.5690470948042],[-111.868216545529,40.5690810957806],[-111.868218378093,40.5690825021666],[-111.868151756336,40.5691676747841],[-111.867972559505,40.5693967689824],[-111.86775359246,40.5696767074911],[-111.86760600375,40.5698653912305],[-111.867513418885,40.5699837547591],[-111.867454970001,40.570015803679],[-111.867212404213,40.5701488064986],[-111.866922111833,40.5703079758201],[-111.866679779607,40.5704408490917],[-111.866498582227,40.5705402002196],[-111.866285208093,40.5706571923671],[-111.866074756178,40.5707725814391],[-111.865864303365,40.5708879716769],[-111.865656773669,40.5710017574853],[-111.865449241279,40.5711155431004],[-111.865244632905,40.5712277263442],[-111.865041950519,40.5713388524283],[-111.864877029715,40.5714292756366],[-111.864795274939,40.5715094504241],[-111.86459641219,40.5717044721557],[-111.864410808574,40.5718864924715],[-111.864164857934,40.5721276897461],[-111.864054861922,40.5722355574877],[-111.863941884402,40.5723463509598],[-111.863511533889,40.5727683724376],[-111.863422450657,40.5728528027522],[-111.863167762104,40.5728525455093],[-111.863098456182,40.5728574256186],[-111.863029749436,40.57286598355],[-111.862965815439,40.5728792469085],[-111.862875302987,40.5729033526704],[-111.86278797686,40.5729310168328],[-111.862706862583,40.5729622851079],[-111.862638294178,40.5729970278462],[-111.862576800903,40.5730359751461],[-111.862521538344,40.5730688646114],[-111.862448289715,40.5731036223058],[-111.86236413015,40.5731443975297],[-111.862276830074,40.5731768365983],[-111.862186321215,40.5732021499919],[-111.862111406212,40.5732214315068],[-111.86201465586,40.5732372105752],[-111.86199822208,40.5732398594113],[-111.86199763548,40.5731626507767],[-111.861264780888,40.5731602196036],[-111.861256007043,40.572007310252],[-111.86193633175,40.5720094282681],[-111.861931940785,40.5714330142674],[-111.857945458302,40.5714205435205],[-111.857928712807,40.5710016039542],[-111.8579474858,40.5709668028615],[-111.857967759878,40.5709324964628],[-111.857991266094,40.5708955772829],[-111.857993685257,40.5708747604655],[-111.857976504079,40.5708497744077],[-111.857921467895,40.5708203529835],[-111.857918475606,40.5705266054501],[-111.85818906434,40.570365508961],[-111.858139184485,40.5703293892032],[-111.857813968301,40.5699163337222],[-111.858168210849,40.5697950338229],[-111.858036625626,40.569565535657],[-111.85801983791,40.5695396108437],[-111.858001959639,40.5695141138702],[-111.857983013271,40.5694890679376],[-111.857963017671,40.5694645023888],[-111.857919960521,40.569416910024],[-111.857574245681,40.5696118464158],[-111.857254294523,40.5693760656557],[-111.856940636063,40.5695403307501],[-111.857002847092,40.5696094096547],[-111.85674012221,40.5696086051346],[-111.856554453916,40.569400343274],[-111.856296352663,40.5695256303286],[-111.855976333233,40.5692495930293],[-111.856035419921,40.5692097591623],[-111.855823307021,40.5690267960212],[-111.855759237379,40.5688255404237],[-111.855644911487,40.5686466200447],[-111.8555317031,40.568539929775],[-111.85563442186,40.5684800503845],[-111.855400155607,40.5682324603074],[-111.85535079947,40.5682440718384],[-111.855275135272,40.568020610928],[-111.855275249358,40.5677903594559],[-111.857921925137,40.5677978705613],[-111.857911987075,40.5662677126214],[-111.857239412134,40.5659848664261],[-111.85339448797,40.5659745831595],[-111.853178528484,40.565974001062],[-111.853124541532,40.5659738557082]]]},"properties":{"PrecinctID":"WHT002","VistaID":"WHT002","CountyID":18,"SubPrecinctID":null,"AliasName":null,"VersionNbr":null}},{"type":"Feature","geometry":{"type":"Polygon","coordinates":[[[-111.871695539165,40.569132379377],[-111.87169313168,40.5688849377431],[-111.871800310575,40.5686893673459],[-111.871589207382,40.5687428178112],[-111.871590887231,40.5687341788312],[-111.871642441545,40.5684656731813],[-111.871660168001,40.5683734110283],[-111.871654384647,40.5683733796385],[-111.871498244874,40.568371676399],[-111.870862978763,40.5683691263164],[-111.869758031201,40.5682502611056],[-111.869512218901,40.56822381512],[-111.868941297318,40.5681623939282],[-111.869062989394,40.5680068047877],[-111.869076749788,40.5677279572659],[-111.868072852813,40.5673579129806],[-111.867882903148,40.567553570521],[-111.867225560041,40.5674096905884],[-111.866771836262,40.5671392136296],[-111.865664838744,40.5672128404755],[-111.865338744906,40.5671689198682],[-111.864089769556,40.5665081740415],[-111.863798147669,40.5660896138509],[-111.863648982416,40.565875518691],[-111.86322146968,40.5654579617918],[-111.862260768196,40.5649253124694],[-111.861057515297,40.5643020398888],[-111.859872802728,40.5639088264862],[-111.859873165647,40.5630990587193],[-111.859389984314,40.5628476338739],[-111.858933714709,40.5625129577471],[-111.858829264896,40.5624011980264],[-111.858531035002,40.5618376781358],[-111.858539039889,40.5618334632982],[-111.858498492632,40.5617568523007],[-111.858488867184,40.5617386655531],[-111.858397452824,40.5615659502364],[-111.858296416609,40.5613750483102],[-111.858284236352,40.56135203579],[-111.858166173469,40.56112896544],[-111.858125047697,40.5610569698107],[-111.858603682657,40.5609377387799],[-111.859098915789,40.5608181485603],[-111.85914232418,40.5608874609982],[-111.859176275108,40.5609456690044],[-111.859274989177,40.5611149060497],[-111.859377446527,40.5612905618846],[-111.859479905674,40.561466217941],[-111.859582365718,40.561641874219],[-111.85970071696,40.561794214658],[-111.859739607724,40.5618442801978],[-111.85980398459,40.5619271457803],[-111.85993505418,40.5620442792384],[-111.860067922197,40.5621630203459],[-111.860161687448,40.5622117220739],[-111.860237572632,40.5622511356222],[-111.860411806271,40.5623416325299],[-111.860427165666,40.5623450932292],[-111.860613894871,40.5623871812152],[-111.86073149063,40.5624136868328],[-111.860821334735,40.5624339357555],[-111.861096452773,40.5624339964934],[-111.861187894981,40.5624315055575],[-111.861187569791,40.5625239369594],[-111.86127652636,40.5625175629017],[-111.861762433182,40.5625176714109],[-111.861762457437,40.5624517653939],[-111.862050403418,40.5624518227196],[-111.862159457097,40.5624513197554],[-111.862160085019,40.5622967062075],[-111.862266371887,40.5622945687754],[-111.862644281449,40.5622946417975],[-111.862644246415,40.5623907128869],[-111.862745994095,40.5623907347252],[-111.862896185224,40.562390764753],[-111.862997933803,40.5623907865913],[-111.863148126729,40.562390816619],[-111.863249871715,40.5623908377749],[-111.863400065539,40.5623908684851],[-111.863501811423,40.5623908889586],[-111.86365200345,40.5623909196688],[-111.863753752927,40.5623909394598],[-111.863903944056,40.5623909688051],[-111.86398769399,40.5623909865488],[-111.864155884662,40.5623910186238],[-111.864221637748,40.5623910315904],[-111.864407821675,40.5623910677601],[-111.864455583302,40.562391076632],[-111.864659762282,40.5623911155315],[-111.86468952706,40.5623911216736],[-111.864911702888,40.5623911639854],[-111.86492346992,40.5623911660327],[-111.865157413678,40.5623912103919],[-111.865163639901,40.5623912124392],[-111.86548132461,40.5623912697649],[-111.865499330441,40.5623912738596],[-111.865679288145,40.5623913066171],[-111.865697242773,40.5623913107118],[-111.865985213907,40.5623913618955],[-111.866039200859,40.5623913714498],[-111.866237154513,40.5623914076196],[-111.866273144617,40.5623914130791],[-111.866489092425,40.5623914519787],[-111.866507089273,40.562391454026],[-111.866741033031,40.5623914956554],[-111.86697497589,40.5623915352374],[-111.867001538175,40.562391540697],[-111.867208920547,40.5623915755019],[-111.8672599206,40.5623915850561],[-111.867442865203,40.5623916150839],[-111.867511318624,40.5623916280504],[-111.867676809859,40.5623916553484],[-111.867687065925,40.5623916553484],[-111.867797379041,40.5623916744569],[-111.86791075182,40.5623916935655],[-111.868270664534,40.5623917515736],[-111.868450622238,40.5623917802364],[-111.86877454395,40.5623918307377],[-111.868889777139,40.5623918491638],[-111.869026483658,40.5623918703197],[-111.869350406268,40.5623919180911],[-111.869353783933,40.5623919208209],[-111.869530361277,40.5623919467539],[-111.869534190795,40.5623919467539],[-111.869782300087,40.5623919842886],[-111.870031033707,40.5623920211408],[-111.870064186931,40.562392024553],[-111.870229262246,40.5623963553717],[-111.870240442678,40.5623963717505],[-111.871956008377,40.5623989329798],[-111.872003581358,40.5623990019071],[-111.872147546263,40.5623992155135],[-111.872147547162,40.5624010936118],[-111.872160546682,40.5631440930112],[-111.872165546705,40.5634030931733],[-111.872167546355,40.56376609408],[-111.872174546027,40.5648550938596],[-111.872177546401,40.5652190948256],[-111.872150323854,40.5655675640679],[-111.872147547162,40.5656030933765],[-111.872134545845,40.5657580937224],[-111.872116546301,40.5659960941492],[-111.872126546347,40.5673800950051],[-111.872130546545,40.56792109365],[-111.87213154637,40.5680780941737],[-111.872134546743,40.5683300937313],[-111.872134545845,40.5683560947581],[-111.872130226745,40.5683565260272],[-111.871954545919,40.5683740940983],[-111.871954572869,40.5683749928028],[-111.871957546292,40.5684780946647],[-111.871934716508,40.568519602178],[-111.871847546688,40.5686780943549],[-111.871788546238,40.5687860945805],[-111.871730546512,40.5688910948791],[-111.871732495856,40.5691329457523],[-111.871732018851,40.5691329355166],[-111.87173154993,40.5691329252809],[-111.871695539165,40.569132379377]]]},"properties":{"PrecinctID":"WHT003","VistaID":"WHT003","CountyID":18,"SubPrecinctID":null,"AliasName":null,"VersionNbr":null}}]}