{"type":"FeatureCollection","crs":{"type":"name","properties":{"name":"EPSG:4326"}},"features":[{"type":"Feature","geometry":{"type":"Polygon","coordinates":[[[-111.809994691892,40.7549909299899],[-111.808986103017,40.7558133632342],[-111.808336692931,40.7563431982654],[-111.807763554305,40.7574984059644],[-111.8069789316,40.7578312635271],[-111.806410606147,40.7588877875857],[-111.805929914046,40.7593248138218],[-111.80569014112,40.7596694412201],[-111.805360410003,40.7601290130834],[-111.804878871689,40.7603596568616],[-111.804246793698,40.7606824230354],[-111.803526047498,40.7613952397325],[-111.802895407711,40.7620161697908],[-111.802443939602,40.7622466838672],[-111.801842433976,40.7626611109042],[-111.801542715573,40.7630976721144],[-111.80076196281,40.7638794429389],[-111.800282172617,40.7645457953284],[-111.800013037358,40.7650740265064],[-111.799593462136,40.7656943758586],[-111.799386527126,40.7666581845783],[-111.799298067325,40.7671171481859],[-111.799390649495,40.7675756691162],[-111.799272594697,40.7681951889068],[-111.799065573448,40.7691131441077],[-111.798916836691,40.7695952268016],[-111.798828951812,40.7701917450117],[-111.798559082629,40.7705823282653],[-111.798077289193,40.7707899736324],[-111.797414404378,40.7709751760409],[-111.796751899551,40.7712520782894],[-111.796361738766,40.7717117707552],[-111.796000746277,40.7719649673496],[-111.795458813327,40.7722185990545],[-111.79464617666,40.7726564240678],[-111.793742845184,40.7730715351975],[-111.792809594418,40.7735326076316],[-111.791905293659,40.7737183561511],[-111.79142364575,40.773971825377],[-111.790821894884,40.7743402534053],[-111.790401646824,40.7748458949776],[-111.78992051365,40.7752140324436],[-111.78952937909,40.7754673245349],[-111.789199682109,40.7759956743388],[-111.788838570145,40.776202995309],[-111.788447832641,40.7765708687968],[-111.78802699349,40.7769389470455],[-111.787636891094,40.7774214906313],[-111.787246817445,40.777927005355],[-111.786705360603,40.7783182417453],[-111.786314380553,40.7786173749034],[-111.785833231209,40.7790084670994],[-111.785412143225,40.779307622318],[-111.785171673206,40.7795376227017],[-111.784871402339,40.7798823473129],[-111.78451121025,40.7803419759844],[-111.784271954754,40.7808470855215],[-111.783972592982,40.7814212469063],[-111.783309712659,40.7816292495179],[-111.78264704344,40.7819060713114],[-111.782135929891,40.7823431141904],[-111.781564337266,40.7827573220301],[-111.780811470006,40.7831260904054],[-111.780149468236,40.7835634238593],[-111.779789916645,40.7841835638641],[-111.779308327126,40.784482835212],[-111.778071999157,40.7846692754623],[-111.776896555404,40.7850160935421],[-111.775630879474,40.7854318803894],[-111.775180521683,40.7859834315891],[-111.774880880535,40.7865116276943],[-111.774339280861,40.7869028073996],[-111.773948166064,40.7871789277419],[-111.773013932542,40.7875021975501],[-111.772351309137,40.7878019314053],[-111.771326627842,40.7881253430508],[-111.770633445548,40.7883562664562],[-111.77018232868,40.7887243011628],[-111.76945992958,40.7892076494234],[-111.768828217204,40.78971363079],[-111.768437755482,40.7901732301936],[-111.767805163656,40.7904499470032],[-111.766871661362,40.7909566643072],[-111.765878499255,40.7916469120282],[-111.764825841727,40.7925667201818],[-111.76449749222,40.7934848745431],[-111.764197249201,40.7938984593043],[-111.763384623313,40.7944506508632],[-111.762360304039,40.7949117190776],[-111.760461220613,40.7955122318112],[-111.759346279293,40.795950448704],[-111.75856272199,40.7962503586424],[-111.757449034718,40.7970096996175],[-111.756515526136,40.7975621862801],[-111.755278605278,40.7977024434148],[-111.754102973778,40.7980948832712],[-111.752716047743,40.7984419358878],[-111.751903477551,40.7990858420323],[-111.751786786395,40.800164102479],[-111.75181940063,40.8008061912463],[-111.751701130236,40.8014716041032],[-111.751583018844,40.8021828693612],[-111.751706385381,40.8028935517252],[-111.751678702897,40.8035817061087],[-111.751710368511,40.8039715646829],[-111.750866017721,40.804179752332],[-111.749056978723,40.8047340893579],[-111.748214482056,40.805446807416],[-111.747371850641,40.8061596109742],[-111.746799360599,40.806436002769],[-111.746227164306,40.8067813044174],[-111.745322258082,40.8069437206548],[-111.744720131721,40.8073807333734],[-111.743906592246,40.8077952351521],[-111.743002739747,40.8082558047571],[-111.742188732251,40.808555709413],[-111.74134504801,40.8089702058922],[-111.742193631662,40.8099318052338],[-111.742803148464,40.8115359766413],[-111.743078446166,40.812544588682],[-111.743442969033,40.8131860722354],[-111.743293890019,40.8137138452407],[-111.743446508396,40.8141722913076],[-111.743993417114,40.814963397999],[-111.74419276136,40.8159631279586],[-111.74421920327,40.8167694806524],[-111.743938209351,40.817483047736],[-111.743708669135,40.8180159342739],[-111.743380645716,40.8187771867267],[-111.743141183607,40.8195693078618],[-111.740479461047,40.8195618291647],[-111.74050909557,40.8240495382401],[-111.740455983577,40.8241148298006],[-111.740116363806,40.8246176057679],[-111.73950213534,40.8250287247606],[-111.738930506782,40.8251972406997],[-111.737836142272,40.8255379161586],[-111.737027013526,40.8261389042685],[-111.736655260119,40.8265703484935],[-111.73628350222,40.8270017919508],[-111.735912002138,40.8274570146289],[-111.736327463075,40.8281455783641],[-111.735988436192,40.8286959032623],[-111.73493953991,40.8296702720021],[-111.734267113191,40.8309086142656],[-111.733514303423,40.831646055815],[-111.732700980443,40.8322210951017],[-111.731857816327,40.8328878438753],[-111.731168696215,40.8344717450691],[-111.730475748381,40.8349317794484],[-111.729480395283,40.8352777837156],[-111.727064921604,40.8353512269133],[-111.725976207497,40.834871720388],[-111.725100562996,40.8348963248584],[-111.724043104871,40.8347148716874],[-111.722652042992,40.834121202513],[-111.721897558765,40.8342602412116],[-111.720388288476,40.834423629389],[-111.718605644677,40.8341058507926],[-111.716704481651,40.834499273614],[-111.715617612684,40.8345470990217],[-111.715013150702,40.8344105858898],[-111.714045394748,40.833930757193],[-111.712896698333,40.8335429335714],[-111.711052410342,40.8327894120826],[-111.709117293693,40.8319671454295],[-111.707362659365,40.8308923142944],[-111.706064251521,40.8308945933407],[-111.703978784741,40.8302101771977],[-111.701773275191,40.829778238711],[-111.700835803242,40.82929820452],[-111.699687008911,40.8288184530181],[-111.698780561179,40.828613600608],[-111.698235297276,40.8280182032991],[-111.695816346218,40.8268296541561],[-111.694396184314,40.826419139749],[-111.693337726364,40.8258475257346],[-111.692369281403,40.8250463680264],[-111.6911594187,40.8242685385607],[-111.690009464643,40.8233071069057],[-111.689673729187,40.8220232525336],[-111.689550270125,40.821083150501],[-111.689212650901,40.8190883601883],[-111.689782139672,40.8181681690114],[-111.691147691194,40.8173356355896],[-111.692427687167,40.816602872035],[-111.692430736049,40.8159153299387],[-111.691525402228,40.8148851507104],[-111.691067777066,40.8131427784964],[-111.69085325219,40.8120192696427],[-111.690699563021,40.8110333156861],[-111.691481439576,40.8099999581864],[-111.691441480716,40.8080351863521],[-111.691478336795,40.8074511280015],[-111.691184748496,40.8068190532325],[-111.690700679627,40.8053325855337],[-111.690254537629,40.8030420642226],[-111.690449770287,40.8018504291324],[-111.69033888135,40.8008047605011],[-111.690122501452,40.7989931933757],[-111.69072347797,40.7980518163401],[-111.69056994421,40.7971117119287],[-111.690626569514,40.7957584819662],[-111.692249192819,40.7932558460199],[-111.693871088488,40.7905696884803],[-111.698212130623,40.7904739572066],[-111.698726848213,40.7896212526664],[-111.701226824614,40.7880114980872],[-111.702370724026,40.7870691913185],[-111.70381518985,40.7857593859344],[-111.704689169773,40.7853909205724],[-111.706558134484,40.7847683568102],[-111.708214039472,40.783549808523],[-111.709749772332,40.7825150279903],[-111.711316494375,40.7818011882925],[-111.712399814997,40.7808359129661],[-111.713481506075,40.7793890440183],[-111.715107078548,40.778239318626],[-111.71670371449,40.7774565752727],[-111.71775585908,40.7762619972974],[-111.71883775677,40.7749067825392],[-111.720371896917,40.7735277455895],[-111.721074740592,40.7729608659082],[-111.722478263901,40.7718494483387],[-111.72323627671,40.7703305523615],[-111.723893394341,40.7693879273926],[-111.725212563149,40.7684956412472],[-111.72726105078,40.7676200967867],[-111.729699805198,40.7662163120043],[-111.731656477821,40.7649968750087],[-111.732982354349,40.7645813671195],[-111.735848415789,40.7646444746494],[-111.737928374998,40.7642274323264],[-111.739705149205,40.7633752045757],[-111.742025934165,40.7628429475725],[-111.743532751154,40.7624499374128],[-111.744436395245,40.7620580972737],[-111.745095049893,40.76070356309],[-111.745815473598,40.7597158113679],[-111.747972038439,40.758119690875],[-111.749489610957,40.758148401738],[-111.750330520302,40.7571374982148],[-111.751017948886,40.7554387075166],[-111.752073688534,40.7554364265593],[-111.754060351412,40.754377125018],[-111.756166228814,40.7529505420411],[-111.757910748113,40.7516623222508],[-111.75956193964,40.7496631985242],[-111.762297607022,40.7473865466252],[-111.764493408478,40.7459136340084],[-111.766181547713,40.7457492949153],[-111.768139800472,40.7452402692993],[-111.769890548689,40.7456491215823],[-111.771138209804,40.7461864374628],[-111.771994498306,40.7470075143626],[-111.77254660288,40.7483387016695],[-111.773679213163,40.7492042191978],[-111.775913022339,40.7493873203681],[-111.778034872684,40.749537260519],[-111.780002168784,40.7493948893166],[-111.781574738859,40.7488557217387],[-111.784046494685,40.7485515846065],[-111.785495815904,40.748938014419],[-111.787607212554,40.7490246100659],[-111.790712861866,40.7488564451568],[-111.790752323958,40.7488578865488],[-111.79319470757,40.7483183627728],[-111.794963332261,40.747781809325],[-111.796111554366,40.7477776776761],[-111.800803982406,40.7477545830399],[-111.800922529481,40.7549392984647],[-111.805530967736,40.7549631670348],[-111.809994691892,40.7549909299899]]]},"properties":{"NAME":"Emigration Canyon","COUNTYNBR":"18","ENTITYNBR":3901,"FIPS":"22875","POPLASTCENSUS":1466}}]}