{"type": "FeatureCollection", "features": [{"type": "Feature", "geometry": {"type": "Polygon", "coordinates": [[[-111.690644053425, 40.8111065028946], [-111.691298791418, 40.8102412442469], [-111.691481268896, 40.8100000894106], [-111.691441305544, 40.8080353474974], [-111.691478084369, 40.8074512830287], [-111.691184576918, 40.8068192089411], [-111.690700439777, 40.8053327473656], [-111.690254256457, 40.8030422179001], [-111.690449566369, 40.8018505596926], [-111.690338634313, 40.8008048400625], [-111.690122293941, 40.79899328722], [-111.690723274053, 40.7980519598286], [-111.690569734903, 40.7971118526991], [-111.690650277851, 40.7961728618347], [-111.692248919731, 40.7932559527939], [-111.693870898943, 40.7905698313048], [-111.695017566064, 40.790545001595], [-111.696858305709, 40.7905190013939], [-111.698186097446, 40.7905167719692], [-111.698726672143, 40.7896213730488], [-111.701226590154, 40.7880116334356], [-111.702370478786, 40.7870693117056], [-111.703814988627, 40.7857594879593], [-111.704688959567, 40.7853910008324], [-111.706557919787, 40.7847684731204], [-111.708213798723, 40.7835499649663], [-111.709749490261, 40.7825151320608], [-111.711316305728, 40.7818013236536], [-111.712399533824, 40.7808360741774], [-111.713481219512, 40.7793891671401], [-111.715106889004, 40.7782394206624], [-111.716703503386, 40.7774566766301], [-111.717755678518, 40.7762620755276], [-111.718837472903, 40.7749068600908], [-111.720371692102, 40.773527849674], [-111.721515296866, 40.7726541423407], [-111.722478085136, 40.7718495735154], [-111.723236025182, 40.7703306503282], [-111.723893143711, 40.7693880144753], [-111.725212358333, 40.7684957412576], [-111.727260824405, 40.7676202410213], [-111.729699621942, 40.7662164181414], [-111.731656292768, 40.764996979787], [-111.73298217289, 40.7645815161233], [-111.734611352099, 40.7646470859566], [-111.735848142701, 40.7646446120866], [-111.737928127063, 40.7642275779291], [-111.739704897676, 40.7633753433763], [-111.742025727552, 40.7628430646014], [-111.74353257239, 40.7624500462776], [-111.744436110479, 40.7620582612522], [-111.745094851365, 40.7607036712772], [-111.745815221171, 40.7597159229589], [-111.74797180308, 40.7581197854574], [-111.749489438481, 40.7581485432714], [-111.750330279553, 40.7571375751067], [-111.751017748562, 40.7554388470144], [-111.752073401972, 40.7554365898736], [-111.754060122342, 40.754377260435], [-111.756166040168, 40.7529506590875], [-111.757910474126, 40.7516624284112], [-111.759561650382, 40.7496633625333], [-111.762297360884, 40.7473866214867], [-111.764493183001, 40.7459137946238], [-111.76618136266, 40.7457494330721], [-111.768139594758, 40.7452403911233], [-111.769890336687, 40.7456492359192], [-111.771137945699, 40.7461865871885], [-111.771994273727, 40.7470076770171], [-111.772546351351, 40.7483387772105], [-111.773678993974, 40.749204331487], [-111.775912833693, 40.7493874734893], [-111.77803466697, 40.7495373864183], [-111.78000192534, 40.7493949757449], [-111.781574542128, 40.7488558299452], [-111.784046301548, 40.7485517179937], [-111.785495544612, 40.7489381233059], [-111.787607034688, 40.7490247216749], [-111.790712687593, 40.7488565336276], [-111.793243733127, 40.7483227210111], [-111.796111366618, 40.7477778083426], [-111.800792072542, 40.7477487037234], [-111.80085817597, 40.7517572104993], [-111.800910561226, 40.7549333850789], [-111.809994358617, 40.7549606649046], [-111.809994434973, 40.7549910286597], [-111.809785914436, 40.7551611289886], [-111.809493129231, 40.7553996590394], [-111.809178216723, 40.7556564365166], [-111.808985864065, 40.7558135000092], [-111.808713506549, 40.7560363830257], [-111.808336452183, 40.7563433425245], [-111.808205232574, 40.7566067821882], [-111.808070624521, 40.7568773738229], [-111.807930940087, 40.7571583733374], [-111.807790410339, 40.7574419744085], [-111.807763329726, 40.7574985617887], [-111.806978676479, 40.7578313649144], [-111.806649372062, 40.7583826886941], [-111.806410342043, 40.7588879025803], [-111.805929693958, 40.7593249376613], [-111.805689934507, 40.7596696011219], [-111.805360198899, 40.7601291763863], [-111.804878610279, 40.7603597861426], [-111.804246608645, 40.7606825257793], [-111.803525850767, 40.7613954023518], [-111.802895162471, 40.7620162990686], [-111.802443715023, 40.7622468206289], [-111.801842257906, 40.7626612129646], [-111.801542543096, 40.7630977632878], [-111.800761704994, 40.7638795851404], [-111.800281999242, 40.7645459531773], [-111.800012836135, 40.7650741659838], [-111.799593243846, 40.7656945037684], [-111.799386321411, 40.7666583390205], [-111.799297841848, 40.7671172822162], [-111.799390362034, 40.7675757650458], [-111.799272419525, 40.7681953338205], [-111.799124005264, 40.7687461736381], [-111.79906528419, 40.7691132978638], [-111.798916563603, 40.769595328171], [-111.798667737456, 40.7701283760617], [-111.798308628735, 40.7704812045182], [-111.798077094259, 40.7707901233026], [-111.797414193274, 40.7709752882934], [-111.796751691142, 40.7712521912216], [-111.796361499814, 40.7717118918504], [-111.796000573801, 40.7719650945671], [-111.795458630969, 40.7722187514428], [-111.794645959268, 40.7726565703325], [-111.793742670012, 40.7730716739779], [-111.79280939589, 40.7735327171585], [-111.791905096928, 40.7737184507113], [-111.79142346429, 40.7739719383047], [-111.790821639762, 40.7743404010266], [-111.790401416855, 40.7748460269515], [-111.789920262121, 40.7752141861855], [-111.789529120375, 40.7754674435824], [-111.789199490768, 40.7759957777393], [-111.788838320413, 40.7762030857841], [-111.788447658368, 40.7765710177738], [-111.788026819217, 40.7769390218737], [-111.787636633278, 40.7774216266817], [-111.787246539866, 40.7779271672536], [-111.786705099193, 40.7783183968406], [-111.786314121839, 40.7786175136723], [-111.785833011122, 40.7790085915825], [-111.78541185756, 40.7793077780911], [-111.785171441441, 40.7795377179339], [-111.784871161591, 40.7798824826779], [-111.784511013519, 40.7803420691748], [-111.78427174365, 40.7808472324483], [-111.783972409726, 40.7814213496181], [-111.783309462927, 40.7816293699148], [-111.7826467982, 40.7819061917078], [-111.782135662193, 40.7823431978551], [-111.781564075856, 40.7827574090953], [-111.780811251716, 40.7831261801909], [-111.780149224792, 40.7835635367706], [-111.779789683981, 40.7841836550085], [-111.77930812231, 40.784482964446], [-111.778071721577, 40.784669378169], [-111.776896318249, 40.7850161846854], [-111.775630658489, 40.7854319980588], [-111.775180264765, 40.7859835091277], [-111.774880646075, 40.7865117290379], [-111.774339064367, 40.7869029005808], [-111.773947892976, 40.7871790406471], [-111.7730137412, 40.7875023097745], [-111.772351068388, 40.7878020082617], [-111.771326370924, 40.7881254749984], [-111.770633235342, 40.7883564276492], [-111.770182050202, 40.7887244344693], [-111.769459729255, 40.7892077398808], [-111.768828018676, 40.7897137674953], [-111.768437533599, 40.790173373019], [-111.76780490045, 40.7904500415396], [-111.766871394563, 40.7909567445605], [-111.765878235151, 40.7916470623316], [-111.764825594691, 40.7925668596015], [-111.764497204759, 40.793485022122], [-111.764197024622, 40.7938985375138], [-111.763384335852, 40.7944508134016], [-111.76236002646, 40.7949118129276], [-111.761335085551, 40.7952122546118], [-111.760461032865, 40.7955123549032], [-111.759346060104, 40.7959505921971], [-111.758562527953, 40.7962504796929], [-111.757448749952, 40.7970097927844], [-111.756515245861, 40.7975622848866], [-111.755278374411, 40.797702586904], [-111.754102800403, 40.79809503492], [-111.753409163561, 40.7982341437043], [-111.752715779146, 40.7984420555742], [-111.751903283515, 40.7990859916388], [-111.751786551935, 40.800164210602], [-111.751819112271, 40.8008063354088], [-111.751700849064, 40.8014717176641], [-111.751582752045, 40.8021829706809], [-111.751706114988, 40.8028937074431], [-111.751678480115, 40.8035818312256], [-111.751710107999, 40.8039716659998], [-111.750865742836, 40.8041798869675], [-111.749056769416, 40.8047341797941], [-111.748214231426, 40.8054469590481], [-111.74737167547, 40.8061597320065], [-111.746799177343, 40.8064361577987], [-111.746226924456, 40.8067813880513], [-111.745321975113, 40.806943826047], [-111.744719856836, 40.8073808523637], [-111.743906354193, 40.8077953779396], [-111.743002450489, 40.8082559570626], [-111.742188518451, 40.8085557944046], [-111.741344801872, 40.8089703649954], [-111.742193423253, 40.8099319079014], [-111.742802871783, 40.8115361302992], [-111.7430781614, 40.8125447185413], [-111.74344270403, 40.8131861558613], [-111.74329365466, 40.8137139778173], [-111.743446237104, 40.8141723694933], [-111.743537513124, 40.8153457363708], [-111.74388500573, 40.8160437840647], [-111.744219026302, 40.8167696281795], [-111.744138178825, 40.8169748890505], [-111.743937993756, 40.8174831265976], [-111.743708400539, 40.8180160437275], [-111.743514103027, 40.8184670301923], [-111.74338040856, 40.8187773362888], [-111.743259421661, 40.8191768386259], [-111.743337190612, 40.8193880670004], [-111.743346675025, 40.8194194815475], [-111.739477160379, 40.8193953961563], [-111.739495311738, 40.8235055463552], [-111.739502035627, 40.8250278104783], [-111.739501553232, 40.8250281333661], [-111.73892955367, 40.8251971346568], [-111.738791552679, 40.8252401350291], [-111.737836552802, 40.8255381343611], [-111.737026551792, 40.8261391340248], [-111.736342552975, 40.8269331344202], [-111.735929552523, 40.8274851340602], [-111.736327552907, 40.8281451358587], [-111.735988552973, 40.8286961343692], [-111.734920553118, 40.8297051353152], [-111.734266552642, 40.8309091349184], [-111.733514552256, 40.8316461353394], [-111.732729553157, 40.8322011360011], [-111.731857552223, 40.8328881354594], [-111.731168551586, 40.8344721358776], [-111.730475552548, 40.8349321355915], [-111.72948055159, 40.8352781350992], [-111.727064551498, 40.8353511365188], [-111.725976551552, 40.8348721363417], [-111.725100551318, 40.8348961359122], [-111.724023551242, 40.8347061366392], [-111.722651549817, 40.8341211359053], [-111.721897549782, 40.8342601372222], [-111.720388549886, 40.8344241371006], [-111.718760550165, 40.8341331368471], [-111.718605550354, 40.8341061362543], [-111.716704549025, 40.8344991376806], [-111.715617548903, 40.8345471364033], [-111.715013549554, 40.8344101366295], [-111.71404554836, 40.8339311371299], [-111.712896549213, 40.833543138154], [-111.711035548964, 40.8327821374222], [-111.709160547574, 40.8319861367185], [-111.707362546177, 40.8308921375714], [-111.706064547067, 40.8308941379393], [-111.703978545789, 40.8302101384542], [-111.701773546483, 40.8297781374335], [-111.699950544073, 40.8289191378731], [-111.699588547268, 40.8287961376456], [-111.698780545009, 40.8286141389518], [-111.698235546109, 40.828018137365], [-111.695816543847, 40.8268301381347], [-111.694396545437, 40.8264191383896], [-111.693337544905, 40.8258471375943], [-111.692369542812, 40.8250461375866], [-111.691159542667, 40.8242681374954], [-111.690009542797, 40.8233071381756], [-111.689673542338, 40.8220231383281], [-111.689550543212, 40.8210831382645], [-111.689212541307, 40.8190881372058], [-111.689545541393, 40.8185721374209], [-111.689782542118, 40.8181681356995], [-111.691171543261, 40.8173461371173], [-111.69242754164, 40.8166031364967], [-111.692430542912, 40.8159151375392], [-111.691525542365, 40.8148851371131], [-111.691067541707, 40.8131431361162], [-111.690853541447, 40.8120191377427], [-111.690709540609, 40.8110911356476], [-111.690708347646, 40.8110914157691], [-111.690644053425, 40.8111065028946]]]}, "properties": {"PrecinctID": "EMG001", "VistaID": "EMG001", "CountyID": 18, "SubPrecinctID": null, "AliasName": null, "VersionNbr": null}}]}