{"type":"FeatureCollection","crs":{"type":"name","properties":{"name":"EPSG:4326"}},"features":[{"type":"Feature","geometry":{"type":"Polygon","coordinates":[[[-112.260169089411,40.7691251683749],[-112.258690689727,40.7701466285297],[-112.253350647334,40.7738170749141],[-112.250753015976,40.7755748502014],[-112.250166955085,40.7759811690235],[-112.247538364189,40.7777951455992],[-112.240258416229,40.7828181798941],[-112.238473979392,40.7840489590639],[-112.227362524505,40.7917301317615],[-112.226227283955,40.7925169133051],[-112.222944748278,40.7947867080598],[-112.217044639543,40.7988658738552],[-112.204164535711,40.8077154631409],[-112.195907832473,40.813386455155],[-112.195819088805,40.8133289988918],[-112.176937688207,40.8130850833821],[-112.157935348321,40.8128365450924],[-112.139491530573,40.8125923762125],[-112.120408822012,40.812471711051],[-112.110871599981,40.8125666423253],[-112.101334214458,40.8126607861506],[-112.101276124001,40.8054047094452],[-112.10121806319,40.7981486247504],[-112.101213137727,40.7908856271604],[-112.101208232027,40.7836227111107],[-112.101234013676,40.7814311875022],[-112.095617203039,40.7814295264283],[-112.095682581527,40.7787937865531],[-112.09866863543,40.7787801920066],[-112.101226297148,40.7787684871577],[-112.101226328589,40.7787588774391],[-112.101250294742,40.7714065938958],[-112.101251052022,40.7711217870199],[-112.100184588286,40.7711234027704],[-112.10014465907,40.7692127595919],[-112.096497446016,40.7692256662361],[-112.091742899474,40.7692423705092],[-112.091497226414,40.7619984573759],[-112.082189076577,40.7620204536471],[-112.082217659173,40.7548130322525],[-112.072629253833,40.7547969742141],[-112.067766762133,40.7548077455803],[-112.064297892511,40.7548127641422],[-112.064333163064,40.7520030811934],[-112.064341759941,40.751316561791],[-112.064489287565,40.740244682437],[-112.068038457591,40.7402350433254],[-112.068038138689,40.7400816388755],[-112.068030803046,40.7365579695374],[-112.06802338925,40.7328806210238],[-112.067994168851,40.7296758735703],[-112.070465439587,40.7290256328334],[-112.070505223276,40.7254417099908],[-112.06325819857,40.7254611334215],[-112.063179543881,40.7182641127822],[-112.063135002714,40.7109992061907],[-112.063126300734,40.7090825077813],[-112.063115160726,40.7066279318276],[-112.063102386683,40.7038125538623],[-112.063103636239,40.7037422761852],[-112.063100168742,40.7027126473105],[-112.063079791358,40.6966591322202],[-112.063077987541,40.6965456420836],[-112.063087959739,40.696025920948],[-112.063116177619,40.6945553170518],[-112.063147832453,40.6931217755346],[-112.063120478753,40.6921455072822],[-112.06309106791,40.6913216166909],[-112.063056474687,40.6903525067519],[-112.063060428172,40.6893354118768],[-112.063015344423,40.6892538499233],[-112.063035542144,40.6890381296173],[-112.063081106492,40.6885514829457],[-112.06308213686,40.6881792555127],[-112.063083739454,40.6876001616764],[-112.063072073033,40.6868660766185],[-112.063073686408,40.6848347342632],[-112.063075861229,40.6821000053499],[-112.063481662582,40.6821002819279],[-112.075816422562,40.6821080097624],[-112.073908308372,40.6845421240437],[-112.074013599906,40.6845550178278],[-112.074137318582,40.6845953061186],[-112.074203794812,40.6846081998925],[-112.074275061756,40.6846246529382],[-112.074340355803,40.6846375582868],[-112.074411651494,40.6846558124195],[-112.07447694554,40.684668717762],[-112.074548212485,40.6846851701117],[-112.07461359277,40.6847034794085],[-112.074677718108,40.6847172961873],[-112.074750168134,40.6847337376257],[-112.074814336591,40.6847502567169],[-112.07488563318,40.6847685108187],[-112.074950999092,40.6847859188662],[-112.075017548983,40.6848033160099],[-112.07508995589,40.6848170557925],[-112.075154124347,40.6848335741818],[-112.075219548649,40.6848545850711],[-112.075290845239,40.6848728391444],[-112.075356196777,40.6848893466207],[-112.075420394879,40.6849076660795],[-112.075486943872,40.6849250631914],[-112.075557028634,40.684941526377],[-112.075623592898,40.6849598240231],[-112.075689031573,40.6849817354153],[-112.075754398383,40.684999143407],[-112.075818566841,40.6850156617512],[-112.075891119274,40.685038407591],[-112.07595528863,40.6850549259254],[-112.076023093468,40.6850768148069],[-112.078336745805,40.6821108007475],[-112.082270591503,40.6821150672691],[-112.091875172806,40.6821154324065],[-112.091875232994,40.6820248966647],[-112.093476087424,40.6818387632785],[-112.093476064068,40.6820255996914],[-112.093475988609,40.6821223516235],[-112.0972186809,40.68213845922],[-112.09721592397,40.6820136278],[-112.098014312459,40.6820130630624],[-112.102101356846,40.6852118570509],[-112.102191317278,40.6852834488512],[-112.102279700043,40.6853561617542],[-112.102366480843,40.6854299757672],[-112.102451635823,40.6855048705946],[-112.102535141572,40.6855808256437],[-112.102616975134,40.6856578200305],[-112.102697114013,40.6857358325851],[-112.102775536178,40.6858148418579],[-112.102875918108,40.6859205444314],[-112.102972765594,40.6860281261929],[-112.103066017474,40.6861375191927],[-112.103155614858,40.6862486543375],[-112.103241501163,40.686361461434],[-112.103323622148,40.6864758692333],[-112.103401925953,40.6865918054756],[-112.103476363127,40.6867091969365],[-112.103546886659,40.6868279694727],[-112.103613452014,40.686948048069],[-112.103676017153,40.6870693568856],[-112.103734542565,40.6871918193065],[-112.103788991289,40.6873153579872],[-112.10383932894,40.6874398949039],[-112.103885523727,40.6875653514031],[-112.103927546478,40.6876916482505],[-112.104388057927,40.6891560750322],[-112.104416511875,40.6892432020657],[-112.104446901508,40.6893299523485],[-112.104479218164,40.6894163011582],[-112.104513452634,40.6895022238871],[-112.10454959516,40.6895876960489],[-112.104587635442,40.6896726932857],[-112.104627562638,40.6897571913752],[-112.10466936537,40.6898411662374],[-112.104713031722,40.6899245939415],[-112.104758549252,40.6900074507127],[-112.104805904985,40.6900897129389],[-112.104855085426,40.6901713571777],[-112.104906076558,40.6902523601628],[-112.104958863848,40.6903326988106],[-112.105013432253,40.6904123502272],[-112.10506976622,40.6904912917143],[-112.105127849694,40.6905695007762],[-112.105187666122,40.6906469551259],[-112.105249198455,40.6907236326916],[-112.105312429157,40.690799511623],[-112.105377340207,40.6908745702972],[-112.105443913106,40.6909487873253],[-112.10551212888,40.6910221415584],[-112.105581968087,40.6910946120933],[-112.105653410824,40.6911661782789],[-112.10572643673,40.6912368197218],[-112.105801024991,40.6913065162921],[-112.10587715435,40.6913752481292],[-112.105954803112,40.6914429956476],[-112.106033949144,40.6915097395424],[-112.106114569892,40.6915754607944],[-112.106196642377,40.6916401406763],[-112.106172883734,40.6928798427287],[-112.106161536216,40.6943976982218],[-112.107471891653,40.6943930612865],[-112.107477905873,40.6952852117829],[-112.107510220071,40.6952634488511],[-112.107626529442,40.6951955956986],[-112.107776903828,40.6951047719146],[-112.10793040974,40.6950139173575],[-112.108062214152,40.6949363808178],[-112.108209535163,40.6948503522797],[-112.108367697044,40.694757069264],[-112.108499481693,40.6946783398227],[-112.108611112638,40.6946117222686],[-112.108744691222,40.6945325261024],[-112.108841118182,40.6944981605342],[-112.108853907496,40.6944952154581],[-112.108928164933,40.6944829931186],[-112.109007669429,40.6944798900266],[-112.109100680993,40.6944901834916],[-112.109176855434,40.6945043483266],[-112.109259301014,40.694519048503],[-112.109343360867,40.6945367128212],[-112.109479272376,40.6945652004834],[-112.109589966379,40.6945838006195],[-112.109705386418,40.6946041423202],[-112.10985612013,40.6946295077978],[-112.110018634348,40.6946571426853],[-112.110198210268,40.6946750800873],[-112.11029382515,40.6946813107724],[-112.110465238079,40.6946790665543],[-112.110468878053,40.6946789153506],[-112.110482156949,40.694679488154],[-112.110496575808,40.6946820150278],[-112.110504357015,40.6946844656185],[-112.110510098148,40.6946860941238],[-112.110522169709,40.6946915892221],[-112.110527760823,40.6946953223197],[-112.110533347446,40.694698775486],[-112.110542884859,40.6947071012257],[-112.110550219604,40.6947158689968],[-112.110552894787,40.6947215943036],[-112.110555736158,40.6947261964801],[-112.110559045551,40.6947368263692],[-112.110560327447,40.6947474753272],[-112.111293432669,40.6947466723134],[-112.111459542843,40.6947445772579],[-112.111976721817,40.6951530341972],[-112.11212959262,40.6952723977194],[-112.112452541457,40.6955988375015],[-112.112752908443,40.6959085175777],[-112.112710667862,40.6963663021691],[-112.112116357741,40.696606710321],[-112.111626212668,40.6967991759749],[-112.111407725323,40.6969161228174],[-112.111226933982,40.6970117361704],[-112.10991582935,40.6970712858676],[-112.109939679621,40.6969272529472],[-112.109988447361,40.6965453029063],[-112.110057543976,40.6960443183943],[-112.110171020959,40.6952133558716],[-112.110230455295,40.6948149427543],[-112.110204781444,40.6948133224253],[-112.110179133645,40.6948116046994],[-112.110140180897,40.694807770806],[-112.110093098397,40.694802752485],[-112.110053774645,40.6947987816906],[-112.110020725626,40.6947953121832],[-112.109987675708,40.6947918419946],[-112.109963465213,40.6947878657507],[-112.109928348272,40.694781891168],[-112.10989507647,40.6947761794882],[-112.109858453953,40.6947701109131],[-112.10964334607,40.6947340434048],[-112.1094305774,40.6946973567591],[-112.109300948708,40.6946700004574],[-112.109216878075,40.6946517402135],[-112.109068482678,40.6946257563068],[-112.108991687501,40.6946176008316],[-112.108948979796,40.6946200269051],[-112.108904590445,40.6946269673001],[-112.108835690561,40.6946524683076],[-112.10873801135,40.6947106102413],[-112.108655849638,40.6947602615668],[-112.108559696664,40.694816004584],[-112.108458906588,40.6948753682613],[-112.108348841406,40.6949419712489],[-112.108210834127,40.6950231427837],[-112.108103840285,40.6950861412747],[-112.107989117339,40.6951551728299],[-112.107875919731,40.6952218048247],[-112.107764288786,40.6952884224499],[-112.107660385149,40.6953490069029],[-112.107609255738,40.6953816733915],[-112.107562862245,40.6954166800912],[-112.10751492365,40.6954528923021],[-112.107490249624,40.6954757721595],[-112.107456811634,40.6955154388244],[-112.107440857554,40.6955447903703],[-112.107421810576,40.6955765543202],[-112.107401485294,40.6956256110912],[-112.10738499492,40.6956698641131],[-112.107359317476,40.6957267172228],[-112.107342231519,40.6957822980139],[-112.107329556291,40.6958205560096],[-112.107310171545,40.6958791375865],[-112.107293074809,40.6959341216197],[-112.107273699046,40.6959932983647],[-112.10725354175,40.69605248323],[-112.107234156106,40.696111065284],[-112.107219300666,40.6961594732706],[-112.107202124878,40.696209691539],[-112.107189468514,40.6962491405017],[-112.107183463276,40.6962646902832],[-112.107166705205,40.6962928577793],[-112.107148382268,40.6963210388852],[-112.107131585568,40.696346822574],[-112.10709407821,40.6963984280621],[-112.107074042186,40.6964176876532],[-112.107046266278,40.6964423849819],[-112.107016142173,40.6964671047772],[-112.106944015541,40.6965083155398],[-112.106892617533,40.6965248977769],[-112.106831074851,40.6965433638744],[-112.106678153742,40.6965752192938],[-112.106447431343,40.6965893482694],[-112.106301875521,40.696593126893],[-112.106151556831,40.6965951599122],[-112.106249183041,40.6966839261725],[-112.106353887078,40.6967813855763],[-112.10644150336,40.6968618921833],[-112.10651242625,40.6969277848668],[-112.106602573986,40.6970110598637],[-112.106698392786,40.6971008560336],[-112.106755736742,40.6971517928053],[-112.106812874085,40.6972025449675],[-112.106849608892,40.6972379062299],[-112.106909336079,40.6972953982085],[-112.107020240287,40.6973954999516],[-112.107167755335,40.6975264192404],[-112.107251937359,40.6975995714541],[-112.107351528184,40.6976811334079],[-112.107450564749,40.6977578365329],[-112.107573228803,40.697846113601],[-112.107643998081,40.6978954315919],[-112.107656581682,40.6979036738422],[-112.107720580358,40.6979455940666],[-112.107744743242,40.697960286673],[-112.107820776648,40.6980065207216],[-112.107940418769,40.6980766294173],[-112.108060681626,40.6981413269965],[-112.10819964561,40.6982131416104],[-112.108282807148,40.6982531512625],[-112.108411092859,40.6983162400045],[-112.108546943282,40.6983787157326],[-112.108718492756,40.6984597652568],[-112.108874504968,40.6985317756723],[-112.108921704249,40.6985536049613],[-112.108992415137,40.6985863073368],[-112.109070478735,40.6986224102178],[-112.109212435008,40.698688969958],[-112.109371219421,40.6987639256943],[-112.10953424478,40.6988375798492],[-112.109817201518,40.6989700763496],[-112.110007485357,40.6990600428665],[-112.110188772568,40.6991427989603],[-112.110415304326,40.6992487215977],[-112.110451406719,40.6992656164362],[-112.110459960477,40.699762043681],[-112.110468723543,40.7005694298297],[-112.110469477229,40.7006183753202],[-112.110470033286,40.700618753977],[-112.110857653637,40.7006162899838],[-112.110863756791,40.7014205650528],[-112.110868170214,40.7019213068698],[-112.110490091768,40.7019265882108],[-112.110500057678,40.7037557621337],[-112.110552490545,40.7069677420173],[-112.110596314856,40.7110192493974],[-112.111335564554,40.7110156513579],[-112.111355870971,40.7121688191727],[-112.110923782218,40.7121492638503],[-112.110703230544,40.7120482847837],[-112.110191721737,40.7120418235291],[-112.110189733765,40.7129418684182],[-112.110179836127,40.7165886962432],[-112.110178539858,40.7169819835819],[-112.110188053915,40.7183877256411],[-112.101295285965,40.7184372517421],[-112.097298318346,40.7184420463237],[-112.091803898675,40.7183344377729],[-112.087395050804,40.7182895461867],[-112.086415294256,40.7182788083958],[-112.084328281476,40.7184847652],[-112.083279533416,40.7185345404215],[-112.082711326541,40.7185531808433],[-112.082477045915,40.7186685085495],[-112.082494710386,40.7202987401362],[-112.082589421563,40.7401930891476],[-112.08227561039,40.740196098224],[-112.082267970219,40.7421223692949],[-112.08188926475,40.7425214113943],[-112.081480281564,40.7429066007935],[-112.081118680017,40.7433151795286],[-112.080790431121,40.7438485790643],[-112.080639936361,40.744231343998],[-112.080504238651,40.744560343031],[-112.080483823538,40.7447512122647],[-112.080519163261,40.745966454018],[-112.080611033966,40.7482537309635],[-112.080686878725,40.7500346692328],[-112.080724562153,40.7509102425509],[-112.080751634681,40.7511304614345],[-112.080809368506,40.7513086807031],[-112.080906370387,40.7514924919823],[-112.081026682651,40.751664166447],[-112.081186457007,40.7518533473542],[-112.081369831903,40.7520482664747],[-112.081545276471,40.7522372999795],[-112.081776817236,40.7525032710659],[-112.081960872156,40.7527398929918],[-112.082224639981,40.7530515182547],[-112.082416226377,40.7532778627005],[-112.082921496385,40.753994123147],[-112.083209534892,40.7543608579646],[-112.083869485809,40.7554331827274],[-112.084554706335,40.7566125225871],[-112.085198740003,40.7576671131132],[-112.085489328828,40.7581887441745],[-112.085833991741,40.7586621950766],[-112.086177106857,40.7590403226029],[-112.08655049969,40.7593526164621],[-112.087081766044,40.7597349274431],[-112.087461934869,40.7599816096463],[-112.088046988748,40.7602978632499],[-112.088764470471,40.7605651955984],[-112.089598905657,40.7607956670772],[-112.090458896116,40.7611510224869],[-112.091415161719,40.7616425104549],[-112.091936882575,40.7619176321754],[-112.092454577182,40.762425178159],[-112.092800678298,40.7629820158967],[-112.092963343433,40.763343955373],[-112.093070282477,40.763652793031],[-112.093196212805,40.7641640454416],[-112.093336254768,40.764579826052],[-112.093458772397,40.7648825563208],[-112.093901953547,40.7656231905855],[-112.09422242483,40.7660491757515],[-112.094565530064,40.7664213175945],[-112.095114329736,40.7669106806094],[-112.095638162531,40.7673108979264],[-112.096152892697,40.7676337351183],[-112.096714055882,40.7679203782383],[-112.097274637857,40.7681712713405],[-112.097889584975,40.7683918514584],[-112.098503752355,40.7685647667691],[-112.099219204783,40.7687009609269],[-112.099831905214,40.7687845026396],[-112.100639921846,40.7688304262488],[-112.101243088457,40.7688246583306],[-112.104132018308,40.7687970372211],[-112.104138978455,40.7714076810361],[-112.120314599518,40.7713685038362],[-112.129793484954,40.7713374706499],[-112.134316240101,40.7712901180725],[-112.134541489964,40.7712878539866],[-112.137092036126,40.7715608928038],[-112.137617014273,40.7715719016035],[-112.139166419492,40.7715407113603],[-112.140604571956,40.7716135087543],[-112.141151557031,40.7715926891948],[-112.142082940199,40.7715269656609],[-112.142960183701,40.7714566329445],[-112.143601752393,40.7714348649799],[-112.145094947329,40.7714251936527],[-112.146723351292,40.7714192967003],[-112.147919096971,40.7714022698258],[-112.148391584759,40.7713718829531],[-112.148748862714,40.7713220914748],[-112.149193969852,40.7712714243945],[-112.149962306101,40.7711558885305],[-112.150319050457,40.7710752744797],[-112.150951374585,40.7709097158596],[-112.151668410743,40.7706980474525],[-112.152295574949,40.7704682035531],[-112.153086271163,40.7701412600772],[-112.153977741285,40.7696876565913],[-112.154617256427,40.7692492051566],[-112.155372684784,40.7687017548846],[-112.156068213478,40.7681268134229],[-112.156024571525,40.768095181378],[-112.157050615564,40.7672578064021],[-112.158695446121,40.765869665875],[-112.159894474243,40.7648815486782],[-112.162212075573,40.7629471848854],[-112.163111585617,40.762224049449],[-112.163805341934,40.7617136067751],[-112.164652838625,40.7611091393395],[-112.165413492481,40.7605620513587],[-112.167759512914,40.7587248965588],[-112.168579737651,40.7581104020637],[-112.168819308456,40.7579024870854],[-112.170236801465,40.7566757363505],[-112.171341652908,40.7557295534411],[-112.172646394772,40.7546272118349],[-112.174843687432,40.7528068355136],[-112.176728673597,40.7512875601179],[-112.178056394366,40.750141017221],[-112.178912657715,40.7494617235979],[-112.179210523792,40.7492467679279],[-112.179498518283,40.7490829937545],[-112.17989549279,40.748899026095],[-112.18014798586,40.7487942937749],[-112.18022487536,40.7487693198271],[-112.181153152154,40.748481919693],[-112.181438049253,40.7484152511613],[-112.181964659639,40.7483387785716],[-112.182516327631,40.7482415661298],[-112.182873609179,40.7481947183986],[-112.183344640798,40.7481096386204],[-112.18396783445,40.7479926244839],[-112.184310054844,40.7479292207569],[-112.184738261079,40.7477431218091],[-112.185280837222,40.7474858264908],[-112.185822495288,40.7471771662095],[-112.185955650766,40.7470679156474],[-112.186293510737,40.7466945636148],[-112.186750737945,40.7461966889065],[-112.186896209326,40.7460205269204],[-112.1870669584,40.7457464977491],[-112.18733608288,40.7453070648796],[-112.187852966308,40.7443667713078],[-112.188320747822,40.7437043907406],[-112.188543681828,40.7433270771069],[-112.188632465022,40.7430025169969],[-112.189092835436,40.7423042498908],[-112.18965330063,40.7415381640765],[-112.190135191084,40.7409115909467],[-112.190546729079,40.7405066422169],[-112.190960095145,40.740204417595],[-112.191481318334,40.7398908038856],[-112.19217572593,40.7394418319512],[-112.192770301054,40.7390760821018],[-112.193865720186,40.7383917774911],[-112.194974437079,40.7376970517728],[-112.195857409138,40.7372204178688],[-112.197174493855,40.7364721397485],[-112.198433263537,40.7358631559199],[-112.199270120581,40.735453759518],[-112.199767672264,40.7353304315684],[-112.200373167308,40.7352008417817],[-112.201123148281,40.7349102647883],[-112.20171837109,40.73451900293],[-112.202278255972,40.7341073308623],[-112.202830270714,40.7336340910748],[-112.203244741708,40.7333985944386],[-112.203660040949,40.7332093235947],[-112.204965399058,40.7325689604624],[-112.205834541553,40.732082119929],[-112.207528590804,40.7312784112448],[-112.208171384797,40.7309737253947],[-112.209148977304,40.7305114108456],[-112.210422703935,40.7299946110093],[-112.211462057413,40.7295881390393],[-112.213212318743,40.7289121869604],[-112.215163223284,40.728131352876],[-112.216294794216,40.727600573502],[-112.217071513543,40.7272379159418],[-112.218049270441,40.7267909363264],[-112.219209581175,40.7263574323568],[-112.220248915789,40.725956018818],[-112.221645870616,40.7255405365321],[-112.222896441374,40.7252447440616],[-112.224274897194,40.7249270343288],[-112.226112837689,40.7243387349434],[-112.227452050606,40.7253064109446],[-112.228444807573,40.7266849369993],[-112.232633265467,40.7322795074045],[-112.236172858553,40.7370115649549],[-112.238819013309,40.740545085513],[-112.241103470399,40.7435932805254],[-112.242938438369,40.7460904571133],[-112.245864363539,40.7499775235879],[-112.247891131703,40.7526401010645],[-112.249489586733,40.7547523678509],[-112.250781273382,40.7566093992549],[-112.252952574187,40.7594396721284],[-112.255342934564,40.7626314548695],[-112.257099023265,40.7649725079216],[-112.259756160824,40.7685918831614],[-112.260169089411,40.7691251683749]]]},"properties":{"NAME":"Magna City","COUNTYNBR":"18","FIPS":"47290","ENTITYNBR":3903,"POPLASTCENSUS":null}}]}