{
"type": "FeatureCollection",
"crs": { "type": "name", "properties": { "name": "urn:ogc:def:crs:OGC:1.3:CRS84" } },
"features": [
{ "type": "Feature", "properties": { "District": "1", "n_precincts": 3, "source_year": "2019", "confidence": "medium" }, "geometry": { "type": "MultiPolygon", "coordinates": [ [ [ [ -112.070259605911005, 40.696490093940099 ], [ -112.070445603886995, 40.696490095302302 ], [ -112.070507605608, 40.696490093940099 ], [ -112.070657605395994, 40.696490094621197 ], [ -112.071110605133001, 40.696490094621197 ], [ -112.071261603847006, 40.696490094621197 ], [ -112.071361603406004, 40.696490095302302 ], [ -112.071662605501999, 40.696493093414396 ], [ -112.071763605784, 40.696494094601299 ], [ -112.071855604049006, 40.696494093239103 ], [ -112.072132604057998, 40.6964970933942 ], [ -112.072225604842998, 40.696498094581003 ], [ -112.072402604394995, 40.696495093063803 ], [ -112.072685604252001, 40.696492094270702 ], [ -112.072933606644, 40.696496094250698 ], [ -112.073110606195996, 40.6965000949114 ], [ -112.073640605026995, 40.6964970933942 ], [ -112.075233606384998, 40.696488094971599 ], [ -112.075764605041002, 40.696486093959798 ], [ -112.075784789286999, 40.696486049689597 ], [ -112.075785000392003, 40.696486049008598 ], [ -112.076215605127999, 40.696485094134999 ], [ -112.077571606660001, 40.696485093453902 ], [ -112.078023607470001, 40.696485093453902 ], [ -112.078482605256994, 40.696484092947998 ], [ -112.078542606430005, 40.696484094310101 ], [ -112.079860607428003, 40.696484092947998 ], [ -112.080320607735999, 40.6964840922669 ], [ -112.080711607547997, 40.696485092772797 ], [ -112.081886608431006, 40.696491094445904 ], [ -112.082275972410997, 40.6964930804739 ], [ -112.082278608067995, 40.696493093414396 ], [ -112.082277606446993, 40.696839093168798 ], [ -112.082277607345006, 40.697266093746698 ], [ -112.082277608243999, 40.6978800940024 ], [ -112.082277606446993, 40.698227093843599 ], [ -112.082277608243999, 40.698387093454002 ], [ -112.082278608967002, 40.698867094746802 ], [ -112.082279535129999, 40.699016672699003 ], [ -112.082279607893, 40.699028092606703 ], [ -112.082279606995002, 40.699168093242598 ], [ -112.082280607718005, 40.699590093622199 ], [ -112.082281608442003, 40.699731093533998 ], [ -112.082281605746999, 40.700094094368197 ], [ -112.082284606119998, 40.701037093467399 ], [ -112.082285606843001, 40.7012000930821 ], [ -112.082289608837002, 40.702251094658102 ], [ -112.082291606691001, 40.702964093579403 ], [ -112.082291607588999, 40.703113093687001 ], [ -112.082291607588999, 40.703561093771199 ], [ -112.082292608312002, 40.7037110936216 ], [ -112.08229260921, 40.703716628154901 ], [ -112.082287158233001, 40.703716629516798 ], [ -112.081147691108995, 40.703719745117702 ], [ -112.079898588199001, 40.7037233884977 ], [ -112.07926370477, 40.703710785125999 ], [ -112.078559333959006, 40.703717017690103 ], [ -112.078005633079002, 40.703720290603201 ], [ -112.076287340993005, 40.7037199616775 ], [ -112.076276400411999, 40.703719841820501 ], [ -112.076266125480998, 40.703719728092601 ], [ -112.076266606079997, 40.703730095721497 ], [ -112.075056846684006, 40.703731697446401 ], [ -112.068561604970995, 40.703740094243798 ], [ -112.068559964646994, 40.703749033120403 ], [ -112.068444601202003, 40.703749070575697 ], [ -112.068418924656001, 40.703749077385702 ], [ -112.067256900836, 40.703749443085599 ], [ -112.065996460286996, 40.703749825810597 ], [ -112.064793347526006, 40.7037499034452 ], [ -112.063116547725002, 40.703753446715801 ], [ -112.063116536047005, 40.7037511047386 ], [ -112.063101236839003, 40.699928267756 ], [ -112.063097688493997, 40.699040828307801 ], [ -112.063096730889995, 40.698801562897899 ], [ -112.063093319987004, 40.697949000070899 ], [ -112.063090630431006, 40.697276602680901 ], [ -112.063089942321, 40.697105266664202 ], [ -112.063087777381, 40.6965637131497 ], [ -112.063088018130003, 40.696495095106997 ], [ -112.063579602304003, 40.6964960935696 ], [ -112.065057604035005, 40.696502095241698 ], [ -112.065091604369997, 40.696503095066298 ], [ -112.065550603055996, 40.696497094075298 ], [ -112.065688604046002, 40.696496094931703 ], [ -112.066103603249999, 40.6964960935696 ], [ -112.066242603166998, 40.696496094250698 ], [ -112.066593604592995, 40.696496094931703 ], [ -112.067646604378993, 40.696496094250698 ], [ -112.067997604007999, 40.696496094931703 ], [ -112.068437604224002, 40.696494093239103 ], [ -112.069756605047999, 40.696491094445904 ], [ -112.07019760419, 40.696490093940099 ], [ -112.070220066564005, 40.696490093259001 ], [ -112.070259605911005, 40.696490093940099 ] ] ], [ [ [ -112.101296353162994, 40.798265468982002 ], [ -112.101285403597998, 40.783769194872399 ], [ -112.101285348800999, 40.783720498263897 ], [ -112.101282754466993, 40.781401941168298 ], [ -112.095656172854007, 40.781405467380701 ], [ -112.095653451857004, 40.778796973465397 ], [ -112.101279816976003, 40.778793446434399 ], [ -112.101277671798996, 40.776470461635803 ], [ -112.101282035813995, 40.771403382818001 ], [ -112.101282157086999, 40.7712638939933 ], [ -112.101282280155999, 40.771118238491603 ], [ -112.101591619516, 40.771031100156101 ], [ -112.104138620925994, 40.771025100441001 ], [ -112.104141621298993, 40.771282099888097 ], [ -112.108960621064, 40.771258100434501 ], [ -112.112719537827005, 40.771250345528003 ], [ -112.113171228718002, 40.771249406013403 ], [ -112.113351736191007, 40.771249029118998 ], [ -112.115705623170996, 40.7712440995587 ], [ -112.121390625819998, 40.771233098188098 ], [ -112.125587626693004, 40.771250099934399 ], [ -112.133986626663997, 40.771156098067699 ], [ -112.134682627871996, 40.771186097939697 ], [ -112.135070628208993, 40.771203098337402 ], [ -112.135681629027999, 40.771268097656701 ], [ -112.135748628076001, 40.771299098900599 ], [ -112.136737623797003, 40.771393380173599 ], [ -112.136776628646999, 40.771397098765597 ], [ -112.137938628213007, 40.771474097926401 ], [ -112.140040629384004, 40.7714630972742 ], [ -112.140485627825996, 40.771457097598002 ], [ -112.141084629847001, 40.771449097121902 ], [ -112.141843629906006, 40.7713980967849 ], [ -112.142897628618002, 40.771328097286002 ], [ -112.143123629472001, 40.771309096796898 ], [ -112.143749630360006, 40.771305097230403 ], [ -112.144161630088007, 40.7712990968597 ], [ -112.144788629901996, 40.771306097292097 ], [ -112.145531630066998, 40.771306097292097 ], [ -112.146843629420999, 40.771308096054902 ], [ -112.147762630211005, 40.771277096175901 ], [ -112.148893630713005, 40.771171096984901 ], [ -112.150058631551005, 40.770988097309797 ], [ -112.151485632328999, 40.7706060966538 ], [ -112.152169632043993, 40.770360096789297 ], [ -112.153833630852006, 40.7695950954976 ], [ -112.154599630582993, 40.769095096817502 ], [ -112.155036632223002, 40.768820095973702 ], [ -112.159842630670994, 40.764778095476402 ], [ -112.162334630930999, 40.762823094836499 ], [ -112.167525631139995, 40.758751092924904 ], [ -112.168710632968001, 40.757772094112298 ], [ -112.175952634294006, 40.751761091471799 ], [ -112.177482635005006, 40.750406091590399 ], [ -112.178135634757993, 40.749848092998199 ], [ -112.179365634096001, 40.748898091708803 ], [ -112.179698634182003, 40.748690092795997 ], [ -112.180021634222001, 40.748603091107803 ], [ -112.181041635293994, 40.7483280905454 ], [ -112.182300635843006, 40.748186092418202 ], [ -112.184192636053993, 40.747793091563302 ], [ -112.184917633980007, 40.747515091836704 ], [ -112.185314634538003, 40.747313091134899 ], [ -112.185604634967007, 40.747114091777398 ], [ -112.185737635036006, 40.747042091709297 ], [ -112.185903634716993, 40.746847091898999 ], [ -112.186040634985005, 40.746703091106603 ], [ -112.186267633867004, 40.746463091134899 ], [ -112.186457634736001, 40.746281091242402 ], [ -112.186659634403, 40.746087090322497 ], [ -112.186905635347998, 40.745630091293101 ], [ -112.187003636156007, 40.745448091162601 ], [ -112.187096635144002, 40.745276090985499 ], [ -112.188052633946995, 40.743503090370297 ], [ -112.189363633476006, 40.741654091052901 ], [ -112.189400635083004, 40.7416100904709 ], [ -112.190510633871995, 40.7403240896871 ], [ -112.193396634318006, 40.738608090066798 ], [ -112.195763636701002, 40.737102089950199 ], [ -112.198646636773006, 40.735685089252499 ], [ -112.199630636961999, 40.735212089397201 ], [ -112.200330637468994, 40.735123087924599 ], [ -112.200462636815004, 40.735065089501298 ], [ -112.201229636370996, 40.734736089108203 ], [ -112.202039637381006, 40.734056088135901 ], [ -112.203157637464997, 40.733272089240302 ], [ -112.204141637654004, 40.732824088932603 ], [ -112.207168636768003, 40.731315087950698 ], [ -112.208060637794006, 40.730872088708303 ], [ -112.208619637835994, 40.730593087017098 ], [ -112.211572638228006, 40.729305087664798 ], [ -112.216504639768004, 40.727347086067503 ], [ -112.218941639776006, 40.7263800864731 ], [ -112.219652640153996, 40.726109086858898 ], [ -112.220808639872004, 40.725668085770799 ], [ -112.220875639819994, 40.725654086185401 ], [ -112.222612640218998, 40.725294086014301 ], [ -112.223734640500993, 40.725002086480004 ], [ -112.224663640437996, 40.724677086356799 ], [ -112.224827639571998, 40.724620085038403 ], [ -112.225733639045004, 40.724291084739399 ], [ -112.225930472499996, 40.7242101551549 ], [ -112.225930639585997, 40.7242100857137 ], [ -112.226798642120002, 40.7248340848151 ], [ -112.227213641323004, 40.725088085604 ], [ -112.227371641507006, 40.725186084834398 ], [ -112.227446640951001, 40.725258084732801 ], [ -112.227674641454996, 40.725474085322098 ], [ -112.227750640725006, 40.725547084978302 ], [ -112.227806641699999, 40.725600084547899 ], [ -112.230203640626996, 40.728828084579 ], [ -112.231386643703004, 40.730420085871302 ], [ -112.238049645794007, 40.739389087075502 ], [ -112.242267645685004, 40.745067085732003 ], [ -112.245895648266995, 40.749950087236599 ], [ -112.249924536620995, 40.755357925375598 ], [ -112.255603651710999, 40.762979088138401 ], [ -112.258303653281999, 40.766552088211299 ], [ -112.260227653279003, 40.7690990876727 ], [ -112.257886455901001, 40.770712630797497 ], [ -112.253346653424003, 40.773841089089998 ], [ -112.250788651245003, 40.775558089697199 ], [ -112.250166652353002, 40.775981090112602 ], [ -112.240258651586998, 40.782818091468499 ], [ -112.238473649710002, 40.7840490916997 ], [ -112.217044648525999, 40.798866095545598 ], [ -112.197009310742004, 40.812627655077897 ], [ -112.195930612851001, 40.812628458029003 ], [ -112.178648509902999, 40.812639962460899 ], [ -112.139625404702997, 40.812615794381102 ], [ -112.101334143491002, 40.812660799068503 ], [ -112.101321415260998, 40.805440974680899 ], [ -112.101296353162994, 40.798265468982002 ] ] ] ] } },
{ "type": "Feature", "properties": { "District": "2", "n_precincts": 3, "source_year": "2025", "confidence": "high" }, "geometry": { "type": "Polygon", "coordinates": [ [ [ -112.091829610255004, 40.708745093765302 ], [ -112.091832610628003, 40.708474093853297 ], [ -112.091842610673993, 40.7076640946431 ], [ -112.091846609973999, 40.707394093398001 ], [ -112.091843610498998, 40.7071510935886 ], [ -112.091837609753, 40.706424092958599 ], [ -112.091835609205006, 40.706182093374998 ], [ -112.091833610452994, 40.705945094050399 ], [ -112.091829611153997, 40.705234093059403 ], [ -112.091828609532001, 40.704998092782297 ], [ -112.091830610977993, 40.704739094464898 ], [ -112.091836609029997, 40.703960093362902 ], [ -112.091839450400997, 40.7037147901206 ], [ -112.091839452198002, 40.703714724062998 ], [ -112.091929610712995, 40.703715074099897 ], [ -112.101386627560998, 40.7037510495771 ], [ -112.110479400917995, 40.703784918686601 ], [ -112.110509026458004, 40.706075811989997 ], [ -112.110570791922001, 40.710851077615899 ], [ -112.111331793426999, 40.710849999699498 ], [ -112.111354869349995, 40.712169356417903 ], [ -112.110922786884998, 40.712149833779897 ], [ -112.110702219041002, 40.712048871056297 ], [ -112.110190711132006, 40.712042443166901 ], [ -112.110167377392003, 40.717726680307599 ], [ -112.110166718029006, 40.717887452150102 ], [ -112.110165703831001, 40.7181344768222 ], [ -112.110165421760001, 40.718203092997598 ], [ -112.110057615841001, 40.718203093678397 ], [ -112.109462615813996, 40.718199093640401 ], [ -112.108368616020002, 40.718192093743397 ], [ -112.107678615558996, 40.718194094103097 ], [ -112.107084616256003, 40.7181970932808 ], [ -112.106601614585003, 40.7181980941414 ], [ -112.105154615512006, 40.718203094359303 ], [ -112.104672614565004, 40.7182060942175 ], [ -112.104486615690007, 40.718207093035403 ], [ -112.104275614905006, 40.718204094538997 ], [ -112.102098613390993, 40.718212094614302 ], [ -112.101875614706003, 40.718212093933403 ], [ -112.101565614186995, 40.718214094973298 ], [ -112.101547340657007, 40.718213485605901 ], [ -112.101535614048998, 40.718213094112897 ], [ -112.095872612039997, 40.718168094869299 ], [ -112.094377611490003, 40.7181720942284 ], [ -112.091804612836, 40.718180094988298 ], [ -112.091235612747994, 40.7181790941274 ], [ -112.089997612115994, 40.718177095129001 ], [ -112.089640610841997, 40.718175095449602 ], [ -112.089529611412999, 40.718174095950403 ], [ -112.088961611149998, 40.718171096090799 ], [ -112.088535610278996, 40.718168096230997 ], [ -112.087257611260995, 40.718161095649997 ], [ -112.087041610452005, 40.718159094608403 ], [ -112.086832610214998, 40.718159095289302 ], [ -112.086573610646994, 40.7181570949285 ], [ -112.085927611464996, 40.7182110951155 ], [ -112.083914610880996, 40.718380095972499 ], [ -112.083213609650002, 40.718390096380404 ], [ -112.082899610729001, 40.718395095222 ], [ -112.082629609494006, 40.7183990959292 ], [ -112.082307609278999, 40.718405096308501 ], [ -112.082300834185006, 40.718336528682201 ], [ -112.082290610458998, 40.718233095658299 ], [ -112.08229761103, 40.7178830966837 ], [ -112.082302610154997, 40.7176860954497 ], [ -112.082297610132002, 40.717458095892802 ], [ -112.082299608883005, 40.716316094830297 ], [ -112.082300609605994, 40.715794095847102 ], [ -112.082300609605994, 40.715454095792701 ], [ -112.082303609080995, 40.714436095216499 ], [ -112.082304609803998, 40.714097095277303 ], [ -112.082301609430999, 40.711416095475798 ], [ -112.082301609430999, 40.710670095670103 ], [ -112.082302598476005, 40.7090726394417 ], [ -112.082302607459994, 40.709057094692803 ], [ -112.082303609080995, 40.708927094200298 ], [ -112.082308608206006, 40.708539095254501 ], [ -112.082311608579005, 40.7084100940775 ], [ -112.082308610002002, 40.708221094689002 ], [ -112.082299608883005, 40.707656095343303 ], [ -112.082297610132002, 40.7074680941559 ], [ -112.082296608510006, 40.7068640945296 ], [ -112.082296609408004, 40.705701183924297 ], [ -112.082296609408004, 40.705053095166598 ], [ -112.082296608510006, 40.704450094453897 ], [ -112.082295608685001, 40.704407094854098 ], [ -112.082295608685001, 40.704278094526003 ], [ -112.082295608685001, 40.7042350934532 ], [ -112.082294608859996, 40.704130094691799 ], [ -112.08229260921, 40.703815094009698 ], [ -112.08229260921, 40.703716628154901 ], [ -112.082382773115995, 40.7037166138538 ], [ -112.088971463871999, 40.703715422774799 ], [ -112.088970741625999, 40.703723015987698 ], [ -112.088973945917004, 40.704093270210102 ], [ -112.088932842603, 40.704203158614597 ], [ -112.088873745135004, 40.704317747777601 ], [ -112.088838858163001, 40.704445884523103 ], [ -112.088840083465001, 40.7045876171237 ], [ -112.088867085923994, 40.706324488959197 ], [ -112.088859317293995, 40.708203217454098 ], [ -112.089231909727005, 40.708219630625798 ], [ -112.089412615727994, 40.708278177465097 ], [ -112.090483493785001, 40.708617053134702 ], [ -112.090684554711999, 40.708768047367002 ], [ -112.091822090457995, 40.708765454975001 ], [ -112.091829321896, 40.708765429779703 ], [ -112.091829610255004, 40.708745093765302 ] ] ] } },
{ "type": "Feature", "properties": { "District": "3", "n_precincts": 3, "source_year": "2019", "confidence": "medium" }, "geometry": { "type": "MultiPolygon", "coordinates": [ [ [ [ -112.091839452198002, 40.703714684564702 ], [ -112.091839610300994, 40.703701093732903 ], [ -112.091832611526996, 40.7035270931135 ], [ -112.091814610187001, 40.703007093429903 ], [ -112.091808610339001, 40.702833092359498 ], [ -112.091805609068004, 40.702689092327503 ], [ -112.091800610841005, 40.702257093087702 ], [ -112.091798610292997, 40.7021130931725 ], [ -112.091798608496006, 40.701954092039003 ], [ -112.091802610491001, 40.701479094033303 ], [ -112.091803608519001, 40.701321093181697 ], [ -112.091806609791007, 40.701163092636399 ], [ -112.091819610209996, 40.700691091680298 ], [ -112.091824610231996, 40.700534092128898 ], [ -112.091829609357006, 40.700375093355497 ], [ -112.091840610125999, 40.700077092816102 ], [ -112.091845609250001, 40.699900092262297 ], [ -112.091851609098001, 40.699742093794697 ], [ -112.091852610719997, 40.699551093405503 ], [ -112.091852608923006, 40.699279093756502 ], [ -112.091854607675003, 40.698990093210398 ], [ -112.091855609296005, 40.698980093293997 ], [ -112.091857609843998, 40.698790093915299 ], [ -112.091845609250001, 40.698658091504498 ], [ -112.091812610537005, 40.698262092918597 ], [ -112.091801609767998, 40.698131093348103 ], [ -112.091815609112999, 40.697436092409497 ], [ -112.091790868611994, 40.696508828392602 ], [ -112.091790869510007, 40.696508777992598 ], [ -112.091881054077007, 40.696509215926703 ], [ -112.098374970774003, 40.696540582347701 ], [ -112.099352145563998, 40.696537875739601 ], [ -112.103147789049004, 40.696527291770202 ], [ -112.106114445629998, 40.696595444602998 ], [ -112.107028728467995, 40.697437310162499 ], [ -112.107137166800996, 40.697533855150802 ], [ -112.107249741876004, 40.697627617836801 ], [ -112.107366336911994, 40.697718492666901 ], [ -112.107486817161004, 40.697806380217102 ], [ -112.107611053266993, 40.697891184469299 ], [ -112.107738909583006, 40.6979728121294 ], [ -112.107870246869993, 40.698051175351601 ], [ -112.108004918705007, 40.6981261862907 ], [ -112.108142780456006, 40.698197765273399 ], [ -112.108283677615006, 40.698265830583601 ], [ -112.110529635606994, 40.6993114940704 ], [ -112.110534124489007, 40.699926415996202 ], [ -112.110535908543, 40.700170762025003 ], [ -112.110539128105003, 40.700611849620103 ], [ -112.110857054459998, 40.700608691649599 ], [ -112.110868090264006, 40.701921342964098 ], [ -112.110458903159994, 40.701919598180503 ], [ -112.110479036201994, 40.703756929376702 ], [ -112.110479400917995, 40.703784918686601 ], [ -112.101386627560998, 40.7037510495771 ], [ -112.091929610712995, 40.703715074099897 ], [ -112.091839452198002, 40.703714724062998 ], [ -112.091839452198002, 40.703714684564702 ] ] ], [ [ [ -112.068414610047995, 40.709063934164803 ], [ -112.068414963085999, 40.709064112573998 ], [ -112.068513418441, 40.709079393112297 ], [ -112.069079269932999, 40.709112885670301 ], [ -112.069547259857003, 40.709141634712502 ], [ -112.070648450665004, 40.709183064389997 ], [ -112.071774372991001, 40.709188571230598 ], [ -112.071816854321, 40.709189834392298 ], [ -112.071852654880004, 40.709190898716599 ], [ -112.072729805856, 40.709216967508397 ], [ -112.073450269087004, 40.709209117523002 ], [ -112.074430728116994, 40.709185279519602 ], [ -112.075198096880001, 40.709171262848599 ], [ -112.076025610547006, 40.709156187978301 ], [ -112.076025750683996, 40.7091560933263 ], [ -112.082212426487004, 40.709073840639 ], [ -112.082302598476005, 40.7090726394417 ], [ -112.082301609430999, 40.710670095670103 ], [ -112.082301609430999, 40.711416095475798 ], [ -112.082304609803998, 40.714097095277303 ], [ -112.082303609080995, 40.714436095216499 ], [ -112.082300609605994, 40.715454095792701 ], [ -112.082300609605994, 40.715794095847102 ], [ -112.082299608883005, 40.716316094830297 ], [ -112.082297610132002, 40.717458095892802 ], [ -112.082302610154997, 40.7176860954497 ], [ -112.08229761103, 40.7178830966837 ], [ -112.082290610458998, 40.718233095658299 ], [ -112.082300834185006, 40.718336528682201 ], [ -112.082307609278999, 40.718405096308501 ], [ -112.081690611308005, 40.718410095149103 ], [ -112.080496610157994, 40.7184190946952 ], [ -112.080136610308003, 40.718419095376099 ], [ -112.076593608115004, 40.718428096282601 ], [ -112.073623608003999, 40.718460096470203 ], [ -112.071453607061002, 40.718485096776199 ], [ -112.071347606756007, 40.718486096270901 ], [ -112.071290606854006, 40.718487096446303 ], [ -112.070803606783002, 40.718498096332503 ], [ -112.070641606400997, 40.718503095846899 ], [ -112.070234606694996, 40.718512097423002 ], [ -112.069014606503998, 40.718540097552697 ], [ -112.068608606623002, 40.718550097255701 ], [ -112.068297607177001, 40.718557096434097 ], [ -112.067862606085995, 40.718568097670499 ], [ -112.067368606341006, 40.718611096977497 ], [ -112.067059607442999, 40.718639096384599 ], [ -112.066288605893007, 40.718706097058003 ], [ -112.066069605609002, 40.718726095731803 ], [ -112.064792606416006, 40.718814096497503 ], [ -112.063973606980994, 40.718829097011003 ], [ -112.063202829111006, 40.718845051393302 ], [ -112.063202402412003, 40.718776417496699 ], [ -112.063201118718993, 40.718570516063103 ], [ -112.063154006573996, 40.711007506060497 ], [ -112.063142407526996, 40.7087611649644 ], [ -112.068414605556001, 40.7090640941883 ], [ -112.068414610047995, 40.709063934164803 ] ] ] ] } },
{ "type": "Feature", "properties": { "District": "4", "n_precincts": 3, "source_year": "2025", "confidence": "high" }, "geometry": { "type": "Polygon", "coordinates": [ [ [ -112.074002603628998, 40.684566091439201 ], [ -112.073928604908005, 40.684668093101301 ], [ -112.073980603888003, 40.6846790917619 ], [ -112.075132604306006, 40.684984092357503 ], [ -112.075603604484996, 40.685110092595998 ], [ -112.075658604736006, 40.685126091841497 ], [ -112.075948603368005, 40.685214092050998 ], [ -112.076058603871004, 40.6850770927349 ], [ -112.078380603352997, 40.682011092271097 ], [ -112.079153603655001, 40.682011090908702 ], [ -112.081473606182996, 40.6820120909507 ], [ -112.082241284865006, 40.682013084180397 ], [ -112.082247606310005, 40.682013092355099 ], [ -112.083352605974, 40.682013091674001 ], [ -112.086669606415001, 40.6820150910767 ], [ -112.087775606803007, 40.682016091799902 ], [ -112.088587606565, 40.682016090437401 ], [ -112.091023606747996, 40.682018091883798 ], [ -112.091092607242999, 40.682018090521296 ], [ -112.091327607419998, 40.682017090479398 ], [ -112.091861606449001, 40.682016091799902 ], [ -112.091861608246006, 40.682018878701498 ], [ -112.091861608246006, 40.682495091104499 ], [ -112.091837607057997, 40.685140092455399 ], [ -112.091842607979004, 40.686415091711197 ], [ -112.091842183075997, 40.686548961655397 ], [ -112.091838607781, 40.687677092338198 ], [ -112.091837607955995, 40.6882050913961 ], [ -112.091837607955995, 40.688645092069898 ], [ -112.091832608831993, 40.688813090371902 ], [ -112.091832609730005, 40.688956091852702 ], [ -112.091832837004006, 40.6889693887086 ], [ -112.092270144070994, 40.689017874086503 ], [ -112.092706233022, 40.689072342016999 ], [ -112.093140963720998, 40.689132776137797 ], [ -112.093574196928003, 40.6891991553168 ], [ -112.094005789811007, 40.689271459101697 ], [ -112.094435604029997, 40.689349663632903 ], [ -112.094863499447001, 40.689433744368003 ], [ -112.095289338621001, 40.689523673357698 ], [ -112.095712983211001, 40.689619420607798 ], [ -112.096205688482996, 40.689815154159199 ], [ -112.096693955179006, 40.690017229283598 ], [ -112.097177643162993, 40.690225588026301 ], [ -112.097656614990996, 40.6904401710689 ], [ -112.098130728729998, 40.6906609156866 ], [ -112.098599850531002, 40.690887759153398 ], [ -112.099063843850004, 40.6911206353371 ], [ -112.099522573938998, 40.691359477423497 ], [ -112.099975909646005, 40.691604215873198 ], [ -112.100423719814998, 40.691854781827303 ], [ -112.100865875988006, 40.692111100977698 ], [ -112.101302248807002, 40.692373099696702 ], [ -112.101732713405994, 40.692640702994197 ], [ -112.102157145817998, 40.692913833836599 ], [ -112.106114445629998, 40.696595444602998 ], [ -112.103147789049004, 40.696527291770202 ], [ -112.099352145563998, 40.696537875739601 ], [ -112.098374970774003, 40.696540582347701 ], [ -112.091881054077007, 40.696509215926703 ], [ -112.091790869510007, 40.696508777992598 ], [ -112.091790868611994, 40.696508828392602 ], [ -112.091700691232006, 40.696508660847002 ], [ -112.082368716277998, 40.696490945289497 ], [ -112.082278608067995, 40.696493093414396 ], [ -112.082275972410997, 40.6964930804739 ], [ -112.082276069429, 40.696424460996298 ], [ -112.082281191622997, 40.692556515283101 ], [ -112.082281992022004, 40.691951073353202 ], [ -112.080926970552994, 40.691767848178102 ], [ -112.079811190206001, 40.6913941620179 ], [ -112.078448169238996, 40.691236560230401 ], [ -112.077583308114001, 40.691076497129899 ], [ -112.076317145298006, 40.690589757043099 ], [ -112.074448643219, 40.689562434911601 ], [ -112.073498447532003, 40.689124679931901 ], [ -112.072483970199997, 40.6889400274544 ], [ -112.072407634960996, 40.688926217681598 ], [ -112.072533958750995, 40.688772955847902 ], [ -112.072766588272998, 40.688410607184899 ], [ -112.072758359705006, 40.6878094271188 ], [ -112.072746047395995, 40.686517126646102 ], [ -112.072727216013007, 40.686207550055897 ], [ -112.072726449749993, 40.686189316102599 ], [ -112.072693915464995, 40.686189322233197 ], [ -112.072693908279007, 40.686160286041897 ], [ -112.072693835514997, 40.685903729426897 ], [ -112.072693827430001, 40.685872665895403 ], [ -112.072693478884005, 40.684602129710001 ], [ -112.072693805870998, 40.684288356180801 ], [ -112.073734285837006, 40.684495541413099 ], [ -112.073887227607003, 40.6845263658034 ], [ -112.074010930113005, 40.6845546894886 ], [ -112.074002603628998, 40.684566091439201 ] ] ] } },
{ "type": "Feature", "properties": { "District": "5", "n_precincts": 2, "source_year": "2019", "confidence": "medium" }, "geometry": { "type": "Polygon", "coordinates": [ [ [ -112.063090602583003, 40.692284093386696 ], [ -112.063090602583003, 40.692255095269303 ], [ -112.063090601685005, 40.691847094628301 ], [ -112.063091601509001, 40.690623092700797 ], [ -112.063092601334006, 40.690216092884 ], [ -112.063091699425996, 40.690216092884 ], [ -112.063092344416006, 40.689249722813997 ], [ -112.063083293890003, 40.687120569654603 ], [ -112.063083195074995, 40.6870984491635 ], [ -112.063072136814, 40.6844958452292 ], [ -112.063065922269004, 40.683034160804098 ], [ -112.063068666622002, 40.683034152629503 ], [ -112.063066601394993, 40.682667093457901 ], [ -112.063065602468001, 40.682486093515799 ], [ -112.063063884889999, 40.682069711875698 ], [ -112.063063602819, 40.682001092531301 ], [ -112.063194609525993, 40.682001154523 ], [ -112.065205602375997, 40.682002093254603 ], [ -112.067831227034006, 40.682003361700502 ], [ -112.071631602845002, 40.682005091337402 ], [ -112.073773603299998, 40.682007091421603 ], [ -112.074325603668996, 40.682007091421603 ], [ -112.075870603550001, 40.682008092826202 ], [ -112.074010930113005, 40.6845546894886 ], [ -112.073887227607003, 40.6845263658034 ], [ -112.073734285837006, 40.684495541413099 ], [ -112.072693805870998, 40.684288356180801 ], [ -112.072693478884005, 40.684602129710001 ], [ -112.072693827430001, 40.685872665895403 ], [ -112.072693835514997, 40.685903729426897 ], [ -112.072693908279007, 40.686160286041897 ], [ -112.072693915464995, 40.686189322233197 ], [ -112.072726449749993, 40.686189316102599 ], [ -112.072727216013007, 40.686207550055897 ], [ -112.072746047395995, 40.686517126646102 ], [ -112.072758359705006, 40.6878094271188 ], [ -112.072766588272998, 40.688410607184899 ], [ -112.072533958750995, 40.688772955847902 ], [ -112.072407634960996, 40.688926217681598 ], [ -112.072483970199997, 40.6889400274544 ], [ -112.073498447532003, 40.689124679931901 ], [ -112.074448643219, 40.689562434911601 ], [ -112.076317145298006, 40.690589757043099 ], [ -112.077583308114001, 40.691076497129899 ], [ -112.078448169238996, 40.691236560230401 ], [ -112.079811190206001, 40.6913941620179 ], [ -112.080926970552994, 40.691767848178102 ], [ -112.082281992022004, 40.691951073353202 ], [ -112.082281191622997, 40.692556515283101 ], [ -112.082276069429, 40.696424460996298 ], [ -112.082275972410997, 40.6964930804739 ], [ -112.081886608431006, 40.696491094445904 ], [ -112.080711607547997, 40.696485092772797 ], [ -112.080320607735999, 40.6964840922669 ], [ -112.079860607428003, 40.696484092947998 ], [ -112.078542606430005, 40.696484094310101 ], [ -112.078482605256994, 40.696484092947998 ], [ -112.078023607470001, 40.696485093453902 ], [ -112.077571606660001, 40.696485093453902 ], [ -112.076215605127999, 40.696485094134999 ], [ -112.075785000392003, 40.696486049008598 ], [ -112.075784789286999, 40.696486049689597 ], [ -112.075764605041002, 40.696486093959798 ], [ -112.075233606384998, 40.696488094971599 ], [ -112.073640605026995, 40.6964970933942 ], [ -112.073110606195996, 40.6965000949114 ], [ -112.072933606644, 40.696496094250698 ], [ -112.072685604252001, 40.696492094270702 ], [ -112.072402604394995, 40.696495093063803 ], [ -112.072225604842998, 40.696498094581003 ], [ -112.072132604057998, 40.6964970933942 ], [ -112.071855604049006, 40.696494093239103 ], [ -112.071763605784, 40.696494094601299 ], [ -112.071662605501999, 40.696493093414396 ], [ -112.071361603406004, 40.696490095302302 ], [ -112.071261603847006, 40.696490094621197 ], [ -112.071110605133001, 40.696490094621197 ], [ -112.070657605395994, 40.696490094621197 ], [ -112.070507605608, 40.696490093940099 ], [ -112.070445603886995, 40.696490095302302 ], [ -112.070259605911005, 40.696490093940099 ], [ -112.070220066564005, 40.696490093259001 ], [ -112.07019760419, 40.696490093940099 ], [ -112.069756605047999, 40.696491094445904 ], [ -112.068437604224002, 40.696494093239103 ], [ -112.067997604007999, 40.696496094931703 ], [ -112.067646604378993, 40.696496094250698 ], [ -112.066593604592995, 40.696496094931703 ], [ -112.066242603166998, 40.696496094250698 ], [ -112.066103603249999, 40.6964960935696 ], [ -112.065688604046002, 40.696496094931703 ], [ -112.065550603055996, 40.696497094075298 ], [ -112.065091604369997, 40.696503095066298 ], [ -112.065057604035005, 40.696502095241698 ], [ -112.063579602304003, 40.6964960935696 ], [ -112.063088018130003, 40.696495095106997 ], [ -112.063087604006, 40.696495094425899 ], [ -112.063087604006, 40.695676094024201 ], [ -112.063089602757998, 40.693219093709999 ], [ -112.063090601685005, 40.692401094471002 ], [ -112.063090602583003, 40.692371094474602 ], [ -112.063090602583003, 40.692284478220998 ], [ -112.063090602583003, 40.692284093386696 ] ] ] } }
]
}
