{"type":"FeatureCollection","crs":{"type":"name","properties":{"name":"EPSG:4326"}},"features":[{"type":"Feature","geometry":{"type":"Polygon","coordinates":[[[-112.074010930113,40.6845546894886],[-112.074002603629,40.6845660914392],[-112.073928604908,40.6846680931013],[-112.073980603888,40.6846790917619],[-112.075132604306,40.6849840923575],[-112.075603604485,40.685110092596],[-112.075658604736,40.6851260918415],[-112.075948603368,40.685214092051],[-112.076058603871,40.6850770927349],[-112.078380603353,40.6820110922711],[-112.079153603655,40.6820110909087],[-112.081473606183,40.6820120909507],[-112.082241284865,40.6820130841804],[-112.082242832662,40.6822052179961],[-112.082287546306,40.6877542620014],[-112.082281992022,40.6919510733532],[-112.080926970553,40.6917678481781],[-112.079811190206,40.6913941620179],[-112.078448169239,40.6912365602304],[-112.077583308114,40.6910764971299],[-112.076317145298,40.6905897570431],[-112.074448643219,40.6895624349116],[-112.073498447532,40.6891246799319],[-112.0724839702,40.6889400274544],[-112.072407634961,40.6889262176816],[-112.072533958751,40.6887729558479],[-112.072766588273,40.6884106071849],[-112.072758359705,40.6878094271188],[-112.072746047396,40.6865171266461],[-112.072727216013,40.6862075500559],[-112.07272644975,40.6861893161026],[-112.072693915465,40.6861893222332],[-112.072693908279,40.6861602860419],[-112.072693835515,40.6859037294269],[-112.07269382743,40.6858726658954],[-112.072693478884,40.68460212971],[-112.072693805871,40.6842883561808],[-112.073734285837,40.6844955414131],[-112.073887227607,40.6845263658034],[-112.074010930113,40.6845546894886]]]},"properties":{"PrecinctID":"MAG016","VistaID":"MAG016","CountyID":18,"SubPrecinctID":null,"AliasName":null,"VersionNbr":null,"EffectiveDate":1765929600000}},{"type":"Feature","geometry":{"type":"Polygon","coordinates":[[[-112.091839452198,40.703714724063],[-112.091839452198,40.7037146845647],[-112.091839610301,40.7037010937329],[-112.091832611527,40.7035270931135],[-112.091814610187,40.7030070934299],[-112.091808610339,40.7028330923595],[-112.091805609068,40.7026890923275],[-112.091800610841,40.7022570930877],[-112.091798610293,40.7021130931725],[-112.091798608496,40.701954092039],[-112.091802610491,40.7014790940333],[-112.091803608519,40.7013210931817],[-112.091806609791,40.7011630926364],[-112.09181961021,40.7006910916803],[-112.091824610232,40.7005340921289],[-112.091829609357,40.7003750933555],[-112.091840610126,40.7000770928161],[-112.09184560925,40.6999000922623],[-112.091851609098,40.6997420937947],[-112.09185261072,40.6995510934055],[-112.091852608923,40.6992790937565],[-112.091854607675,40.6989900932104],[-112.091855609296,40.698980093294],[-112.091857609844,40.6987900939153],[-112.09184560925,40.6986580915045],[-112.091812610537,40.6982620929186],[-112.091801609768,40.6981310933481],[-112.091815609113,40.6974360924095],[-112.091790868612,40.6965088283926],[-112.09179086951,40.6965087779926],[-112.091881054077,40.6965092159267],[-112.098374970774,40.6965405823477],[-112.099352145564,40.6965378757396],[-112.099517151708,40.6997557535389],[-112.099886339527,40.7002399000023],[-112.101339872946,40.7021245166355],[-112.101386627561,40.7037510495771],[-112.091929610713,40.7037150740999],[-112.091839452198,40.703714724063]]]},"properties":{"PrecinctID":"MAG007","VistaID":"MAG007","CountyID":18,"SubPrecinctID":null,"AliasName":null,"VersionNbr":null,"EffectiveDate":1765929600000}},{"type":"Feature","geometry":{"type":"Polygon","coordinates":[[[-112.099352145564,40.6965378757396],[-112.098374970774,40.6965405823477],[-112.091881054077,40.6965092159267],[-112.09179086951,40.6965087779926],[-112.091790608999,40.6964990930435],[-112.091790608101,40.6962010928729],[-112.091780608055,40.6957510926535],[-112.091808608542,40.694149093192],[-112.09181260874,40.6938300914847],[-112.091824608436,40.6928750926224],[-112.091829608459,40.6925570921915],[-112.091827608809,40.6925320916863],[-112.091824609334,40.6924600911325],[-112.091823608611,40.6924360925199],[-112.091825609159,40.6923610922023],[-112.091831609905,40.6921370919952],[-112.09183460938,40.6920630932756],[-112.091847608002,40.690895092272],[-112.091840607431,40.6900350923276],[-112.091835607408,40.6898680909002],[-112.091837607956,40.6894110919839],[-112.091837607956,40.6892480914512],[-112.091832837004,40.6889693887086],[-112.092270144071,40.6890178740865],[-112.092706233022,40.689072342017],[-112.093140963721,40.6891327761378],[-112.093574196928,40.6891991553168],[-112.094005789811,40.6892714591017],[-112.09443560403,40.6893496636329],[-112.094863499447,40.689433744368],[-112.095289338621,40.6895236733577],[-112.095712983211,40.6896194206078],[-112.096205688483,40.6898151541592],[-112.096693955179,40.6900172292836],[-112.097177643163,40.6902255880263],[-112.097656614991,40.6904401710689],[-112.09813072873,40.6906609156866],[-112.098599850531,40.6908877591534],[-112.09906384385,40.6911206353371],[-112.099522573939,40.6913594774235],[-112.099975909646,40.6916042158732],[-112.100423719815,40.6918547818273],[-112.100865875988,40.6921111009777],[-112.101302248807,40.6923730996967],[-112.101732713406,40.6926407029942],[-112.102157145818,40.6929138338366],[-112.10611444563,40.696595444603],[-112.103147789049,40.6965272917702],[-112.099352145564,40.6965378757396]]]},"properties":{"PrecinctID":"MAG012","VistaID":"MAG012","CountyID":18,"SubPrecinctID":null,"AliasName":null,"VersionNbr":null,"EffectiveDate":1765929600000}},{"type":"Feature","geometry":{"type":"Polygon","coordinates":[[[-112.063116547725,40.7037534467158],[-112.063116536047,40.7037511047386],[-112.063101236839,40.699928267756],[-112.063097688494,40.6990408283078],[-112.06309673089,40.6988015628979],[-112.063093319987,40.6979490000709],[-112.063090630431,40.6972766026809],[-112.063089942321,40.6971052666642],[-112.063087777381,40.6965637131497],[-112.06308801813,40.696495095107],[-112.063579602304,40.6964960935696],[-112.065057604035,40.6965020952417],[-112.06509160437,40.6965030950663],[-112.065550603056,40.6964970940753],[-112.065688604046,40.6964960949317],[-112.06610360325,40.6964960935696],[-112.066242603167,40.6964960942507],[-112.066593604593,40.6964960949317],[-112.067646604379,40.6964960942507],[-112.067997604008,40.6964960949317],[-112.068437604224,40.6964940932391],[-112.069756605048,40.6964910944459],[-112.07019760419,40.6964900939401],[-112.070220066564,40.696490093259],[-112.070219659627,40.6965000370196],[-112.070219902172,40.6965115397694],[-112.070260227545,40.6984153724276],[-112.070231096079,40.7001900709226],[-112.070246396185,40.7002101132963],[-112.073162471328,40.7009293750625],[-112.07320716431,40.701748891115],[-112.075065348339,40.7017834231993],[-112.075065392357,40.7017734863566],[-112.075104496919,40.7017732296099],[-112.075736311703,40.7017753510044],[-112.076085681789,40.7017712771097],[-112.076999427434,40.7017779402633],[-112.076973581107,40.6998095078095],[-112.077927304478,40.6994986138497],[-112.078237078622,40.6993688541788],[-112.078692710422,40.6991560311266],[-112.078969272054,40.6990735331684],[-112.079261752731,40.6990396480421],[-112.079820622517,40.6990247608924],[-112.080677688061,40.699020528144],[-112.081651991835,40.6990278426601],[-112.08224966974,40.6990172039209],[-112.082265421698,40.6990169226457],[-112.08227953513,40.699016672699],[-112.082279607893,40.6990280926067],[-112.082279606995,40.6991680932426],[-112.082280607718,40.6995900936222],[-112.082281608442,40.699731093534],[-112.082281605747,40.7000940943682],[-112.08228460612,40.7010370934674],[-112.082285606843,40.7012000930821],[-112.082289608837,40.7022510946581],[-112.082291606691,40.7029640935794],[-112.082291607589,40.703113093687],[-112.082291607589,40.7035610937712],[-112.082292608312,40.7037110936216],[-112.08229260921,40.7037166281549],[-112.082287158233,40.7037166295168],[-112.081147691109,40.7037197451177],[-112.079898588199,40.7037233884977],[-112.07926370477,40.703710785126],[-112.078559333959,40.7037170176901],[-112.078005633079,40.7037202906032],[-112.076287340993,40.7037199616775],[-112.076276400412,40.7037198418205],[-112.076266125481,40.7037197280926],[-112.07626660608,40.7037300957215],[-112.075056846684,40.7037316974464],[-112.068561604971,40.7037400942438],[-112.068559964647,40.7037490331204],[-112.068444601202,40.7037490705757],[-112.068418924656,40.7037490773857],[-112.067256900836,40.7037494430856],[-112.065996460287,40.7037498258106],[-112.064793347526,40.7037499034452],[-112.063116547725,40.7037534467158]]]},"properties":{"PrecinctID":"MAG010","VistaID":"MAG010","CountyID":18,"SubPrecinctID":null,"AliasName":null,"VersionNbr":null,"EffectiveDate":1765929600000}},{"type":"Feature","geometry":{"type":"Polygon","coordinates":[[[-112.063142407527,40.7087611649644],[-112.063142344645,40.7087491856192],[-112.063116547725,40.7037534467158],[-112.064793347526,40.7037499034452],[-112.065996460287,40.7037498258106],[-112.067256900836,40.7037494430856],[-112.068418924656,40.7037490773857],[-112.068444601202,40.7037490705757],[-112.068559964647,40.7037490331204],[-112.068561604971,40.7037400942438],[-112.075056846684,40.7037316974464],[-112.07626660608,40.7037300957215],[-112.076266125481,40.7037197280926],[-112.076276400412,40.7037198418205],[-112.076287340993,40.7037199616775],[-112.078005633079,40.7037202906032],[-112.078559333959,40.7037170176901],[-112.07926370477,40.703710785126],[-112.079898588199,40.7037233884977],[-112.081147691109,40.7037197451177],[-112.082287158233,40.7037166295168],[-112.08229260921,40.7037166281549],[-112.08229260921,40.7038150940097],[-112.08229460886,40.7041300946918],[-112.082295608685,40.7042350934532],[-112.082295608685,40.704278094526],[-112.082295608685,40.7044070948541],[-112.08229660851,40.7044500944539],[-112.082296609408,40.7050530951666],[-112.082296609408,40.7057011839243],[-112.08229660851,40.7068640945296],[-112.082297610132,40.7074680941559],[-112.082299608883,40.7076560953433],[-112.082308610002,40.708221094689],[-112.082311608579,40.7084100940775],[-112.082308608206,40.7085390952545],[-112.082303609081,40.7089270942003],[-112.08230260746,40.7090570946928],[-112.082302598476,40.7090726394417],[-112.082212426487,40.709073840639],[-112.076025750684,40.7091560933263],[-112.076025610547,40.7091561879783],[-112.07519809688,40.7091712628486],[-112.074430728117,40.7091852795196],[-112.073450269087,40.709209117523],[-112.072729805856,40.7092169675084],[-112.07185265488,40.7091908987166],[-112.071816854321,40.7091898343923],[-112.071774372991,40.7091885712306],[-112.070648450665,40.70918306439],[-112.069547259857,40.7091416347125],[-112.069079269933,40.7091128856703],[-112.068513418441,40.7090793931123],[-112.068414963086,40.709064112574],[-112.068414610048,40.7090639341648],[-112.068414605556,40.7090640941883],[-112.063142407527,40.7087611649644]]]},"properties":{"PrecinctID":"MAG009","VistaID":"MAG009","CountyID":18,"SubPrecinctID":null,"AliasName":null,"VersionNbr":null,"EffectiveDate":1765929600000}},{"type":"Feature","geometry":{"type":"Polygon","coordinates":[[[-112.100184621524,40.7711351008025],[-112.10017662023,40.7707311008075],[-112.100163619811,40.7701341003257],[-112.100143621516,40.7692121003468],[-112.098715619116,40.7692181002257],[-112.09219462001,40.7692411003233],[-112.091738617205,40.769252100663],[-112.091715022954,40.7685159345115],[-112.091588616519,40.764572100303],[-112.091497617181,40.7619981008414],[-112.091264617552,40.7620081001371],[-112.082188615742,40.7620200998343],[-112.082202615985,40.7612360998664],[-112.082217615156,40.7548131003008],[-112.081468615143,40.754830099443],[-112.080808613022,40.7548291004943],[-112.06429761044,40.7548131016617],[-112.064334612046,40.754276101142],[-112.064332609701,40.7520031016088],[-112.06433461025,40.751849101632],[-112.064338611346,40.7515411019693],[-112.064341611719,40.7513161003993],[-112.06447160872,40.7413651001871],[-112.064482607693,40.7406860980713],[-112.06448961006,40.7402420994384],[-112.064589608721,40.7402420994384],[-112.065001609348,40.7402410995899],[-112.066237610331,40.7402390992122],[-112.066650609884,40.7402390992122],[-112.067677609731,40.7402370995151],[-112.067928611598,40.7402360996665],[-112.068008611065,40.7402360989859],[-112.068038611203,40.7402360989859],[-112.068031609733,40.7367450990035],[-112.068028608462,40.7367030990618],[-112.067992607579,40.7300560978611],[-112.067992608477,40.729550098537],[-112.068020608066,40.7295430977916],[-112.068070608295,40.7295300969887],[-112.068945607806,40.7293090986081],[-112.069358610953,40.7292050992363],[-112.070368609284,40.7289530985398],[-112.070360608888,40.7284690981992],[-112.070336609497,40.7270200966207],[-112.070328608203,40.726537095891],[-112.070312609208,40.7255660965049],[-112.069874608642,40.7255670972547],[-112.06798160681,40.7255730963072],[-112.067529608695,40.7255750964451],[-112.066748607098,40.7255790980822],[-112.066351607438,40.7255800974703],[-112.065163607933,40.7255840984264],[-112.064767605403,40.7255860978831],[-112.064469608172,40.7255870986327],[-112.063995608519,40.7255890987702],[-112.063575606598,40.7255900988389],[-112.063368794657,40.7255914910379],[-112.063278608294,40.7255920982955],[-112.0632666077,40.7250990986959],[-112.063254608004,40.7245690991531],[-112.063232605568,40.7236200970482],[-112.063222607319,40.7231820988446],[-112.063222607319,40.7231270984996],[-112.063217606398,40.7222700977006],[-112.063206606527,40.71973609686],[-112.063205606702,40.7197010968144],[-112.063200606679,40.7188450970104],[-112.063202829111,40.7188450513933],[-112.063973606981,40.718829097011],[-112.064792606416,40.7188140964975],[-112.066069605609,40.7187260957318],[-112.066288605893,40.718706097058],[-112.067059607443,40.7186390963846],[-112.067368606341,40.7186110969775],[-112.067862606086,40.7185680976705],[-112.068297607177,40.7185570964341],[-112.068608606623,40.7185500972557],[-112.069014606504,40.7185400975527],[-112.070234606695,40.718512097423],[-112.070641606401,40.7185030958469],[-112.070803606783,40.7184980963325],[-112.071290606854,40.7184870964463],[-112.071347606756,40.7184860962709],[-112.071453607061,40.7184850967762],[-112.073623608004,40.7184600964702],[-112.076593608115,40.7184280962826],[-112.080136610308,40.7184190953761],[-112.080496610158,40.7184190946952],[-112.081690611308,40.7184100951491],[-112.082307609279,40.7184050963085],[-112.082305816242,40.7184737292263],[-112.082303609979,40.7185580959277],[-112.082302610155,40.7186470957268],[-112.082302611053,40.7188010963221],[-112.08230161033,40.7190170953985],[-112.08230161033,40.7191710964995],[-112.082297611928,40.7204410946395],[-112.082294610657,40.72154609573],[-112.082297657742,40.7236071236818],[-112.082298611753,40.7242520955841],[-112.082299107623,40.7245677355259],[-112.082300611403,40.7255230969253],[-112.08229961068,40.7256480953097],[-112.082297612827,40.725916095929],[-112.082291612081,40.7270960967616],[-112.082289612431,40.727490096728],[-112.082274612362,40.7300350985052],[-112.082236612727,40.7365970985075],[-112.082230612879,40.737671098955],[-112.082226612682,40.738508098602],[-112.082275613984,40.7402370981538],[-112.082267614486,40.7413760976533],[-112.082267613588,40.741406098035],[-112.082267613588,40.7415050982458],[-112.082267611791,40.7421220990916],[-112.081943612824,40.742463098854],[-112.081888612573,40.7425210989949],[-112.081480613042,40.7429140983355],[-112.081117612819,40.7433150998983],[-112.08097561163,40.7435520989028],[-112.080910612231,40.743634099364],[-112.080882613541,40.743707098154],[-112.080789613654,40.7438480992447],[-112.080639613866,40.7442310996657],[-112.080503613424,40.7445600993805],[-112.080484614056,40.744742098538],[-112.080521614764,40.7460431001594],[-112.080600615305,40.7480141000029],[-112.080610612656,40.7482530987325],[-112.080633614019,40.7487940991392],[-112.080664158535,40.7495144040014],[-112.080677211954,40.7498222286272],[-112.08068861427,40.7500910989099],[-112.080686613722,40.7503460989327],[-112.080701613791,40.7503960993963],[-112.080723613532,40.7509100996411],[-112.080750615093,40.751130100078],[-112.080808613921,40.7513081002205],[-112.080905614903,40.7514921000046],[-112.081025615452,40.7516640997565],[-112.081185615286,40.7518530996474],[-112.081311614784,40.7519880997266],[-112.081459614922,40.7521461001013],[-112.081544613514,40.7522370992293],[-112.08174061513,40.7524740997837],[-112.081960615238,40.7527390995239],[-112.082223613207,40.7530510983855],[-112.082415615522,40.753277099181],[-112.082920614239,40.7539941000104],[-112.083208615017,40.7543600992209],[-112.083470615857,40.7547861000931],[-112.083868614443,40.7554330990288],[-112.084553614882,40.7566121006991],[-112.085198616035,40.757667100865],[-112.085488616464,40.7581881004703],[-112.085833615347,40.7586621004949],[-112.086176617275,40.7590401000991],[-112.086549617544,40.7593521006913],[-112.087081616923,40.7597341000372],[-112.087461616865,40.7599811000042],[-112.088046615948,40.7602971011719],[-112.088763617071,40.760565100339],[-112.089598616399,40.7607951002859],[-112.09045861674,40.76115009984],[-112.09141461734,40.7616420994855],[-112.091936616674,40.7619171000945],[-112.092453618679,40.7624250999124],[-112.092799617387,40.7629811000792],[-112.092962617594,40.7633431007961],[-112.093069617724,40.7636520997111],[-112.093194619194,40.7641581008982],[-112.093335618761,40.7645791000834],[-112.093458617886,40.7648821004663],[-112.093723619997,40.7653261006002],[-112.093901618476,40.7656231007764],[-112.094221619939,40.7660491009111],[-112.094564620071,40.7664211012388],[-112.095113619169,40.7669101009435],[-112.09563761905,40.7673100991896],[-112.096152618711,40.7676331010305],[-112.096713620199,40.767920100656],[-112.097273620964,40.7681710998932],[-112.097820620412,40.7683491006724],[-112.098255618809,40.7684491010156],[-112.098344619395,40.7684750996515],[-112.098452620249,40.7685071009416],[-112.098655620638,40.7685671003427],[-112.098823619071,40.7686171007092],[-112.099740620212,40.7687570999026],[-112.099891618926,40.7687640999226],[-112.100309620299,40.7687850999781],[-112.100400620536,40.7687871001774],[-112.10067662072,40.7687961003932],[-112.100768618985,40.7687991006917],[-112.101039621842,40.7688011008906],[-112.10185462018,40.7688090996446],[-112.102126621065,40.7688121006228],[-112.102277621576,40.7688061000269],[-112.102501620983,40.7687980992315],[-112.102725620391,40.7687900991156],[-112.102793621061,40.7687870988167],[-112.104130621428,40.768736099158],[-112.104132621078,40.7693400999132],[-112.104137621999,40.7707250997045],[-112.104137622897,40.77076709993],[-112.104138620926,40.771025100441],[-112.101591619516,40.7710311001561],[-112.101282280156,40.7711182384916],[-112.101236620587,40.7711311005452],[-112.101194620754,40.7711311005452],[-112.101107619817,40.7711310998648],[-112.100720621101,40.7711321006095],[-112.100592621055,40.7711331006739],[-112.10050161992,40.7711330999935],[-112.100229620831,40.7711341007382],[-112.100184621524,40.7711351008025]]]},"properties":{"PrecinctID":"MAG001","VistaID":"MAG001","CountyID":18,"SubPrecinctID":null,"AliasName":null,"VersionNbr":null,"EffectiveDate":1765929600000}},{"type":"Feature","geometry":{"type":"Polygon","coordinates":[[[-112.08229260921,40.7037166281549],[-112.082292608312,40.7037110936216],[-112.082291607589,40.7035610937712],[-112.082291607589,40.703113093687],[-112.082291606691,40.7029640935794],[-112.082289608837,40.7022510946581],[-112.082285606843,40.7012000930821],[-112.08228460612,40.7010370934674],[-112.082281605747,40.7000940943682],[-112.082281608442,40.699731093534],[-112.082280607718,40.6995900936222],[-112.082279606995,40.6991680932426],[-112.082279607893,40.6990280926067],[-112.08227953513,40.699016672699],[-112.082278608967,40.6988670947468],[-112.082277608244,40.698387093454],[-112.082277606447,40.6982270938436],[-112.082277608244,40.6978800940024],[-112.082277607345,40.6972660937467],[-112.082277606447,40.6968390931688],[-112.082278608068,40.6964930934144],[-112.082368716278,40.6964909452895],[-112.091700691232,40.696508660847],[-112.091790868612,40.6965088283926],[-112.091815609113,40.6974360924095],[-112.091801609768,40.6981310933481],[-112.091812610537,40.6982620929186],[-112.09184560925,40.6986580915045],[-112.091857609844,40.6987900939153],[-112.091855609296,40.698980093294],[-112.091854607675,40.6989900932104],[-112.091852608923,40.6992790937565],[-112.09185261072,40.6995510934055],[-112.091851609098,40.6997420937947],[-112.09184560925,40.6999000922623],[-112.091840610126,40.7000770928161],[-112.091829609357,40.7003750933555],[-112.091824610232,40.7005340921289],[-112.09181961021,40.7006910916803],[-112.091806609791,40.7011630926364],[-112.091803608519,40.7013210931817],[-112.091802610491,40.7014790940333],[-112.091798608496,40.701954092039],[-112.091798610293,40.7021130931725],[-112.091800610841,40.7022570930877],[-112.091805609068,40.7026890923275],[-112.091808610339,40.7028330923595],[-112.091814610187,40.7030070934299],[-112.091832611527,40.7035270931135],[-112.091839610301,40.7037010937329],[-112.091839452198,40.7037146845647],[-112.091839452198,40.703714724063],[-112.091839450401,40.7037147901206],[-112.09183660903,40.7039600933629],[-112.091830610978,40.7047390944649],[-112.091828609532,40.7049980927823],[-112.091829611154,40.7052340930594],[-112.091833610453,40.7059450940504],[-112.091835609205,40.706182093375],[-112.091837609753,40.7064240929586],[-112.091843610499,40.7071510935886],[-112.091846609974,40.707394093398],[-112.091842610674,40.7076640946431],[-112.091832610628,40.7084740938533],[-112.091829610255,40.7087450937653],[-112.091829321896,40.7087654297797],[-112.091822090458,40.708765454975],[-112.090684554712,40.708768047367],[-112.090483493785,40.7086170531347],[-112.089412615728,40.7082781774651],[-112.089231909727,40.7082196306258],[-112.088859317294,40.7082032174541],[-112.088867085924,40.7063244889592],[-112.088840083465,40.7045876171237],[-112.088838858163,40.7044458845231],[-112.088873745135,40.7043177477776],[-112.088932842603,40.7042031586146],[-112.088973945917,40.7040932702101],[-112.088970741626,40.7037230159877],[-112.088971463872,40.7037154227748],[-112.082382773116,40.7037166138538],[-112.08229260921,40.7037166281549]]]},"properties":{"PrecinctID":"MAG008","VistaID":"MAG008","CountyID":18,"SubPrecinctID":null,"AliasName":null,"VersionNbr":null,"EffectiveDate":1765929600000}},{"type":"Feature","geometry":{"type":"Polygon","coordinates":[[[-112.063142407527,40.7087611649644],[-112.068414605556,40.7090640941883],[-112.068414610048,40.7090639341648],[-112.068414963086,40.709064112574],[-112.068513418441,40.7090793931123],[-112.069079269933,40.7091128856703],[-112.069547259857,40.7091416347125],[-112.070648450665,40.70918306439],[-112.071774372991,40.7091885712306],[-112.071816854321,40.7091898343923],[-112.07185265488,40.7091908987166],[-112.072729805856,40.7092169675084],[-112.073450269087,40.709209117523],[-112.074430728117,40.7091852795196],[-112.07519809688,40.7091712628486],[-112.076025610547,40.7091561879783],[-112.076025750684,40.7091560933263],[-112.082212426487,40.709073840639],[-112.082302598476,40.7090726394417],[-112.082301609431,40.7106700956701],[-112.082301609431,40.7114160954758],[-112.082304609804,40.7140970952773],[-112.082303609081,40.7144360952165],[-112.082300609606,40.7154540957927],[-112.082300609606,40.7157940958471],[-112.082299608883,40.7163160948303],[-112.082297610132,40.7174580958928],[-112.082302610155,40.7176860954497],[-112.08229761103,40.7178830966837],[-112.082290610459,40.7182330956583],[-112.082300834185,40.7183365286822],[-112.082307609279,40.7184050963085],[-112.081690611308,40.7184100951491],[-112.080496610158,40.7184190946952],[-112.080136610308,40.7184190953761],[-112.076593608115,40.7184280962826],[-112.073623608004,40.7184600964702],[-112.071453607061,40.7184850967762],[-112.071347606756,40.7184860962709],[-112.071290606854,40.7184870964463],[-112.070803606783,40.7184980963325],[-112.070641606401,40.7185030958469],[-112.070234606695,40.718512097423],[-112.069014606504,40.7185400975527],[-112.068608606623,40.7185500972557],[-112.068297607177,40.7185570964341],[-112.067862606086,40.7185680976705],[-112.067368606341,40.7186110969775],[-112.067059607443,40.7186390963846],[-112.066288605893,40.718706097058],[-112.066069605609,40.7187260957318],[-112.064792606416,40.7188140964975],[-112.063973606981,40.718829097011],[-112.063202829111,40.7188450513933],[-112.063202402412,40.7187764174967],[-112.063201118719,40.7185705160631],[-112.063154006574,40.7110075060605],[-112.063142407527,40.7087611649644]]]},"properties":{"PrecinctID":"MAG005","VistaID":"MAG005","CountyID":18,"SubPrecinctID":null,"AliasName":null,"VersionNbr":null,"EffectiveDate":1765929600000}},{"type":"Feature","geometry":{"type":"Polygon","coordinates":[[[-112.101386627561,40.7037510495771],[-112.101339872946,40.7021245166355],[-112.099886339527,40.7002399000023],[-112.099517151708,40.6997557535389],[-112.099352145564,40.6965378757396],[-112.103147789049,40.6965272917702],[-112.10611444563,40.696595444603],[-112.107028728468,40.6974373101625],[-112.107137166801,40.6975338551508],[-112.107249741876,40.6976276178368],[-112.107366336912,40.6977184926669],[-112.107486817161,40.6978063802171],[-112.107611053267,40.6978911844693],[-112.107738909583,40.6979728121294],[-112.10787024687,40.6980511753516],[-112.108004918705,40.6981261862907],[-112.108142780456,40.6981977652734],[-112.108283677615,40.6982658305836],[-112.110529635607,40.6993114940704],[-112.110534124489,40.6999264159962],[-112.110535908543,40.700170762025],[-112.110539128105,40.7006118496201],[-112.11085705446,40.7006086916496],[-112.110868090264,40.7019213429641],[-112.11045890316,40.7019195981805],[-112.110479036202,40.7037569293767],[-112.110479400918,40.7037849186866],[-112.101386627561,40.7037510495771]]]},"properties":{"PrecinctID":"MAG006","VistaID":"MAG006","CountyID":18,"SubPrecinctID":null,"AliasName":null,"VersionNbr":null,"EffectiveDate":1765929600000}},{"type":"Feature","geometry":{"type":"Polygon","coordinates":[[[-112.082278608068,40.6964930934144],[-112.082275972411,40.6964930804739],[-112.082276069429,40.6964244609963],[-112.082281191623,40.6925565152831],[-112.082281992022,40.6919510733532],[-112.082287546306,40.6877542620014],[-112.082242832662,40.6822052179961],[-112.082241284865,40.6820130841804],[-112.08224760631,40.6820130923551],[-112.083352605974,40.682013091674],[-112.086669606415,40.6820150910767],[-112.087775606803,40.6820160917999],[-112.088587606565,40.6820160904374],[-112.091023606748,40.6820180918838],[-112.091092607243,40.6820180905213],[-112.09132760742,40.6820170904794],[-112.091861606449,40.6820160917999],[-112.091861608246,40.6820188787015],[-112.091861608246,40.6824950911045],[-112.091837607058,40.6851400924554],[-112.091842607979,40.6864150917112],[-112.091842183076,40.6865489616554],[-112.091838607781,40.6876770923382],[-112.091837607956,40.6882050913961],[-112.091837607956,40.6886450920699],[-112.091832608832,40.6888130903719],[-112.09183260973,40.6889560918527],[-112.091832837004,40.6889693887086],[-112.091837607956,40.6892480914512],[-112.091837607956,40.6894110919839],[-112.091835607408,40.6898680909002],[-112.091840607431,40.6900350923276],[-112.091847608002,40.690895092272],[-112.09183460938,40.6920630932756],[-112.091831609905,40.6921370919952],[-112.091825609159,40.6923610922023],[-112.091823608611,40.6924360925199],[-112.091824609334,40.6924600911325],[-112.091827608809,40.6925320916863],[-112.091829608459,40.6925570921915],[-112.091824608436,40.6928750926224],[-112.09181260874,40.6938300914847],[-112.091808608542,40.694149093192],[-112.091780608055,40.6957510926535],[-112.091790608101,40.6962010928729],[-112.091790608999,40.6964990930435],[-112.09179086951,40.6965087779926],[-112.091790868612,40.6965088283926],[-112.091700691232,40.696508660847],[-112.082368716278,40.6964909452895],[-112.082278608068,40.6964930934144]]]},"properties":{"PrecinctID":"MAG013","VistaID":"MAG013","CountyID":18,"SubPrecinctID":null,"AliasName":null,"VersionNbr":null,"EffectiveDate":1765929600000}},{"type":"Feature","geometry":{"type":"Polygon","coordinates":[[[-112.10611444563,40.696595444603],[-112.102157145818,40.6929138338366],[-112.101732713406,40.6926407029942],[-112.101302248807,40.6923730996967],[-112.100865875988,40.6921111009777],[-112.100423719815,40.6918547818273],[-112.099975909646,40.6916042158732],[-112.099522573939,40.6913594774235],[-112.09906384385,40.6911206353371],[-112.098599850531,40.6908877591534],[-112.09813072873,40.6906609156866],[-112.097656614991,40.6904401710689],[-112.097177643163,40.6902255880263],[-112.096693955179,40.6900172292836],[-112.096205688483,40.6898151541592],[-112.095712983211,40.6896194206078],[-112.095289338621,40.6895236733577],[-112.094863499447,40.689433744368],[-112.09443560403,40.6893496636329],[-112.094005789811,40.6892714591017],[-112.093574196928,40.6891991553168],[-112.093140963721,40.6891327761378],[-112.092706233022,40.689072342017],[-112.092270144071,40.6890178740865],[-112.091832837004,40.6889693887086],[-112.09183260973,40.6889560918527],[-112.091832608832,40.6888130903719],[-112.091837607956,40.6886450920699],[-112.091837607956,40.6882050913961],[-112.091838607781,40.6876770923382],[-112.091842183076,40.6865489616554],[-112.091842607979,40.6864150917112],[-112.091837607058,40.6851400924554],[-112.091861608246,40.6824950911045],[-112.091861608246,40.6820188787015],[-112.09204032358,40.6819981067104],[-112.092111618372,40.6819898195751],[-112.093462064722,40.6818328522515],[-112.093462029688,40.6821164126914],[-112.097204755216,40.6821324991713],[-112.097204688741,40.6821106590524],[-112.09720448123,40.68204013572],[-112.098079073804,40.6820438157095],[-112.10213705859,40.6852638832858],[-112.102313877581,40.6854089216562],[-112.10248428799,40.6855583411333],[-112.102805134768,40.6858696625371],[-112.103062354774,40.6861567895184],[-112.103293674553,40.6864564129121],[-112.103498051161,40.6867671797282],[-112.103674563826,40.6870876899948],[-112.103822413047,40.6874164967615],[-112.103940931376,40.6877521170007],[-112.104390433971,40.6892199284695],[-112.104514006222,40.6895691796622],[-112.104668520942,40.6899112184048],[-112.104757163999,40.690079035736],[-112.104853263074,40.6902444591067],[-112.104956704079,40.6904072950904],[-112.105067372928,40.6905673563927],[-112.105185138469,40.6907244550393],[-112.105309861461,40.69087841055],[-112.105579603083,40.6911761818272],[-112.105875345543,40.6914592877067],[-112.106195721604,40.6917264144789],[-112.106183957267,40.6929008796882],[-112.106166029589,40.6944167111518],[-112.10747151436,40.6944120183675],[-112.107477630989,40.6952979236802],[-112.108680663801,40.6945629351474],[-112.108706881132,40.694548545562],[-112.108734338139,40.6945355651685],[-112.10876290726,40.6945240566288],[-112.108792448358,40.6945140744317],[-112.108822823991,40.6945056648926],[-112.108853890428,40.6944988688781],[-112.108885496753,40.6944937177193],[-112.108917492947,40.6944902372985],[-112.108949730788,40.6944884446433],[-112.108982052172,40.6944883452027],[-112.10901430708,40.6944899444255],[-112.109046340105,40.6944932293707],[-112.10907014546,40.6944967404409],[-112.1099915726,40.6946536888358],[-112.110029859696,40.6946597131502],[-112.110068380353,40.6946647852887],[-112.110107102234,40.6946689018461],[-112.110145977726,40.6946720560117],[-112.110184967304,40.6946742436988],[-112.110224027849,40.694675466951],[-112.110263121632,40.6946757210006],[-112.110302206432,40.6946750051665],[-112.110482296188,40.6946714723105],[-112.110518852231,40.6946828398375],[-112.110542535415,40.6947009447826],[-112.111403977551,40.6947083169852],[-112.112109603309,40.6952559922545],[-112.112738386278,40.695889603831],[-112.112698180381,40.6963470725307],[-112.111604252452,40.696796457799],[-112.111246368135,40.6969893390411],[-112.10990453573,40.6970622173719],[-112.110203274071,40.6948122810284],[-112.110161078406,40.6948106130226],[-112.110118970775,40.6948079642374],[-112.110076992502,40.6948043346728],[-112.110035176824,40.6947997297773],[-112.109993565063,40.6947941543185],[-112.109952196746,40.6947876130637],[-112.109016089338,40.694628631905],[-112.108976552686,40.6946256296225],[-112.108936846252,40.6946267929388],[-112.108897730011,40.69463210074],[-112.108859940582,40.6946414522223],[-112.108824203803,40.6946546696174],[-112.108795087608,40.694669150447],[-112.10739412899,40.6955249400224],[-112.107155275939,40.6963144276289],[-112.107146317041,40.6963382865851],[-112.107135198593,40.6963616136086],[-112.107121977188,40.6963842976838],[-112.107106718405,40.6964062264332],[-112.107089494108,40.6964272942899],[-112.107070385145,40.6964474011362],[-112.10704948584,40.6964664468541],[-112.1070268986,40.6964843422231],[-112.107002731224,40.6965009980228],[-112.106977102289,40.6965163366109],[-112.106950132169,40.6965302810266],[-112.106921954714,40.6965427645249],[-112.106892705568,40.6965537271717],[-112.106862526666,40.6965631151625],[-112.10683156084,40.69657088559],[-112.106799961702,40.6965769982713],[-112.106767882863,40.6965814225581],[-112.106735473444,40.6965841400617],[-112.106711050946,40.6965851024257],[-112.106383825231,40.6965907751289],[-112.10611444563,40.696595444603]]]},"properties":{"PrecinctID":"MAG017","VistaID":"MAG017","CountyID":18,"SubPrecinctID":null,"AliasName":null,"VersionNbr":null,"EffectiveDate":1765929600000}},{"type":"Feature","geometry":{"type":"Polygon","coordinates":[[[-112.091804612836,40.7181800949883],[-112.091804612836,40.7181114760659],[-112.091804611039,40.717486095104],[-112.091804612836,40.7174340947114],[-112.091803613011,40.717256095836],[-112.091799611915,40.7169360942892],[-112.091793611169,40.7164980949978],[-112.091804610141,40.7121330947355],[-112.091804610141,40.7119500952993],[-112.091805611762,40.7116750950631],[-112.091806611587,40.7114010946539],[-112.091807611412,40.7112190948524],[-112.091805609966,40.7107240951206],[-112.091805610864,40.7105130937656],[-112.091822611481,40.7092390942751],[-112.091829321896,40.7087654297797],[-112.091829610255,40.7087450937653],[-112.091832610628,40.7084740938533],[-112.091842610674,40.7076640946431],[-112.091846609974,40.707394093398],[-112.091843610499,40.7071510935886],[-112.091837609753,40.7064240929586],[-112.091835609205,40.706182093375],[-112.091833610453,40.7059450940504],[-112.091829611154,40.7052340930594],[-112.091828609532,40.7049980927823],[-112.091830610978,40.7047390944649],[-112.09183660903,40.7039600933629],[-112.091839450401,40.7037147901206],[-112.091839452198,40.703714724063],[-112.091929610713,40.7037150740999],[-112.101386627561,40.7037510495771],[-112.101356977767,40.704101704417],[-112.101555589886,40.7045898480691],[-112.101561854737,40.7049956207793],[-112.10178943483,40.711263842083],[-112.101866614485,40.7131890925629],[-112.101426611575,40.713170093162],[-112.101528790446,40.7178973831842],[-112.101534130931,40.7181444622882],[-112.101535614049,40.7182130941129],[-112.09587261204,40.7181680948693],[-112.09437761149,40.7181720942284],[-112.091804612836,40.7181800949883]]]},"properties":{"PrecinctID":"MAG003","VistaID":"MAG003","CountyID":18,"SubPrecinctID":null,"AliasName":null,"VersionNbr":null,"EffectiveDate":1765929600000}},{"type":"Feature","geometry":{"type":"Polygon","coordinates":[[[-112.101535614049,40.7182130941129],[-112.101534130931,40.7181444622882],[-112.101528790446,40.7178973831842],[-112.101426611575,40.713170093162],[-112.101866614485,40.7131890925629],[-112.10178943483,40.711263842083],[-112.101561854737,40.7049956207793],[-112.101555589886,40.7045898480691],[-112.101356977767,40.704101704417],[-112.101386627561,40.7037510495771],[-112.110479400918,40.7037849186866],[-112.110509026458,40.70607581199],[-112.110570791922,40.7108510776159],[-112.111331793427,40.7108499996995],[-112.11135486935,40.7121693564179],[-112.110922786885,40.7121498337799],[-112.110702219041,40.7120488710563],[-112.110190711132,40.7120424431669],[-112.110167377392,40.7177266803076],[-112.110166718029,40.7178874521501],[-112.110165703831,40.7181344768222],[-112.11016542176,40.7182030929976],[-112.110057615841,40.7182030936784],[-112.109462615814,40.7181990936404],[-112.10836861602,40.7181920937434],[-112.107678615559,40.7181940941031],[-112.107084616256,40.7181970932808],[-112.106601614585,40.7181980941414],[-112.105154615512,40.7182030943593],[-112.104672614565,40.7182060942175],[-112.10448661569,40.7182070930354],[-112.104275614905,40.718204094539],[-112.102098613391,40.7182120946143],[-112.101875614706,40.7182120939334],[-112.101565614187,40.7182140949733],[-112.101547340657,40.7182134856059],[-112.101535614049,40.7182130941129]]]},"properties":{"PrecinctID":"MAG002","VistaID":"MAG002","CountyID":18,"SubPrecinctID":null,"AliasName":null,"VersionNbr":null,"EffectiveDate":1765929600000}},{"type":"Feature","geometry":{"type":"Polygon","coordinates":[[[-112.063090602583,40.692284478221],[-112.063090602583,40.6922840933867],[-112.063090602583,40.6922550952693],[-112.063090601685,40.6918470946283],[-112.063091601509,40.6906230927008],[-112.063092601334,40.690216092884],[-112.063091699426,40.690216092884],[-112.063092344416,40.689249722814],[-112.06308329389,40.6871205696546],[-112.063083195075,40.6870984491635],[-112.063072136814,40.6844958452292],[-112.063065922269,40.6830341608041],[-112.063068666622,40.6830341526295],[-112.063066601395,40.6826670934579],[-112.063065602468,40.6824860935158],[-112.06306388489,40.6820697118757],[-112.063063602819,40.6820010925313],[-112.063194609526,40.682001154523],[-112.065205602376,40.6820020932546],[-112.067831227034,40.6820033617005],[-112.071631602845,40.6820050913374],[-112.0737736033,40.6820070914216],[-112.074325603669,40.6820070914216],[-112.07587060355,40.6820080928262],[-112.074010930113,40.6845546894886],[-112.073887227607,40.6845263658034],[-112.073734285837,40.6844955414131],[-112.072693805871,40.6842883561808],[-112.072693478884,40.68460212971],[-112.07269382743,40.6858726658954],[-112.072693835515,40.6859037294269],[-112.072693908279,40.6861602860419],[-112.072693915465,40.6861893222332],[-112.07272644975,40.6861893161026],[-112.072727216013,40.6862075500559],[-112.072746047396,40.6865171266461],[-112.072758359705,40.6878094271188],[-112.072766588273,40.6884106071849],[-112.072533958751,40.6887729558479],[-112.072407634961,40.6889262176816],[-112.0724839702,40.6889400274544],[-112.073498447532,40.6891246799319],[-112.074448643219,40.6895624349116],[-112.076317145298,40.6905897570431],[-112.077583308114,40.6910764971299],[-112.078448169239,40.6912365602304],[-112.079811190206,40.6913941620179],[-112.080926970553,40.6917678481781],[-112.082281992022,40.6919510733532],[-112.082281191623,40.6925565152831],[-112.078571296824,40.6925354938807],[-112.077882654615,40.6925372075785],[-112.076329451319,40.69204328412],[-112.075985123477,40.6925632093277],[-112.075087467557,40.6924538459362],[-112.073244156933,40.6924502128377],[-112.072497656034,40.6925423316438],[-112.069724437276,40.6925431687401],[-112.066768661987,40.6925574627207],[-112.066119472888,40.6923709936685],[-112.065121992579,40.6922367567154],[-112.063180750318,40.6922823606109],[-112.063090602583,40.692284478221]]]},"properties":{"PrecinctID":"MAG015","VistaID":"MAG015","CountyID":18,"SubPrecinctID":null,"AliasName":null,"VersionNbr":null,"EffectiveDate":1765929600000}},{"type":"Feature","geometry":{"type":"Polygon","coordinates":[[[-112.082302598476,40.7090726394417],[-112.08230260746,40.7090570946928],[-112.082303609081,40.7089270942003],[-112.082308608206,40.7085390952545],[-112.082311608579,40.7084100940775],[-112.082308610002,40.708221094689],[-112.082299608883,40.7076560953433],[-112.082297610132,40.7074680941559],[-112.08229660851,40.7068640945296],[-112.082296609408,40.7057011839243],[-112.082296609408,40.7050530951666],[-112.08229660851,40.7044500944539],[-112.082295608685,40.7044070948541],[-112.082295608685,40.704278094526],[-112.082295608685,40.7042350934532],[-112.08229460886,40.7041300946918],[-112.08229260921,40.7038150940097],[-112.08229260921,40.7037166281549],[-112.082382773116,40.7037166138538],[-112.088971463872,40.7037154227748],[-112.088970741626,40.7037230159877],[-112.088973945917,40.7040932702101],[-112.088932842603,40.7042031586146],[-112.088873745135,40.7043177477776],[-112.088838858163,40.7044458845231],[-112.088840083465,40.7045876171237],[-112.088867085924,40.7063244889592],[-112.088859317294,40.7082032174541],[-112.089231909727,40.7082196306258],[-112.089412615728,40.7082781774651],[-112.090483493785,40.7086170531347],[-112.090684554712,40.708768047367],[-112.091822090458,40.708765454975],[-112.091829321896,40.7087654297797],[-112.091822611481,40.7092390942751],[-112.091805610864,40.7105130937656],[-112.091805609966,40.7107240951206],[-112.091807611412,40.7112190948524],[-112.091806611587,40.7114010946539],[-112.091805611762,40.7116750950631],[-112.091804610141,40.7119500952993],[-112.091804610141,40.7121330947355],[-112.091793611169,40.7164980949978],[-112.091799611915,40.7169360942892],[-112.091803613011,40.717256095836],[-112.091804612836,40.7174340947114],[-112.091804611039,40.717486095104],[-112.091804612836,40.7181114760659],[-112.091804612836,40.7181800949883],[-112.091235612748,40.7181790941274],[-112.089997612116,40.718177095129],[-112.089640610842,40.7181750954496],[-112.089529611413,40.7181740959504],[-112.08896161115,40.7181710960908],[-112.088535610279,40.718168096231],[-112.087257611261,40.71816109565],[-112.087041610452,40.7181590946084],[-112.086832610215,40.7181590952893],[-112.086573610647,40.7181570949285],[-112.085927611465,40.7182110951155],[-112.083914610881,40.7183800959725],[-112.08321360965,40.7183900963804],[-112.082899610729,40.718395095222],[-112.082629609494,40.7183990959292],[-112.082307609279,40.7184050963085],[-112.082300834185,40.7183365286822],[-112.082290610459,40.7182330956583],[-112.08229761103,40.7178830966837],[-112.082302610155,40.7176860954497],[-112.082297610132,40.7174580958928],[-112.082299608883,40.7163160948303],[-112.082300609606,40.7157940958471],[-112.082300609606,40.7154540957927],[-112.082303609081,40.7144360952165],[-112.082304609804,40.7140970952773],[-112.082301609431,40.7114160954758],[-112.082301609431,40.7106700956701],[-112.082302598476,40.7090726394417]]]},"properties":{"PrecinctID":"MAG004","VistaID":"MAG004","CountyID":18,"SubPrecinctID":null,"AliasName":null,"VersionNbr":null,"EffectiveDate":1765929600000}},{"type":"Feature","geometry":{"type":"Polygon","coordinates":[[[-112.101334143491,40.8126607990685],[-112.101321415261,40.8054409746809],[-112.101296353163,40.798265468982],[-112.101285403598,40.7837691948724],[-112.101285348801,40.7837204982639],[-112.101282754467,40.7814019411683],[-112.095656172854,40.7814054673807],[-112.095653451857,40.7787969734654],[-112.101279816976,40.7787934464344],[-112.101277671799,40.7764704616358],[-112.101282035814,40.771403382818],[-112.101282157087,40.7712638939933],[-112.101282280156,40.7711182384916],[-112.101591619516,40.7710311001561],[-112.104138620926,40.771025100441],[-112.104141621299,40.7712820998881],[-112.108960621064,40.7712581004345],[-112.112719537827,40.771250345528],[-112.113171228718,40.7712494060134],[-112.113351736191,40.771249029119],[-112.115705623171,40.7712440995587],[-112.12139062582,40.7712330981881],[-112.125587626693,40.7712500999344],[-112.133986626664,40.7711560980677],[-112.134682627872,40.7711860979397],[-112.135070628209,40.7712030983374],[-112.135681629028,40.7712680976567],[-112.135748628076,40.7712990989006],[-112.136737623797,40.7713933801736],[-112.136776628647,40.7713970987656],[-112.137938628213,40.7714740979264],[-112.140040629384,40.7714630972742],[-112.140485627826,40.771457097598],[-112.141084629847,40.7714490971219],[-112.141843629906,40.7713980967849],[-112.142897628618,40.771328097286],[-112.143123629472,40.7713090967969],[-112.14374963036,40.7713050972304],[-112.144161630088,40.7712990968597],[-112.144788629902,40.7713060972921],[-112.145531630067,40.7713060972921],[-112.146843629421,40.7713080960549],[-112.147762630211,40.7712770961759],[-112.148893630713,40.7711710969849],[-112.150058631551,40.7709880973098],[-112.151485632329,40.7706060966538],[-112.152169632044,40.7703600967893],[-112.153833630852,40.7695950954976],[-112.154599630583,40.7690950968175],[-112.155036632223,40.7688200959737],[-112.159842630671,40.7647780954764],[-112.162334630931,40.7628230948365],[-112.16752563114,40.7587510929249],[-112.168710632968,40.7577720941123],[-112.175952634294,40.7517610914718],[-112.177482635005,40.7504060915904],[-112.178135634758,40.7498480929982],[-112.179365634096,40.7488980917088],[-112.179698634182,40.748690092796],[-112.180021634222,40.7486030911078],[-112.181041635294,40.7483280905454],[-112.182300635843,40.7481860924182],[-112.184192636054,40.7477930915633],[-112.18491763398,40.7475150918367],[-112.185314634538,40.7473130911349],[-112.185604634967,40.7471140917774],[-112.185737635036,40.7470420917093],[-112.185903634717,40.746847091899],[-112.186040634985,40.7467030911066],[-112.186267633867,40.7464630911349],[-112.186457634736,40.7462810912424],[-112.186659634403,40.7460870903225],[-112.186905635348,40.7456300912931],[-112.187003636156,40.7454480911626],[-112.187096635144,40.7452760909855],[-112.188052633947,40.7435030903703],[-112.189363633476,40.7416540910529],[-112.189400635083,40.7416100904709],[-112.190510633872,40.7403240896871],[-112.193396634318,40.7386080900668],[-112.195763636701,40.7371020899502],[-112.198646636773,40.7356850892525],[-112.199630636962,40.7352120893972],[-112.200330637469,40.7351230879246],[-112.200462636815,40.7350650895013],[-112.201229636371,40.7347360891082],[-112.202039637381,40.7340560881359],[-112.203157637465,40.7332720892403],[-112.204141637654,40.7328240889326],[-112.207168636768,40.7313150879507],[-112.208060637794,40.7308720887083],[-112.208619637836,40.7305930870171],[-112.211572638228,40.7293050876648],[-112.216504639768,40.7273470860675],[-112.218941639776,40.7263800864731],[-112.219652640154,40.7261090868589],[-112.220808639872,40.7256680857708],[-112.22087563982,40.7256540861854],[-112.222612640219,40.7252940860143],[-112.223734640501,40.72500208648],[-112.224663640438,40.7246770863568],[-112.224827639572,40.7246200850384],[-112.225733639045,40.7242910847394],[-112.2259304725,40.7242101551549],[-112.225930639586,40.7242100857137],[-112.22679864212,40.7248340848151],[-112.227213641323,40.725088085604],[-112.227371641507,40.7251860848344],[-112.227446640951,40.7252580847328],[-112.227674641455,40.7254740853221],[-112.227750640725,40.7255470849783],[-112.2278066417,40.7256000845479],[-112.230203640627,40.728828084579],[-112.231386643703,40.7304200858713],[-112.238049645794,40.7393890870755],[-112.242267645685,40.745067085732],[-112.245895648267,40.7499500872366],[-112.249924536621,40.7553579253756],[-112.255603651711,40.7629790881384],[-112.258303653282,40.7665520882113],[-112.260227653279,40.7690990876727],[-112.257886455901,40.7707126307975],[-112.253346653424,40.77384108909],[-112.250788651245,40.7755580896972],[-112.250166652353,40.7759810901126],[-112.240258651587,40.7828180914685],[-112.23847364971,40.7840490916997],[-112.217044648526,40.7988660955456],[-112.197009310742,40.8126276550779],[-112.195930612851,40.812628458029],[-112.178648509903,40.8126399624609],[-112.139625404703,40.8126157943811],[-112.101334143491,40.8126607990685]]]},"properties":{"PrecinctID":"MAG901","VistaID":"MAG901","CountyID":18,"SubPrecinctID":null,"AliasName":null,"VersionNbr":null,"EffectiveDate":1765929600000}},{"type":"Feature","geometry":{"type":"Polygon","coordinates":[[[-112.070220066564,40.696490093259],[-112.070259605911,40.6964900939401],[-112.070445603887,40.6964900953023],[-112.070507605608,40.6964900939401],[-112.070657605396,40.6964900946212],[-112.071110605133,40.6964900946212],[-112.071261603847,40.6964900946212],[-112.071361603406,40.6964900953023],[-112.071662605502,40.6964930934144],[-112.071763605784,40.6964940946013],[-112.071855604049,40.6964940932391],[-112.072132604058,40.6964970933942],[-112.072225604843,40.696498094581],[-112.072402604395,40.6964950930638],[-112.072685604252,40.6964920942707],[-112.072933606644,40.6964960942507],[-112.073110606196,40.6965000949114],[-112.073640605027,40.6964970933942],[-112.075233606385,40.6964880949716],[-112.075764605041,40.6964860939598],[-112.075784789287,40.6964860496896],[-112.075785000392,40.6964860490086],[-112.076215605128,40.696485094135],[-112.07757160666,40.6964850934539],[-112.07802360747,40.6964850934539],[-112.078482605257,40.696484092948],[-112.07854260643,40.6964840943101],[-112.079860607428,40.696484092948],[-112.080320607736,40.6964840922669],[-112.080711607548,40.6964850927728],[-112.081886608431,40.6964910944459],[-112.082275972411,40.6964930804739],[-112.082278608068,40.6964930934144],[-112.082277606447,40.6968390931688],[-112.082277607345,40.6972660937467],[-112.082277608244,40.6978800940024],[-112.082277606447,40.6982270938436],[-112.082277608244,40.698387093454],[-112.082278608967,40.6988670947468],[-112.08227953513,40.699016672699],[-112.082265421698,40.6990169226457],[-112.08224966974,40.6990172039209],[-112.081651991835,40.6990278426601],[-112.080677688061,40.699020528144],[-112.079820622517,40.6990247608924],[-112.079261752731,40.6990396480421],[-112.078969272054,40.6990735331684],[-112.078692710422,40.6991560311266],[-112.078237078622,40.6993688541788],[-112.077927304478,40.6994986138497],[-112.076973581107,40.6998095078095],[-112.076999427434,40.7017779402633],[-112.076085681789,40.7017712771097],[-112.075736311703,40.7017753510044],[-112.075104496919,40.7017732296099],[-112.075065392357,40.7017734863566],[-112.075065348339,40.7017834231993],[-112.07320716431,40.701748891115],[-112.073162471328,40.7009293750625],[-112.070246396185,40.7002101132963],[-112.070231096079,40.7001900709226],[-112.070260227545,40.6984153724276],[-112.070219902172,40.6965115397694],[-112.070219659627,40.6965000370196],[-112.070220066564,40.696490093259]]]},"properties":{"PrecinctID":"MAG011","VistaID":"MAG011","CountyID":18,"SubPrecinctID":null,"AliasName":null,"VersionNbr":null,"EffectiveDate":1765929600000}},{"type":"Feature","geometry":{"type":"Polygon","coordinates":[[[-112.070220066564,40.696490093259],[-112.07019760419,40.6964900939401],[-112.069756605048,40.6964910944459],[-112.068437604224,40.6964940932391],[-112.067997604008,40.6964960949317],[-112.067646604379,40.6964960942507],[-112.066593604593,40.6964960949317],[-112.066242603167,40.6964960942507],[-112.06610360325,40.6964960935696],[-112.065688604046,40.6964960949317],[-112.065550603056,40.6964970940753],[-112.06509160437,40.6965030950663],[-112.065057604035,40.6965020952417],[-112.063579602304,40.6964960935696],[-112.06308801813,40.696495095107],[-112.063087604006,40.6964950944259],[-112.063087604006,40.6956760940242],[-112.063089602758,40.69321909371],[-112.063090601685,40.692401094471],[-112.063090602583,40.6923710944746],[-112.063090602583,40.692284478221],[-112.063180750318,40.6922823606109],[-112.065121992579,40.6922367567154],[-112.066119472888,40.6923709936685],[-112.066768661987,40.6925574627207],[-112.069724437276,40.6925431687401],[-112.072497656034,40.6925423316438],[-112.073244156933,40.6924502128377],[-112.075087467557,40.6924538459362],[-112.075985123477,40.6925632093277],[-112.076329451319,40.69204328412],[-112.077882654615,40.6925372075785],[-112.078571296824,40.6925354938807],[-112.082281191623,40.6925565152831],[-112.082276069429,40.6964244609963],[-112.082275972411,40.6964930804739],[-112.081886608431,40.6964910944459],[-112.080711607548,40.6964850927728],[-112.080320607736,40.6964840922669],[-112.079860607428,40.696484092948],[-112.07854260643,40.6964840943101],[-112.078482605257,40.696484092948],[-112.07802360747,40.6964850934539],[-112.07757160666,40.6964850934539],[-112.076215605128,40.696485094135],[-112.075785000392,40.6964860490086],[-112.075784789287,40.6964860496896],[-112.075764605041,40.6964860939598],[-112.075233606385,40.6964880949716],[-112.073640605027,40.6964970933942],[-112.073110606196,40.6965000949114],[-112.072933606644,40.6964960942507],[-112.072685604252,40.6964920942707],[-112.072402604395,40.6964950930638],[-112.072225604843,40.696498094581],[-112.072132604058,40.6964970933942],[-112.071855604049,40.6964940932391],[-112.071763605784,40.6964940946013],[-112.071662605502,40.6964930934144],[-112.071361603406,40.6964900953023],[-112.071261603847,40.6964900946212],[-112.071110605133,40.6964900946212],[-112.070657605396,40.6964900946212],[-112.070507605608,40.6964900939401],[-112.070445603887,40.6964900953023],[-112.070259605911,40.6964900939401],[-112.070220066564,40.696490093259]]]},"properties":{"PrecinctID":"MAG014","VistaID":"MAG014","CountyID":18,"SubPrecinctID":null,"AliasName":null,"VersionNbr":null,"EffectiveDate":1765929600000}}]}