{"type":"FeatureCollection","crs":{"type":"name","properties":{"name":"EPSG:4326"}},"features":[{"type":"Feature","geometry":{"type":"Polygon","coordinates":[[[-111.977229014104,40.6385738540751],[-111.977185736838,40.6385740154197],[-111.97692373705,40.6385720164143],[-111.976923736797,40.6385719801834],[-111.976923724639,40.6385712212851],[-111.976923710482,40.6385703827945],[-111.976598740983,40.6385704128123],[-111.976537040428,40.6314924862657],[-111.976535748268,40.6313077109318],[-111.97648675394,40.6313037439381],[-111.976374736235,40.6313080149562],[-111.974989735259,40.6313070148715],[-111.973728389489,40.6313018623537],[-111.973706734893,40.6312830149602],[-111.973679035832,40.6312569057568],[-111.967350411423,40.6311968884425],[-111.96733887082,40.6312836605035],[-111.966847293554,40.631284530435],[-111.966544403725,40.6312850644727],[-111.966200169958,40.6312856707842],[-111.96591104486,40.6312861792695],[-111.965580659046,40.6312867595498],[-111.965250313931,40.6312873379155],[-111.96491997098,40.6312879164411],[-111.96461723713,40.6312884465359],[-111.9642730869,40.6312890452193],[-111.96394258325,40.6312896216301],[-111.9636535752,40.6312901229954],[-111.96347457521,40.6312904353508],[-111.963130386056,40.6312910316616],[-111.961161963442,40.6312944280683],[-111.959316579194,40.6312975810803],[-111.959207867652,40.6313053413946],[-111.958933378674,40.6314728203045],[-111.958852915899,40.6314950935596],[-111.95871537495,40.6315349160647],[-111.958365235093,40.6316369853257],[-111.958175964216,40.6316859309865],[-111.957926917976,40.63175260651],[-111.957836444341,40.6318244153114],[-111.957777015532,40.6315617361177],[-111.957831176176,40.6313041928499],[-111.953879805841,40.6313196480944],[-111.950355721326,40.6313333202331],[-111.948317913346,40.6313411772891],[-111.948251238882,40.6313066550067],[-111.948217461183,40.6313066129651],[-111.947723871346,40.631305921704],[-111.947695047379,40.6313058595225],[-111.9473960131,40.6313059693315],[-111.947089772217,40.6313057635416],[-111.946812354567,40.6313056174397],[-111.946538539279,40.6313054569806],[-111.946257517484,40.6313053251973],[-111.945980098402,40.6313051779576],[-111.945947674995,40.6313052994751],[-111.945929659195,40.6313051966284],[-111.943560960962,40.6313154766592],[-111.943561855175,40.6330294774627],[-111.943606183233,40.6330294433791],[-111.943562313884,40.6335685878846],[-111.943556118181,40.6339286229177],[-111.943087522768,40.6339287289487],[-111.94308769814,40.6343816237813],[-111.943566602955,40.6343815158678],[-111.943553809837,40.6349372249469],[-111.943175481291,40.6349348778233],[-111.942804352835,40.6349325031492],[-111.942040479574,40.6349276592936],[-111.941752229507,40.6349258283614],[-111.941651341655,40.634925177776],[-111.941218969403,40.634924060239],[-111.940844252783,40.6349230617037],[-111.940534388676,40.634922166149],[-111.939810194538,40.6349240212598],[-111.939377838846,40.6349251240409],[-111.939222913943,40.6349255316163],[-111.9389851177,40.6349260770438],[-111.938959905052,40.6349273727254],[-111.938784315364,40.634936263591],[-111.93878197565,40.6345729215874],[-111.938773463931,40.6322008876938],[-111.938746346825,40.6314857823228],[-111.938765205628,40.6304294526291],[-111.938047559629,40.6306054849034],[-111.937689148724,40.6306750833973],[-111.937039916318,40.6307559386275],[-111.936652749304,40.6308024061895],[-111.9362342952,40.6308174700019],[-111.936157073905,40.6307473907282],[-111.935734089291,40.6307135082212],[-111.935660050399,40.6307075277776],[-111.935416187612,40.6307545661062],[-111.935317854162,40.6307998053393],[-111.935317764702,40.6306771796448],[-111.93531760792,40.6304670327484],[-111.935298190117,40.6301774759846],[-111.935137250686,40.6301659072013],[-111.935017858848,40.6301660688654],[-111.934762459079,40.63016641329],[-111.934622566702,40.6301666016114],[-111.934451581088,40.6301668320964],[-111.934309130058,40.6301670231997],[-111.934200941225,40.6301671694874],[-111.933995694136,40.630167444772],[-111.933950299914,40.6301675055253],[-111.933699658606,40.6301678418514],[-111.933357967381,40.6301640075662],[-111.933141871261,40.6301685753591],[-111.932781025753,40.6301690588015],[-111.932691533576,40.6301691797888],[-111.932430047726,40.6301695289438],[-111.932320273686,40.6301696749457],[-111.93201746648,40.6301700781719],[-111.93186229714,40.6301702851102],[-111.931874137095,40.6298806309262],[-111.930932722588,40.6299204567194],[-111.930320020934,40.6299328973853],[-111.930066202376,40.6299353187416],[-111.929556882378,40.6299569070226],[-111.929223328489,40.6299737646355],[-111.929214421235,40.6287279255671],[-111.9291881487,40.6277310945442],[-111.929190105445,40.6280417890596],[-111.92918943234,40.6283447716332],[-111.927850780903,40.6284465830249],[-111.927732859475,40.6284569625079],[-111.926202047717,40.6285924919693],[-111.926193120216,40.6285932816815],[-111.926021531193,40.6286084384238],[-111.926014887228,40.6286090252265],[-111.926007427613,40.6285881725603],[-111.925965845212,40.6284719597257],[-111.925959427742,40.6284543133665],[-111.925953939176,40.6284406082486],[-111.925947999576,40.6284269055903],[-111.92594205927,40.6284133777806],[-111.925935221166,40.6283998469148],[-111.925928833036,40.6283864889879],[-111.925921544266,40.6283731343282],[-111.925914252973,40.6283599517787],[-111.925906516032,40.6283467689241],[-111.925898783783,40.6283337598004],[-111.92589014296,40.6283207523254],[-111.925881957864,40.6283079161214],[-111.925872872118,40.6282952541877],[-111.925863787439,40.6282827624296],[-111.92584364533,40.6282303439603],[-111.925527914507,40.6280175231645],[-111.924326738696,40.6275147649092],[-111.923773775793,40.6272099413187],[-111.923747921819,40.6271956889975],[-111.923622033393,40.6269982431786],[-111.923275812311,40.6264552134669],[-111.9231724118,40.6262930311093],[-111.923180527044,40.6263615732689],[-111.923182300637,40.6263765509774],[-111.923183464411,40.6263863799104],[-111.92321233066,40.6266301637114],[-111.923245646542,40.6269118659949],[-111.923269634761,40.6271146651284],[-111.92333827797,40.627695055851],[-111.923516607681,40.628564875262],[-111.923469387479,40.6287856240582],[-111.92336538494,40.6291918016436],[-111.923361083226,40.6292086029545],[-111.923341371248,40.6292601848133],[-111.92318642959,40.6296656274074],[-111.923185343416,40.6296677231653],[-111.923011040928,40.6300043296118],[-111.922908145383,40.6299422192601],[-111.922788339987,40.6298699037409],[-111.922624964257,40.6297130144953],[-111.922542824556,40.629634137726],[-111.922241725426,40.6294523869943],[-111.921986080812,40.6292980706505],[-111.921540584273,40.629012311883],[-111.921272368315,40.6286921082704],[-111.921271750264,40.6285921302079],[-111.921270487447,40.6283878515905],[-111.921229161101,40.6279744464287],[-111.921229021256,40.6279730374543],[-111.921226751073,40.6279503377995],[-111.921226731053,40.6279501298123],[-111.921223190581,40.6279147233531],[-111.921089124975,40.6254453395969],[-111.92104794547,40.6246867795004],[-111.921069266133,40.6243281800816],[-111.921017062039,40.6241389921722],[-111.920985179335,40.6239138018618],[-111.920980175022,40.6239138277685],[-111.920865751547,40.6239233929456],[-111.9208700278,40.6238434476912],[-111.920885639586,40.6235514435343],[-111.920668061488,40.6220931652077],[-111.920637409,40.6218877152786],[-111.920642823722,40.6218761159085],[-111.920643186385,40.6218753427575],[-111.920641741719,40.621859736334],[-111.920640292015,40.6218441304774],[-111.920636947364,40.6218129189869],[-111.920635049902,40.6217973141855],[-111.920633602711,40.6217817066725],[-111.920632155543,40.6217661027276],[-111.920628810905,40.6217348920594],[-111.920626912361,40.6217192864377],[-111.920625466265,40.6217036805671],[-111.920624020166,40.6216880741475],[-111.9206192273,40.6216412606339],[-111.920617780111,40.6216256522962],[-111.920615400613,40.6216049015311],[-111.920613954517,40.6215892948362],[-111.920612055991,40.6215736908603],[-111.920606268742,40.6215112654617],[-111.92060482159,40.6214954869423],[-111.9205971344,40.6214174583928],[-111.920595205203,40.6213967079334],[-111.920590864786,40.6213498884003],[-111.920589416545,40.6213342825346],[-111.920587519125,40.6213185056272],[-111.920583176567,40.6212716877469],[-111.920581247378,40.621250937286],[-111.920577357252,40.6212041158618],[-111.920575909044,40.6211883392653],[-111.920571562888,40.6211415194735],[-111.920570088672,40.6211207690282],[-111.920568640415,40.6211051590437],[-111.920567194357,40.6210895550897],[-111.920565746142,40.621073776571],[-111.920562851841,40.6210425642786],[-111.920560921584,40.6210218138194],[-111.920558478641,40.6209905999091],[-111.92055703043,40.6209748213897],[-111.920553140342,40.6209280010572],[-111.920551660357,40.6209072478856],[-111.92055021108,40.6208914712908],[-111.920548761407,40.6208758637799],[-111.920546320996,40.6208446498585],[-111.920544842102,40.6208238977802],[-111.920543396038,40.6208082910794],[-111.920541946783,40.6207925172286],[-111.920540949877,40.6207769034286],[-111.920539472078,40.6207561532672],[-111.920464264896,40.6206427277098],[-111.920464245639,40.6206427008792],[-111.920349958215,40.6198207769235],[-111.920348011936,40.6195052059067],[-111.920348011736,40.6195051735182],[-111.920347296771,40.6193892478364],[-111.920349701025,40.6193277726731],[-111.920351680709,40.6192770651593],[-111.920357810865,40.6191201288297],[-111.920357238892,40.6191343294463],[-111.920256702965,40.6191108487564],[-111.920183268925,40.6190078879363],[-111.920049519337,40.6188203610393],[-111.91976036531,40.6185373658394],[-111.919941798617,40.6183925827588],[-111.920008736196,40.6183391680573],[-111.920130031401,40.6181366230664],[-111.92015806696,40.6180898171257],[-111.920199407,40.618020774983],[-111.920243557682,40.6180112064671],[-111.920243824922,40.6178454608604],[-111.92020705034,40.6176505363927],[-111.920225983401,40.6172711608816],[-111.920226159698,40.6172706019472],[-111.920346742089,40.6168831509973],[-111.920357657538,40.6168278708931],[-111.920368569804,40.6167720775102],[-111.920392200555,40.6166611680114],[-111.920418982918,40.6165505955361],[-111.920438030628,40.6164783955506],[-111.920448021688,40.6164405208434],[-111.92047976289,40.6163307861516],[-111.920513763032,40.6162215547194],[-111.920547769675,40.616114211709],[-111.920554436439,40.6161004638215],[-111.920575330991,40.6160569853845],[-111.920582444849,40.6160423775768],[-111.920589107382,40.6160277711113],[-111.920597558218,40.6160107575869],[-111.920604672082,40.6159961522478],[-111.92061178589,40.6159817135212],[-111.920621572227,40.6159624647395],[-111.920624469435,40.6159568232866],[-111.920632696254,40.6159408091402],[-111.920639809702,40.6159263723342],[-111.920709731613,40.6155336441786],[-111.920709829795,40.6155330943066],[-111.920713799473,40.6152568885642],[-111.920708819632,40.6151615122352],[-111.920579057493,40.6150554376094],[-111.920577602381,40.615038287472],[-111.920575689265,40.6150199378266],[-111.920571863001,40.6149835830147],[-111.920570399015,40.6149654027639],[-111.920568485903,40.6149470531178],[-111.920566085488,40.6149228721233],[-111.920564621535,40.6149045216909],[-111.920563157553,40.6148863414394],[-111.920561245505,40.6148681636168],[-111.920559330242,40.6148498148009],[-111.920557868424,40.6148316345413],[-111.920556404454,40.6148134559361],[-111.920554941575,40.6147951035775],[-111.920553477609,40.6147769252465],[-111.920551565562,40.6147587465994],[-111.920550102696,40.6147403958872],[-111.920547174773,40.614704039773],[-111.920545710808,40.6146856857704],[-111.920544249008,40.6146675074307],[-111.920542786136,40.6146491550708],[-111.920540832376,40.6146249735705],[-111.92053937202,40.6146066201033],[-111.920537908067,40.6145884425941],[-111.920536444124,40.6145700913353],[-111.920533518348,40.6145337305444],[-111.920532055493,40.6145153801047],[-111.920531041769,40.6144972001582],[-111.920529577833,40.6144788494476],[-111.92052811603,40.6144606691848],[-111.920527102308,40.6144424892378],[-111.920525639454,40.6144241385229],[-111.920524626797,40.614405955827],[-111.920523161786,40.6143876053939],[-111.920521662945,40.6143634211629],[-111.920520199011,40.6143450699022],[-111.920519185291,40.6143268896799],[-111.920517720271,40.6143085373248],[-111.920516709795,40.614290357365],[-111.920515244782,40.6142720058331],[-111.92051322058,40.614235644003],[-111.920511755564,40.6142172916472],[-111.920510744009,40.6141991114161],[-111.920509730309,40.614180758541],[-111.92050871911,40.6141625774848],[-111.920507703969,40.61414422434],[-111.920506691337,40.6141260443867],[-111.920505677633,40.6141076904131],[-111.920504666441,40.6140895101798],[-111.920503651304,40.6140711573089],[-111.92050263757,40.6140529735162],[-111.920501626406,40.6140346222777],[-111.920499599702,40.6139982612763],[-111.920498586006,40.6139799081251],[-111.920497574814,40.6139617270673],[-111.920496561131,40.6139433758372],[-111.9204959998,40.613925192344],[-111.92049498394,40.6139068383765],[-111.920493969869,40.613888657603],[-111.920492958703,40.6138703052653],[-111.92049239631,40.6138521245202],[-111.920491383705,40.6138337724619],[-111.920490820198,40.6138155862308],[-111.92048980652,40.6137972349995],[-111.920489244111,40.613779051509],[-111.920491319597,40.6137502222445],[-111.920502420042,40.6136981723625],[-111.920509259134,40.6136660958814],[-111.920514672496,40.6136423515826],[-111.920520217319,40.6136180227066],[-111.920527237839,40.6135879751212],[-111.920532942559,40.6135639355281],[-111.920538646186,40.6135400696879],[-111.920547429465,40.6135040127798],[-111.920551822692,40.6134861546381],[-111.920556662929,40.6134681247132],[-111.920561057231,40.6134502665669],[-111.920565896381,40.6134322363707],[-111.920570285997,40.6134143782407],[-111.920575129825,40.6133963483015],[-111.920584816719,40.613360633179],[-111.920589656921,40.613342600507],[-111.920609027396,40.6132711650534],[-111.920614318872,40.613253303414],[-111.920619162293,40.6132354447524],[-111.920640328901,40.6131640017554],[-111.920647388874,40.6131401299467],[-111.920652682469,40.6131224398507],[-111.9206579761,40.6131045809453],[-111.920663716331,40.6130867179685],[-111.920669011369,40.613069029513],[-111.920674754125,40.6130511681732],[-111.920680048792,40.6130334788948],[-111.920685791532,40.6130156159073],[-111.920697275536,40.6129802355142],[-111.920703470648,40.612962370904],[-111.920709214444,40.6129446808371],[-111.920720703456,40.6129092987757],[-111.920726897462,40.6128916070937],[-111.920938003917,40.6126593998194],[-111.920968872845,40.6125963393317],[-111.920969274044,40.6125955158074],[-111.921118767293,40.6122901261188],[-111.921267423709,40.6120430348062],[-111.921419020613,40.6117910490633],[-111.921446239598,40.6114455471745],[-111.921461001175,40.611258231547],[-111.921467772188,40.6111722675655],[-111.921436253569,40.6108389627656],[-111.921436002223,40.6108362918204],[-111.921297959034,40.6104409608578],[-111.921304037091,40.610404569624],[-111.921307076112,40.6103863731833],[-111.921309665998,40.6103683512809],[-111.921313155218,40.6103501532237],[-111.921316195301,40.6103321294303],[-111.921319684534,40.6103139341175],[-111.921322724599,40.6102959078533],[-111.921326213822,40.6102777114421],[-111.92132925389,40.6102596862754],[-111.921332743104,40.6102414890402],[-111.921338860367,40.6102114465261],[-111.921342351713,40.6101934202875],[-111.921349781386,40.6101571954744],[-111.921358058944,40.6101178335329],[-111.921361152554,40.6101031121623],[-111.921368583276,40.6100670602692],[-111.921382169401,40.6100069684577],[-111.921389185925,40.6099769202388],[-111.921393577657,40.6099588926854],[-111.921399281755,40.6099350256663],[-111.921408514287,40.60989913748],[-111.921303614814,40.6096311313341],[-111.921182175096,40.6094804973873],[-111.921280906232,40.6094669446302],[-111.921941931376,40.6093762103763],[-111.92221002664,40.6093395657422],[-111.922244296661,40.6093325336314],[-111.922817721622,40.6088510167717],[-111.923305721965,40.6085720170708],[-111.92387972237,40.6082770164416],[-111.924497722549,40.6079750166266],[-111.924785721905,40.6078460163751],[-111.925211722196,40.6076640160996],[-111.92542472236,40.6075590161487],[-111.925775721888,40.6074130166579],[-111.926133722837,40.6073210162272],[-111.926741722458,40.6071840162314],[-111.929189722996,40.6067750158796],[-111.931128722851,40.6063770163118],[-111.931130722912,40.6063760155967],[-111.931798722671,40.6061970158378],[-111.933541722906,40.6057130150588],[-111.934243723435,40.6055050150245],[-111.935239723457,40.6052190152836],[-111.936844724574,40.604760014838],[-111.936850723582,40.6047580148279],[-111.938756723799,40.6042140149628],[-111.939729724189,40.6039330145598],[-111.94265172539,40.6030940142958],[-111.943625724668,40.6028140140375],[-111.943701725225,40.6027900145672],[-111.943931725041,40.6027220141682],[-111.944008724807,40.6027000142007],[-111.945098724904,40.6023940144787],[-111.948202725541,40.6015100142501],[-111.948196725783,40.6015950138454],[-111.948207726217,40.6016350137989],[-111.948261725367,40.6018360140377],[-111.948263726249,40.6018440142935],[-111.94834672629,40.6020750144227],[-111.948402726619,40.6021880139175],[-111.948452725705,40.6023020140394],[-111.948502725622,40.6024490138378],[-111.948519726004,40.6024990137272],[-111.948536725825,40.6025800145019],[-111.948545726479,40.6026610140062],[-111.948557726286,40.6028230142606],[-111.948554726177,40.602891014613],[-111.948552725889,40.6029860146631],[-111.948534726396,40.6031480142765],[-111.948500726013,40.603309014411],[-111.948453725694,40.6034660144174],[-111.94841372668,40.6035640145884],[-111.948390726796,40.603622013807],[-111.948313726427,40.6037720141963],[-111.948159726687,40.604157014436],[-111.948162726426,40.6046660145727],[-111.948162725782,40.6047730148997],[-111.948157726394,40.6063050145968],[-111.948152727411,40.6077650148813],[-111.948149726786,40.6085750149545],[-111.948150726616,40.6089850150004],[-111.948152727297,40.6090990143183],[-111.948150726574,40.6095440148225],[-111.948150965404,40.6095443496077],[-111.950998050219,40.6095384270342],[-111.952159570968,40.6095358482207],[-111.95352863718,40.6095329710077],[-111.956172225896,40.6095273632583],[-111.957813215284,40.6095238959548],[-111.960137160444,40.6095187571977],[-111.961951025689,40.6095147251306],[-111.963915706661,40.609510239981],[-111.967396219322,40.6095021010894],[-111.967474769492,40.6094678207499],[-111.967543648999,40.609467548018],[-111.968721846146,40.6094674837174],[-111.969143694717,40.6094675137268],[-111.969144259454,40.6094675131162],[-111.969143731292,40.6094680134214],[-111.969654731512,40.6094670132421],[-111.970291731487,40.609466013255],[-111.970556064772,40.6094654236505],[-111.9714914627,40.6094640136361],[-111.9716997323,40.6094640133869],[-111.971818429876,40.6094635192432],[-111.972810326039,40.6094620129313],[-111.972902732035,40.6094620125552],[-111.972932769189,40.6094628470085],[-111.973199560135,40.6094714236876],[-111.97333473208,40.6094760126096],[-111.973443732442,40.6094800125035],[-111.973496742991,40.609480976744],[-111.973506499549,40.6094812903713],[-111.973666732576,40.6094870132642],[-111.973722731782,40.6094890125088],[-111.973817033627,40.6094874422036],[-111.97595981032,40.609469163935],[-111.976334732561,40.6094670123545],[-111.976404130846,40.6094653681158],[-111.976588533536,40.6094637929531],[-111.976546227637,40.6152684983972],[-111.976545733162,40.6160370132362],[-111.976545733216,40.6161080138014],[-111.976524734174,40.6202240139246],[-111.976522734212,40.6208100139555],[-111.976522734239,40.6214890138524],[-111.976513734805,40.6224580145471],[-111.976500734177,40.6236000140658],[-111.976506734536,40.6240390144262],[-111.976519734271,40.6240390146323],[-111.977169734319,40.62403901371],[-111.977391734895,40.6240390144254],[-111.977764734483,40.6240120142441],[-111.978028735175,40.6239940138777],[-111.978030318955,40.6239938301106],[-111.97802859685,40.6239943232372],[-111.978032188178,40.6239936136152],[-111.978433734384,40.6239470145429],[-111.97879473496,40.6238430140979],[-111.978867734756,40.623823014306],[-111.979198735389,40.6237370136007],[-111.979228734963,40.6237240144672],[-111.979321734748,40.6236830139222],[-111.979458735719,40.6236250142148],[-111.979744315238,40.6235030479911],[-111.979746461188,40.6235022799938],[-111.97974540421,40.6235025824049],[-111.979746735621,40.6235020142681],[-111.979749065823,40.623501116784],[-111.979990735158,40.6234080142411],[-111.980154734834,40.623335013839],[-111.980268736032,40.6232860137563],[-111.980381734847,40.6232280139861],[-111.980480735105,40.623409013876],[-111.98056073507,40.623573013512],[-111.980711735282,40.6238310136341],[-111.980783735637,40.6240120139994],[-111.980906735911,40.6242430142782],[-111.981115736151,40.6246930137482],[-111.981178735343,40.6248080138977],[-111.981288735975,40.6250060142838],[-111.981770735501,40.6260560138881],[-111.983459736559,40.6295530144506],[-111.983470736015,40.6296020143978],[-111.983610736969,40.6302180145892],[-111.983813736789,40.6307890141111],[-111.983957737441,40.6310740146108],[-111.98410173783,40.6312350147683],[-111.984161737032,40.6313020150165],[-111.984185788733,40.6313287895299],[-111.984267737876,40.6314200147002],[-111.984304737192,40.6314700151058],[-111.984334737501,40.6315110143743],[-111.984388737421,40.6315850147308],[-111.984542706555,40.6319351735779],[-111.984570371694,40.6319980898639],[-111.984741044415,40.6322984963597],[-111.984826928965,40.632438316916],[-111.984912736969,40.6325780142009],[-111.985302737306,40.6333950145844],[-111.985507985031,40.6338848718472],[-111.985661423659,40.6342157790652],[-111.985913972413,40.6347604258852],[-111.985920737675,40.634775014454],[-111.985920235415,40.6347824918407],[-111.985920143498,40.6347838503699],[-111.985912738389,40.6348940148579],[-111.985855049217,40.6349507641697],[-111.985740196911,40.6350637469666],[-111.985710436068,40.6350930233473],[-111.985243263557,40.6353386872918],[-111.985181550244,40.6353711393441],[-111.984463145397,40.6357489056758],[-111.983535300756,40.6362367925298],[-111.982981709995,40.636527878673],[-111.98294672535,40.6365462738553],[-111.982934737855,40.6366460152516],[-111.982945737804,40.6374670152996],[-111.982939737947,40.6380590155044],[-111.982934798716,40.6385696695415],[-111.982731912398,40.6385696987953],[-111.982141424367,40.6385697817534],[-111.981520857561,40.6385698654253],[-111.98025910861,40.6385700254582],[-111.979651065431,40.6385700974288],[-111.979341425014,40.6385701328017],[-111.978577623174,40.6385702171298],[-111.978191059175,40.6385702577571],[-111.977229014104,40.6385738540751]]]},"properties":{"DISTRICTID":"1","NAME":"Council District 1","REPNAME":"Chris McConnehey"}},{"type":"Feature","geometry":{"type":"MultiPolygon","coordinates":[[[[-111.973506499549,40.6094812903713],[-111.973498731717,40.6094810126384],[-111.973496742991,40.609480976744],[-111.973199560135,40.6094714236876],[-111.973010731352,40.6094650128111],[-111.972932769189,40.6094628470085],[-111.972902449773,40.6094618723317],[-111.972810326039,40.6094620129313],[-111.972661731977,40.6094620125372],[-111.97193973137,40.6094630134106],[-111.971818429876,40.6094635192432],[-111.9714914627,40.6094640136361],[-111.971187731459,40.6094640133561],[-111.970556064772,40.6094654236505],[-111.970230035805,40.6094659137867],[-111.970015738566,40.6094660832416],[-111.969353939017,40.6094671891459],[-111.969144259454,40.6094675131162],[-111.96918807874,40.6094259733037],[-111.969143694717,40.6094675137268],[-111.968721846146,40.6094674837174],[-111.967543648999,40.609467548018],[-111.967474769492,40.6094678207499],[-111.967396219322,40.6095021010894],[-111.963915706661,40.609510239981],[-111.961951025689,40.6095147251306],[-111.960137160444,40.6095187571977],[-111.957813215284,40.6095238959548],[-111.956172225896,40.6095273632583],[-111.95352863718,40.6095329710077],[-111.952159570968,40.6095358482207],[-111.950998050219,40.6095384270342],[-111.948150965404,40.6095443496077],[-111.948150726574,40.6095440148225],[-111.948152727297,40.6090990143183],[-111.948150726616,40.6089850150004],[-111.948149726786,40.6085750149545],[-111.948152727411,40.6077650148813],[-111.948157726394,40.6063050145968],[-111.948162725782,40.6047730148997],[-111.948162726426,40.6046660145727],[-111.948159726687,40.604157014436],[-111.948313726427,40.6037720141963],[-111.948390726796,40.603622013807],[-111.94841372668,40.6035640145884],[-111.948453725694,40.6034660144174],[-111.948500726013,40.603309014411],[-111.948534726396,40.6031480142765],[-111.948552725889,40.6029860146631],[-111.948554726177,40.602891014613],[-111.948557726286,40.6028230142606],[-111.948545726479,40.6026610140062],[-111.948536725825,40.6025800145019],[-111.948519726004,40.6024990137272],[-111.948502725622,40.6024490138378],[-111.948452725705,40.6023020140394],[-111.948402726619,40.6021880139175],[-111.94834672629,40.6020750144227],[-111.948263726249,40.6018440142935],[-111.948261725367,40.6018360140377],[-111.948207726217,40.6016350137989],[-111.948196725783,40.6015950138454],[-111.948202725541,40.6015100142501],[-111.945098724904,40.6023940144787],[-111.944008724807,40.6027000142007],[-111.943931725041,40.6027220141682],[-111.943701725225,40.6027900145672],[-111.943625724668,40.6028140140375],[-111.94265172539,40.6030940142958],[-111.939729724189,40.6039330145598],[-111.938756723799,40.6042140149628],[-111.936850723582,40.6047580148279],[-111.936844724574,40.604760014838],[-111.935239723457,40.6052190152836],[-111.934243723435,40.6055050150245],[-111.933541722906,40.6057130150588],[-111.931798722671,40.6061970158378],[-111.931130722912,40.6063760155967],[-111.931128722851,40.6063770163118],[-111.929189722996,40.6067750158796],[-111.926741722458,40.6071840162314],[-111.926133722837,40.6073210162272],[-111.925775721888,40.6074130166579],[-111.92542472236,40.6075590161487],[-111.925211722196,40.6076640160996],[-111.924785721905,40.6078460163751],[-111.924497722549,40.6079750166266],[-111.92387972237,40.6082770164416],[-111.923305721965,40.6085720170708],[-111.922817721622,40.6088510167717],[-111.922244296661,40.6093325336314],[-111.92221002664,40.6093395657422],[-111.921941931376,40.6093762103763],[-111.921280906232,40.6094669446302],[-111.921182175096,40.6094804973873],[-111.921253238225,40.6093445917754],[-111.92119229241,40.6091624566486],[-111.92107745166,40.6088193093139],[-111.921003677452,40.608598852651],[-111.920840690864,40.6081119123418],[-111.920598606921,40.60738841374],[-111.92048663911,40.6070539312729],[-111.920485319282,40.6068399622197],[-111.920484117272,40.6066450923246],[-111.920705539398,40.6056954567061],[-111.920705594804,40.6056952141358],[-111.920705594582,40.6056951781788],[-111.920715174755,40.6054478011316],[-111.92070653552,40.6053764718712],[-111.920703135314,40.6053483870513],[-111.920701262542,40.6053329179292],[-111.920427802393,40.6030748459651],[-111.920426345578,40.6030628028533],[-111.920355503563,40.6024778294849],[-111.920292916476,40.6021190959598],[-111.920290610484,40.6021095575583],[-111.920153959404,40.601544656714],[-111.920118575851,40.6013983826583],[-111.92002192817,40.6010749350537],[-111.92001253412,40.6010434965253],[-111.919981304079,40.6009645150896],[-111.919587707924,40.5999690932784],[-111.919440053362,40.5995956634609],[-111.919236823259,40.5992218547272],[-111.918989178344,40.5987663410593],[-111.918988984557,40.5987659816237],[-111.918988805876,40.5987657363209],[-111.91783572843,40.5968975017881],[-111.91768753311,40.5966572137146],[-111.916660428716,40.5966659318222],[-111.916219381703,40.5966696757043],[-111.915725827945,40.5966738603383],[-111.915340486443,40.5966771268603],[-111.914845506662,40.5966813191519],[-111.913855192628,40.5966897053084],[-111.913107567236,40.5966960283402],[-111.913107524757,40.5966960304111],[-111.912748808883,40.5966509153354],[-111.912638684733,40.5964087654169],[-111.912556874947,40.5962288731011],[-111.912449411739,40.5961176071604],[-111.912373195443,40.5960386935892],[-111.911776666647,40.595928494506],[-111.911776628807,40.5959284894235],[-111.911776214534,40.5959289391157],[-111.911623660503,40.5960952662744],[-111.911556097412,40.5961689303494],[-111.91140060517,40.5961018273238],[-111.911400569791,40.596101812351],[-111.911400543146,40.596101932121],[-111.911377622385,40.5962058286364],[-111.911361387404,40.5962007378126],[-111.91134879059,40.5961932209374],[-111.911347384396,40.5961923812686],[-111.911333829332,40.5961840220548],[-111.911293497277,40.5962907505362],[-111.911293068533,40.5962905928362],[-111.910812973871,40.5960981803597],[-111.910810352822,40.5961114006248],[-111.910812233874,40.5961247742121],[-111.910814498112,40.5961295492314],[-111.910818159661,40.596137276688],[-111.91047644157,40.5960157961118],[-111.91047613159,40.5960156865776],[-111.910263744836,40.5959498842271],[-111.91024854144,40.595945174474],[-111.910229050685,40.5959391330719],[-111.910248533888,40.5959409869173],[-111.910256381575,40.595941733809],[-111.910263789689,40.5959424374956],[-111.91073713857,40.595987449636],[-111.910848910993,40.5960112470039],[-111.910995930646,40.5959086567786],[-111.91100953116,40.5957756550122],[-111.91098281387,40.5955244200039],[-111.910881695104,40.5954758807415],[-111.910741194294,40.595465391219],[-111.910640142008,40.5954274879132],[-111.910621575874,40.5953340588117],[-111.910735908929,40.5951104630883],[-111.910782619784,40.5950188589244],[-111.911332203614,40.5950186508117],[-111.911382546457,40.5949325242488],[-111.911430030284,40.5948198180564],[-111.911476541278,40.5946951053125],[-111.911503785756,40.5945855572162],[-111.911516212177,40.5944817226638],[-111.911531469604,40.5943994932681],[-111.911535317528,40.5943658550154],[-111.911542604728,40.5943052703076],[-111.911556298797,40.594262505658],[-111.911569792037,40.594186115853],[-111.911629386315,40.5939923915001],[-111.911631674664,40.5939241029701],[-111.911649587857,40.5937595197807],[-111.911666831374,40.5937083359149],[-111.911680554692,40.5936700307419],[-111.911696045909,40.59362640418],[-111.91171194776,40.5935764237008],[-111.911751012989,40.5934862175295],[-111.911814981233,40.5933463484016],[-111.911822949627,40.5932495637112],[-111.911867909168,40.5931667155848],[-111.911931655512,40.5929897896293],[-111.911929780224,40.5929024744509],[-111.911926409462,40.5928664624818],[-111.911909015995,40.5928183127485],[-111.911906012176,40.5927680571308],[-111.91191139345,40.5926903227262],[-111.911909502612,40.5926006066449],[-111.911904101849,40.5925263420101],[-111.911938228382,40.5924385573133],[-111.911989395367,40.5924143599592],[-111.912043696531,40.5923879191648],[-111.912105235664,40.5923674614665],[-111.912129805696,40.5923368394699],[-111.912133893779,40.5922687163903],[-111.912187262913,40.592162165068],[-111.912208858572,40.5920860892177],[-111.912226717632,40.5920623518776],[-111.912239796945,40.591992139634],[-111.912263341752,40.5919411072523],[-111.912260708981,40.5918776367387],[-111.912275834392,40.5918480780431],[-111.912302698627,40.591750540641],[-111.912356450714,40.5916331774309],[-111.912390017604,40.5915272107929],[-111.912448968631,40.5914506593683],[-111.912482713303,40.5913747144872],[-111.912500595995,40.5913547512267],[-111.912527267927,40.5912990735996],[-111.91254239372,40.5912698563237],[-111.912581101833,40.5911959498727],[-111.912598498092,40.5911698139688],[-111.912672983369,40.5910578685334],[-111.912756138685,40.5909649357133],[-111.912834753489,40.5908658433702],[-111.912898007453,40.5907570272074],[-111.912954753876,40.5906887187295],[-111.912977098528,40.5906623918701],[-111.913008379143,40.5906252258508],[-111.913032509535,40.5905963196412],[-111.913067739925,40.5905424985754],[-111.913093703801,40.5905190748388],[-111.913113706528,40.5904776601654],[-111.913126987305,40.5903666152861],[-111.913153044554,40.5902846922621],[-111.913152843935,40.5901028439209],[-111.913155871733,40.5900083060709],[-111.913154225322,40.5899592470807],[-111.913152558479,40.5899067562339],[-111.913168478799,40.58986038054],[-111.913145944244,40.5897810284566],[-111.91312775862,40.5896025026825],[-111.913109575628,40.5894980892954],[-111.913040046571,40.5893137400979],[-111.913024050154,40.5892734806528],[-111.913017534171,40.5892379911047],[-111.913006196533,40.5891493366736],[-111.91298288525,40.5890902318908],[-111.912978726635,40.5890724047814],[-111.912931996743,40.5888620701164],[-111.912879377336,40.5887941464808],[-111.912829593481,40.5879342531276],[-111.912961962826,40.5874827418994],[-111.913070093918,40.5873684152609],[-111.913448634007,40.5867662627486],[-111.913539909101,40.5866937889602],[-111.913827610879,40.5862017054016],[-111.914127636752,40.5858369867167],[-111.91499110148,40.5852853147821],[-111.915308973153,40.5850828831038],[-111.916037313662,40.5845292931681],[-111.916338695091,40.5843620794061],[-111.916426097423,40.5843359880967],[-111.916474368941,40.5843215781775],[-111.916504370472,40.5843024295445],[-111.916630502599,40.5842219250416],[-111.916630058216,40.5841431798387],[-111.916984356444,40.5841430322209],[-111.916984144675,40.5838483936928],[-111.917070653448,40.5837964954131],[-111.917070903038,40.584142995771],[-111.917112603902,40.5841429778975],[-111.917111151774,40.5838864445056],[-111.91726407691,40.5837586371354],[-111.917333399958,40.5836557700664],[-111.91758063399,40.5833634803351],[-111.917961823195,40.5829145397949],[-111.918226595377,40.5824980845956],[-111.918432633866,40.5820561668865],[-111.918529805893,40.5819035401891],[-111.918854376037,40.5814169238266],[-111.919614674137,40.5805383712023],[-111.919995622911,40.5803167136852],[-111.919988486871,40.5804038309038],[-111.919832654057,40.5807042313795],[-111.919611455541,40.5810383811351],[-111.919375723267,40.5813635928513],[-111.919206982704,40.5815865408333],[-111.91920696163,40.581586568083],[-111.919206900566,40.5815866492756],[-111.919206878413,40.5815866765292],[-111.919206818429,40.5815867577179],[-111.919206796286,40.5815867866184],[-111.919206736662,40.5815868678058],[-111.919206714146,40.5815868947862],[-111.919202751923,40.581592128634],[-111.921381476077,40.5816217024639],[-111.921478684781,40.5816222096642],[-111.922565857324,40.5816085529392],[-111.923462519989,40.5815863261466],[-111.924409985728,40.5816014237339],[-111.924434149645,40.5816018084344],[-111.924424918165,40.5821055485181],[-111.924424864059,40.5821084242643],[-111.924549382121,40.5821047072884],[-111.925745157555,40.5821098703091],[-111.925985107378,40.5821082625336],[-111.926818561977,40.5821086670447],[-111.92681468549,40.5820788474452],[-111.926813842836,40.5820723720123],[-111.926812431928,40.5820615021501],[-111.926812409672,40.5820613400078],[-111.926827200032,40.5820573714289],[-111.927165541031,40.5819665573105],[-111.927545623834,40.5818644702499],[-111.927778776423,40.5818018692391],[-111.927923908312,40.5817629026279],[-111.92831027788,40.5816590734838],[-111.928685414671,40.5815583729359],[-111.929063245742,40.581456803272],[-111.929097007424,40.5814450716259],[-111.929175507777,40.5814177919947],[-111.929172517967,40.5804421602764],[-111.929289959418,40.5804398431789],[-111.930287624347,40.5804363626533],[-111.930435224352,40.5804356490722],[-111.930480224806,40.5804354858708],[-111.930878930151,40.580434022124],[-111.931298335686,40.5804324817426],[-111.93133478712,40.5804323477223],[-111.931581844596,40.5804322982251],[-111.931910806109,40.5804321176935],[-111.931929707377,40.5804322193839],[-111.932278918728,40.5804321342673],[-111.932554779727,40.5804321478616],[-111.932602931282,40.5804321421361],[-111.932880139762,40.5804319778911],[-111.932926941293,40.5804319753674],[-111.933250951331,40.5804319822791],[-111.933574963879,40.5804319866397],[-111.933909775461,40.5804319518094],[-111.933952978043,40.5804319630115],[-111.934233336554,40.5804317847399],[-111.934330990753,40.5804317663401],[-111.93465500079,40.5804317693739],[-111.934921860587,40.5804316359023],[-111.934979013327,40.5804317682096],[-111.93524542314,40.5804316389643],[-111.935303024781,40.5804315965198],[-111.935627035885,40.5804315949435],[-111.935873644431,40.5804315380749],[-111.935951047357,40.5804315935688],[-111.936233654797,40.5804314013358],[-111.936275057369,40.5804314194741],[-111.936629220229,40.5804314767451],[-111.936809224853,40.5804313202059],[-111.937456349578,40.5804313122829],[-111.937525648799,40.580431224028],[-111.937581906201,40.5804311879484],[-111.937618805126,40.5804312215879],[-111.93858766702,40.5804274339811],[-111.938676260472,40.5804183519933],[-111.938676531949,40.5804605554243],[-111.938676804054,40.580502856296],[-111.938677024127,40.5805370684235],[-111.938777737785,40.5805031263405],[-111.938898223176,40.5804625216222],[-111.939330954455,40.5804565783549],[-111.941044175697,40.5804569659662],[-111.943383214234,40.5804574526263],[-111.944249580324,40.5804587002006],[-111.9444321169,40.5804589634818],[-111.946361422413,40.5804617147259],[-111.94770608636,40.5804636132187],[-111.94812471153,40.5804642022446],[-111.948233337589,40.5804301155717],[-111.949047542002,40.5804374013622],[-111.949693285872,40.5804672053327],[-111.9497655008,40.5807650376941],[-111.949823244703,40.580857250212],[-111.949878848218,40.5809460406069],[-111.95063086698,40.5809513909091],[-111.950816284347,40.5809527407623],[-111.951385137034,40.5809568995594],[-111.951530049256,40.5809578853443],[-111.951900885474,40.5809605766945],[-111.951925188137,40.5809608250896],[-111.952043997687,40.5809615696019],[-111.952271716973,40.5809630936876],[-111.952635352758,40.5809658085544],[-111.952872969968,40.5809669520917],[-111.952900872635,40.5809670145565],[-111.953045762003,40.5809652564033],[-111.953066465891,40.5809650062618],[-111.953218131922,40.5809661351595],[-111.953459805738,40.5809684602591],[-111.953878350689,40.5809726764975],[-111.95402147136,40.5809740100724],[-111.954294179671,40.5809736388985],[-111.954709092556,40.5809728913829],[-111.954807646401,40.5809726822697],[-111.955118605356,40.5809721652711],[-111.955141108244,40.5809720779679],[-111.955437219441,40.5809716130629],[-111.955547469499,40.5809713559984],[-111.95575177837,40.5809709074812],[-111.955965533873,40.5809705956437],[-111.956070838869,40.5809703545627],[-111.956387647888,40.58096980981],[-111.956700407915,40.5809692796901],[-111.956809310823,40.5809690266842],[-111.957021718436,40.580968715426],[-111.957233229619,40.5809684053556],[-111.957332230936,40.5809681923775],[-111.957650841037,40.5809676360941],[-111.957764233583,40.5809656502224],[-111.957760945914,40.5804758669142],[-111.957822148772,40.5804759728379],[-111.958586736187,40.5804772767282],[-111.958946754955,40.5804777564794],[-111.959310371245,40.5804782218638],[-111.959663187726,40.5804785563335],[-111.960023203988,40.5804790327911],[-111.960383220621,40.5804795089658],[-111.960746838004,40.5804799687956],[-111.96112845564,40.5804805299475],[-111.9618259883,40.5804813908846],[-111.961888091153,40.5804814875757],[-111.962557279495,40.5804834861968],[-111.964635504421,40.580490032431],[-111.964854666315,40.5804903656342],[-111.965370389795,40.5804908956266],[-111.96569440468,40.5804913262092],[-111.965984668463,40.5804917181372],[-111.966272681053,40.5804919461895],[-111.966564295945,40.5804923329601],[-111.96685591083,40.5804927173589],[-111.967195224779,40.5804930820872],[-111.967315820927,40.5804915732334],[-111.967469722784,40.5804913012476],[-111.968800476056,40.5804986914901],[-111.969101550507,40.5805004057786],[-111.970623358525,40.5805036764219],[-111.971675496582,40.5804903360683],[-111.973622529086,40.5805087401267],[-111.97689522441,40.5805389973558],[-111.983779443794,40.5805801381589],[-111.99229581016,40.580609747614],[-112.00100338565,40.5806312338868],[-112.004830869028,40.5806401921475],[-112.003640464791,40.5813291830151],[-112.002566327583,40.5819508574109],[-112.001170035098,40.5826602040091],[-111.999981160703,40.5832641521864],[-111.998360295274,40.5840875165564],[-111.996591014341,40.5850253929675],[-111.995209226707,40.5857578268522],[-111.993873645676,40.5864657372205],[-111.993310995866,40.587152655621],[-111.992848034491,40.5881339093734],[-111.991175910953,40.5881476235199],[-111.990352945181,40.5885320403647],[-111.988342257304,40.5895358799025],[-111.986440226126,40.5905132853135],[-111.984937991145,40.5912215907804],[-111.983862775334,40.5915184962155],[-111.98106766387,40.5923217012671],[-111.979612725214,40.5927397614392],[-111.97702765392,40.5932350437015],[-111.977215449085,40.5934432361283],[-111.977214401162,40.5937563301154],[-111.977311730256,40.5939380114797],[-111.977312731377,40.5941900106795],[-111.977313730625,40.5942580109484],[-111.977313730959,40.5943620111935],[-111.977318731377,40.5949590108188],[-111.977329731502,40.5963640110011],[-111.97730373113,40.5986470115394],[-111.977303731269,40.5987000116682],[-111.9773337317,40.601856011836],[-111.977242732099,40.6026600120827],[-111.976870732375,40.6045510122914],[-111.976728731957,40.6053550125821],[-111.976642732053,40.6058430120951],[-111.976560732629,40.6067160126979],[-111.976567732417,40.6074690121311],[-111.976588732506,40.6094620126451],[-111.976545732272,40.6094620124054],[-111.976479246177,40.6094635880859],[-111.976410646615,40.60946521403],[-111.975930890858,40.6094693297976],[-111.975811732498,40.6094700127772],[-111.975292732534,40.6094740124676],[-111.974244732582,40.609483013213],[-111.973842731738,40.6094870123615],[-111.973817033627,40.6094874422036],[-111.973722913023,40.6094882462328],[-111.973506499549,40.6094812903713]]],[[[-111.919832654057,40.5807042313795],[-111.91991830655,40.5805748406627],[-111.919832284033,40.5807049444548],[-111.919832654057,40.5807042313795]]]]},"properties":{"DISTRICTID":"2","NAME":"Council District 2","REPNAME":"Melissa Worthen"}},{"type":"Feature","geometry":{"type":"Polygon","coordinates":[[[-112.004571670431,40.6392315987614],[-112.004759369418,40.6385736701507],[-112.004373904414,40.6385735542774],[-112.004236632771,40.6385697158936],[-112.00010470115,40.6385777938148],[-112.000073174089,40.6385779280947],[-111.999848429188,40.638578712157],[-111.998485104478,40.6385845042734],[-111.997641526924,40.638588080211],[-111.996285405867,40.6385938162528],[-111.995490872679,40.6385904791511],[-111.994618866091,40.6385866050264],[-111.994305375323,40.6385853522072],[-111.993606780758,40.638582282711],[-111.993205910228,40.6385805373279],[-111.992567708486,40.6385832136613],[-111.991713672395,40.6385972396673],[-111.988187084462,40.638553461106],[-111.988176336987,40.6370534082832],[-111.989843188105,40.6370305922696],[-111.989835290583,40.6344828373665],[-111.991532503331,40.6344361250225],[-111.991532259233,40.6342772675709],[-111.991532465475,40.6341184054785],[-111.991532668343,40.6339593756796],[-111.991532424255,40.6338005192943],[-111.991532629426,40.6336416588217],[-111.991532385325,40.6334828004939],[-111.991532729415,40.6333434983715],[-111.991531963238,40.6331743487601],[-111.991531323184,40.6330233826704],[-111.991530546006,40.6328532065097],[-111.991529908847,40.6327022412112],[-111.991529131664,40.6325320633808],[-111.991528493076,40.6323810988915],[-111.991527716973,40.6322109199359],[-111.991524610447,40.6313426989958],[-111.984258495972,40.6313286148133],[-111.984185788371,40.6313287892569],[-111.984161737032,40.6313020150165],[-111.98410173783,40.6312350147683],[-111.983957737441,40.6310740146108],[-111.983813736789,40.6307890141111],[-111.983610736969,40.6302180145892],[-111.983470736015,40.6296020143978],[-111.983459736559,40.6295530144506],[-111.981770735501,40.6260560138881],[-111.981288735975,40.6250060142838],[-111.981178735343,40.6248080138977],[-111.981115736151,40.6246930137482],[-111.980906735911,40.6242430142782],[-111.980783735637,40.6240120139994],[-111.980711735282,40.6238310136341],[-111.98056073507,40.623573013512],[-111.980480735105,40.623409013876],[-111.980381734847,40.6232280139861],[-111.980268736032,40.6232860137563],[-111.980154734834,40.623335013839],[-111.979990735158,40.6234080142411],[-111.979749066181,40.6235011165081],[-111.979746735621,40.6235020142681],[-111.979745404572,40.6235025826779],[-111.978030318955,40.6239938301106],[-111.978028735175,40.6239940138777],[-111.977764734483,40.6240120142441],[-111.977391734895,40.6240390144254],[-111.977169734319,40.62403901371],[-111.976519734271,40.6240390146323],[-111.976506734536,40.6240390144262],[-111.976500734177,40.6236000140658],[-111.976513734805,40.6224580145471],[-111.976522734239,40.6214890138524],[-111.976522734212,40.6208100139555],[-111.976524734174,40.6202240139246],[-111.976545733216,40.6161080138014],[-111.976545733162,40.6160370132362],[-111.976546227637,40.6152684983972],[-111.976588533172,40.6094637924055],[-111.977392799019,40.6094569166319],[-111.981722298707,40.6094643602784],[-111.981825734101,40.6094700122728],[-111.982356498436,40.6094675553634],[-111.982516955869,40.6094670124352],[-111.982732734358,40.609467011692],[-111.982773411993,40.6094668218626],[-111.982773317873,40.6094661442663],[-111.983659258692,40.6094630768497],[-111.984735629404,40.6094593409947],[-111.984877092378,40.6094588494094],[-111.98508751213,40.6094548241021],[-111.985360527069,40.6094496010954],[-111.98638688991,40.6094299604122],[-111.986805036176,40.6094328625526],[-111.988646600918,40.6094456269798],[-111.9887278882,40.6094456145972],[-112.01261437254,40.6094396017002],[-112.030884746957,40.6094315377947],[-112.055446156098,40.6094252881326],[-112.056112747912,40.6059590060171],[-112.056842748486,40.6022550051689],[-112.057282747256,40.5999710057985],[-112.057522747923,40.5987310048879],[-112.058058747218,40.5959800051132],[-112.058201746862,40.5952390044951],[-112.058245746596,40.5950140047383],[-112.058277747576,40.5948530048006],[-112.058482746955,40.5937750049349],[-112.058515747385,40.593595004808],[-112.058618746692,40.5930550041935],[-112.058653746579,40.5928760048518],[-112.058677747477,40.5927480041081],[-112.058749746871,40.5923670047469],[-112.05877474654,40.5922400043832],[-112.058862746432,40.5922280039599],[-112.059186746776,40.5921900038062],[-112.059510747457,40.5921620046397],[-112.060007747203,40.5921730040096],[-112.060274747005,40.5921950042259],[-112.060547747615,40.5922060046035],[-112.06095874734,40.5921400044435],[-112.061189747876,40.5921070037296],[-112.061354747671,40.5920960039276],[-112.061547747719,40.5920760038418],[-112.061830746909,40.5920470037464],[-112.06206074829,40.5920690044036],[-112.062471747479,40.5922170038703],[-112.062672747557,40.5922770042121],[-112.062860747876,40.5923050041527],[-112.063076747931,40.5923050042394],[-112.063256747431,40.5922880040769],[-112.063350748295,40.592244003479],[-112.063602747633,40.5921510038873],[-112.063811747725,40.5920910043227],[-112.064027748115,40.5919860039513],[-112.064243747844,40.5919370033862],[-112.064452747788,40.5918820036146],[-112.064704748268,40.5918050036056],[-112.064949748247,40.5917060036658],[-112.065093748535,40.5915960041774],[-112.065302747692,40.5915250041889],[-112.065547747705,40.5915470037025],[-112.06572774871,40.5915850040941],[-112.065892747766,40.5916620040146],[-112.066072748432,40.5917120037893],[-112.06627474799,40.5917560038012],[-112.066418748631,40.5917390042468],[-112.066541748716,40.5917010038981],[-112.066685748449,40.5916350035832],[-112.06699474809,40.5915690037924],[-112.067189748491,40.5915190032143],[-112.067434748508,40.5914810038965],[-112.067636749037,40.5913930038989],[-112.067902748622,40.591228003266],[-112.068017748354,40.5911020034659],[-112.068219748196,40.5910090034186],[-112.068413748816,40.5909870034146],[-112.068500749044,40.5909540031331],[-112.068644748976,40.590926003084],[-112.068860749079,40.590838003637],[-112.069278748965,40.5906850038035],[-112.069436748986,40.5906680036905],[-112.069453748547,40.5906730028342],[-112.069609748772,40.590717003519],[-112.069768749493,40.5907830033196],[-112.070272749454,40.5909370035486],[-112.07139675002,40.5912390037692],[-112.071576749516,40.5912550035532],[-112.072123749695,40.5912330032294],[-112.07215974981,40.5912340030498],[-112.072310749841,40.5912390031837],[-112.072390750276,40.5912770026749],[-112.072591749064,40.5913540031438],[-112.072858749595,40.5913820031003],[-112.073060749392,40.5914200028833],[-112.073319749383,40.5914580029651],[-112.073542750377,40.5914860028038],[-112.07368674979,40.5914690031058],[-112.074047750384,40.5914090028197],[-112.074205749965,40.5914030028301],[-112.074493750349,40.5914200031245],[-112.07480575029,40.5915230030904],[-112.075010775389,40.5915913450396],[-112.075010662765,40.5917023241767],[-112.075010555496,40.5918072776591],[-112.075010541694,40.591821225431],[-112.075010481963,40.5918802376902],[-112.075009852648,40.5925001689629],[-112.075008940006,40.5934007995042],[-112.075007953702,40.594373011732],[-112.075007079094,40.5952353746851],[-112.073655085718,40.595251193516],[-112.072844610039,40.5952509004221],[-112.072845434906,40.595260659471],[-112.072840161857,40.5952607211725],[-112.073109993884,40.5988655910103],[-112.072332720769,40.5989011931306],[-112.071934965688,40.5989031324768],[-112.071935083829,40.5989194044924],[-112.071866677898,40.598922537409],[-112.07195149344,40.6011627665886],[-112.07192050344,40.6022280337425],[-112.071755399812,40.6022603480498],[-112.07168785089,40.6022622376197],[-112.07168700268,40.6022737346328],[-112.071681335245,40.6022748437318],[-112.071644729298,40.6026706392634],[-112.071589912245,40.6029057359522],[-112.071674923074,40.6038908108184],[-112.07167860816,40.60390457059],[-112.071684644035,40.6039791600439],[-112.071748868756,40.6041840269053],[-112.071780287058,40.6042842452753],[-112.072401548963,40.6066039790587],[-112.072512916617,40.6066805656229],[-112.072531660148,40.6068475960757],[-112.072532038169,40.6068509668795],[-112.072559564218,40.6070962566072],[-112.072587096533,40.6075010441885],[-112.072568513424,40.6078101968921],[-112.072546493251,40.6080758834211],[-112.072516976606,40.6082346348396],[-112.072447664733,40.6085308860432],[-112.072438969512,40.608568051987],[-112.072244935732,40.6091499551124],[-112.072101985395,40.6094860796101],[-112.072979021114,40.6095016136691],[-112.072984252921,40.6096562938781],[-112.072986568551,40.6097247334979],[-112.082058691012,40.6097252333773],[-112.082060233985,40.6097252339596],[-112.082555754866,40.6097255339843],[-112.082518815182,40.6132513858539],[-112.082586546499,40.6167027294625],[-112.082589795944,40.6168683043879],[-112.082591575182,40.616971401559],[-112.082532140786,40.616971525266],[-112.082428202249,40.6169716018852],[-112.081883317466,40.6169720014423],[-112.081792366149,40.6169721091849],[-112.077250600136,40.6170285880798],[-112.077250512973,40.6170285890574],[-112.073143128109,40.6170736336412],[-112.073151515748,40.618299168095],[-112.073162858795,40.6199563246106],[-112.073166375644,40.6204702018235],[-112.073172477742,40.6213616359791],[-112.073191715505,40.6241720564415],[-112.068338916439,40.624043819517],[-112.067367469427,40.6240177998602],[-112.067353758691,40.62401743381],[-112.063422758665,40.6239120843616],[-112.062304011287,40.6238603693613],[-112.058454118759,40.6238766897001],[-112.058381168617,40.6238770010439],[-112.05324024309,40.6238939974849],[-112.052579468074,40.6238961669537],[-112.048698285074,40.6238942671038],[-112.046344394599,40.6238913650922],[-112.043695095936,40.6238880412068],[-112.040191028987,40.6239066004116],[-112.038924318771,40.6239132826512],[-112.038992593625,40.6264032530382],[-112.034916697041,40.6264003005413],[-112.034872548313,40.6275901841972],[-112.030944305122,40.6276068456785],[-112.030945314709,40.6312711467947],[-112.030010862313,40.6312482620422],[-112.024564505531,40.6312724523282],[-112.024554743043,40.6385571427014],[-112.017242984997,40.6385202897131],[-112.010944771265,40.638548921712],[-112.005419421137,40.6385738890535],[-112.005269495001,40.6385771493411],[-112.005294807077,40.640141542411],[-112.004894444418,40.6401416723802],[-112.004209453545,40.6401418863892],[-112.004571670431,40.6392315987614]]]},"properties":{"DISTRICTID":"3","NAME":"Council District 3","REPNAME":"Zach Jacob"}},{"type":"Feature","geometry":{"type":"Polygon","coordinates":[[[-111.9887278882,40.6094456145972],[-111.988646734815,40.6094450121197],[-111.988194735262,40.6094420122483],[-111.986838735112,40.6094330120782],[-111.986805036176,40.6094328625526],[-111.98638688991,40.6094299604122],[-111.985360527069,40.6094496010954],[-111.985178734387,40.609453011729],[-111.98508751213,40.6094548241021],[-111.984877092378,40.6094588494094],[-111.984735629404,40.6094593409947],[-111.98444773454,40.6094600117604],[-111.983659258692,40.6094630768497],[-111.982773317873,40.6094661442663],[-111.981722298707,40.6094643602784],[-111.98169773377,40.6094630126353],[-111.981439733399,40.6094500120438],[-111.981118733879,40.609450012505],[-111.980155733069,40.6094530126179],[-111.979855998596,40.6094539492055],[-111.979836064783,40.6094539922783],[-111.979819630185,40.6094540125326],[-111.979346732769,40.6094540125635],[-111.979082194129,40.6094549036061],[-111.978153519696,40.6094560132264],[-111.977880733118,40.6094560123381],[-111.977392732541,40.6094560127417],[-111.97718073245,40.6094570126908],[-111.976793732635,40.6094600128769],[-111.976588732506,40.6094620126451],[-111.976567732417,40.6074690121311],[-111.976560732629,40.6067160126979],[-111.976642732053,40.6058430120951],[-111.976728731957,40.6053550125821],[-111.976870732375,40.6045510122914],[-111.977242732099,40.6026600120827],[-111.9773337317,40.601856011836],[-111.977303731269,40.5987000116682],[-111.97730373113,40.5986470115394],[-111.977329731502,40.5963640110011],[-111.977318731377,40.5949590108188],[-111.977313730959,40.5943620111935],[-111.977313730625,40.5942580109484],[-111.977312731377,40.5941900106795],[-111.977311730256,40.5939380114797],[-111.97721440116,40.5937563298409],[-111.977215449085,40.5934432361283],[-111.97702765392,40.5932350437015],[-111.979612725214,40.5927397614392],[-111.98106766387,40.5923217012671],[-111.983862775334,40.5915184962155],[-111.984937991145,40.5912215907804],[-111.986440226126,40.5905132853135],[-111.988342257304,40.5895358799025],[-111.990352945181,40.5885320403647],[-111.991175910953,40.5881476235199],[-111.992848034491,40.5881339093734],[-111.993310995866,40.587152655621],[-111.993873645676,40.5864657372205],[-111.995209226707,40.5857578268522],[-111.996591014699,40.5850253926915],[-111.998360295274,40.5840875165564],[-111.999981160703,40.5832641521864],[-112.001170035098,40.5826602040091],[-112.002566327583,40.5819508574109],[-112.003640464791,40.5813291830151],[-112.005224644665,40.580641751573],[-112.009939241603,40.5783195355941],[-112.010248739436,40.5781670785611],[-112.013663010676,40.5763698719162],[-112.013652984512,40.5733155968357],[-112.013653132463,40.5733155970113],[-112.014582111645,40.5733161831551],[-112.014554571199,40.5760424946702],[-112.014552160596,40.5762810512258],[-112.014733012599,40.576191104052],[-112.014735041413,40.57598995219],[-112.014738576127,40.5756397102255],[-112.014761994329,40.5733179153622],[-112.014628655918,40.5659770191648],[-112.014628773974,40.5659770186467],[-112.014823269338,40.5661363926994],[-112.014846494264,40.566029753049],[-112.017867288949,40.5660306747185],[-112.023788158319,40.5660319627548],[-112.024191426455,40.5660320405474],[-112.024284657196,40.5659858200473],[-112.026058191113,40.5659778660247],[-112.026059543092,40.5660317308152],[-112.026195245663,40.5659718964106],[-112.026088387093,40.5671807465134],[-112.026157302219,40.5673447958854],[-112.026931589024,40.5673561756658],[-112.026944810863,40.5659544941123],[-112.031277273869,40.5659735221065],[-112.032088987209,40.5659916711822],[-112.03396874062,40.566033681316],[-112.035580369003,40.5660338680384],[-112.035718540749,40.5660338386881],[-112.035974052144,40.5660337852155],[-112.040044360439,40.5659703685858],[-112.040426983682,40.5659644011992],[-112.046822680073,40.565977769785],[-112.056379937065,40.5659021433177],[-112.056398278919,40.5659024246757],[-112.063135530835,40.5659939699472],[-112.063659144103,40.5660942094007],[-112.081752374976,40.5661696110092],[-112.081750086748,40.5662708452464],[-112.081747104546,40.5664485936741],[-112.081745352428,40.5665592595918],[-112.081742724354,40.5667262002468],[-112.081740996812,40.5668402980256],[-112.081735284804,40.5671731530197],[-112.0815711169,40.5735116350834],[-112.078041418183,40.5778628201366],[-112.075691709034,40.5807590200268],[-112.075670695802,40.5879943244297],[-112.07501440487,40.5880115915409],[-112.07501265111,40.5897406569219],[-112.075010775389,40.5915913450396],[-112.07480575029,40.5915230030904],[-112.074493750349,40.5914200031245],[-112.074205749965,40.5914030028301],[-112.074047750384,40.5914090028197],[-112.07368674979,40.5914690031058],[-112.073542750377,40.5914860028038],[-112.073319749383,40.5914580029651],[-112.073060749392,40.5914200028833],[-112.072858749595,40.5913820031003],[-112.072591749064,40.5913540031438],[-112.072390750276,40.5912770026749],[-112.072310749841,40.5912390031837],[-112.07215974981,40.5912340030498],[-112.072123749695,40.5912330032294],[-112.071576749516,40.5912550035532],[-112.07139675002,40.5912390037692],[-112.070272749454,40.5909370035486],[-112.069768749493,40.5907830033196],[-112.069609748772,40.590717003519],[-112.069453748547,40.5906730028342],[-112.069436748986,40.5906680036905],[-112.069278748965,40.5906850038035],[-112.068860749079,40.590838003637],[-112.068644748976,40.590926003084],[-112.068500749044,40.5909540031331],[-112.068413748816,40.5909870034146],[-112.068219748196,40.5910090034186],[-112.068017748354,40.5911020034659],[-112.067902748622,40.591228003266],[-112.067636749037,40.5913930038989],[-112.067434748508,40.5914810038965],[-112.067189748491,40.5915190032143],[-112.06699474809,40.5915690037924],[-112.066685748449,40.5916350035832],[-112.066541748716,40.5917010038981],[-112.066418748631,40.5917390042468],[-112.06627474799,40.5917560038012],[-112.066072748432,40.5917120037893],[-112.065892747766,40.5916620040146],[-112.06572774871,40.5915850040941],[-112.065547747705,40.5915470037025],[-112.065302747692,40.5915250041889],[-112.065093748535,40.5915960041774],[-112.064949748247,40.5917060036658],[-112.064704748268,40.5918050036056],[-112.064452747788,40.5918820036146],[-112.064243747844,40.5919370033862],[-112.064027748115,40.5919860039513],[-112.063811747725,40.5920910043227],[-112.063602747633,40.5921510038873],[-112.063350748295,40.592244003479],[-112.063256747431,40.5922880040769],[-112.063076747931,40.5923050042394],[-112.062860747876,40.5923050041527],[-112.062672747557,40.5922770042121],[-112.062471747479,40.5922170038703],[-112.06206074829,40.5920690044036],[-112.061830746909,40.5920470037464],[-112.061547747719,40.5920760038418],[-112.061354747671,40.5920960039276],[-112.061189747876,40.5921070037296],[-112.06095874734,40.5921400044435],[-112.060547747615,40.5922060046035],[-112.060274747005,40.5921950042259],[-112.060007747203,40.5921730040096],[-112.059510747457,40.5921620046397],[-112.059186746776,40.5921900038062],[-112.058862746432,40.5922280039599],[-112.05877474654,40.5922400043832],[-112.058749746871,40.5923670047469],[-112.058677747477,40.5927480041081],[-112.058653746579,40.5928760048518],[-112.058618746692,40.5930550041935],[-112.058515747385,40.593595004808],[-112.058482746955,40.5937750049349],[-112.058277747576,40.5948530048006],[-112.058245746596,40.5950140047383],[-112.058201746862,40.5952390044951],[-112.058058747218,40.5959800051132],[-112.057522747923,40.5987310048879],[-112.057282747256,40.5999710057985],[-112.056842748486,40.6022550051689],[-112.056112747912,40.6059590060171],[-112.055446156098,40.6094252881326],[-112.030884746957,40.6094315377947],[-112.01261437254,40.6094396017002],[-111.9887278882,40.6094456145972]]]},"properties":{"DISTRICTID":"4","NAME":"Council District 4","REPNAME":"David Pack"}}]}