{"type":"FeatureCollection","crs":{"type":"name","properties":{"name":"EPSG:4326"}},"features":[{"type":"Feature","geometry":{"type":"MultiPolygon","coordinates":[[[[-111.70061383762,40.2568302979277],[-111.70298184971,40.2589163619395],[-111.703522818767,40.2593962429767],[-111.70431262565,40.2600910990153],[-111.70420395106,40.2598741867488],[-111.705089573149,40.2606557549515],[-111.706267721729,40.2606605521883],[-111.706334286892,40.2607175349453],[-111.706378101322,40.2607579899042],[-111.707225837862,40.2614891405303],[-111.708200185653,40.2623383419462],[-111.7088035463,40.262863042312],[-111.709389973704,40.2633982937478],[-111.709856291863,40.2638730155832],[-111.710180299813,40.2642113080567],[-111.710279908605,40.2642110571713],[-111.710588208614,40.2645426878694],[-111.709486061101,40.2649973015978],[-111.709055699807,40.2649932723966],[-111.709009123058,40.2649928371222],[-111.709009956695,40.2652753632024],[-111.709338776021,40.2652746989833],[-111.709338971854,40.265315960755],[-111.709794524603,40.2653219963023],[-111.711359331437,40.2671684776677],[-111.711352156593,40.2671684317427],[-111.712122262523,40.2680766941352],[-111.71213702903,40.26809408101],[-111.714120617873,40.2680904152764],[-111.71442987908,40.2680962545403],[-111.7117147921,40.265343805839],[-111.711858725565,40.2653421997876],[-111.707290539919,40.2607572810823],[-111.709623319184,40.26076669388],[-111.709717561441,40.2608611638557],[-111.713348021813,40.2608795623461],[-111.713923530195,40.2608666438492],[-111.71598183731,40.2608201420387],[-111.716866010417,40.260815388686],[-111.716866456397,40.2608153863172],[-111.716980517405,40.2608154714857],[-111.717094562384,40.2608169331481],[-111.717208562809,40.260819770939],[-111.717322490169,40.2608239841482],[-111.717436315969,40.2608295717219],[-111.71755001174,40.2608365322621],[-111.717663549044,40.2608448640275],[-111.717776899486,40.2608545649338],[-111.71777734229,40.2608546055491],[-111.717777793905,40.2608546470093],[-111.7178933992,40.2608645561984],[-111.718009193913,40.2608730807172],[-111.718125149566,40.2608802184696],[-111.71824123764,40.2608859677007],[-111.718357429586,40.2608903269969],[-111.718473696828,40.2608932952863],[-111.718590010771,40.2608948718391],[-111.718706342809,40.2608950562677],[-111.718706797673,40.2608950542564],[-111.719666827217,40.260890799277],[-111.720912254222,40.2608852096033],[-111.723549627946,40.2608733433703],[-111.723601255024,40.2626173967956],[-111.72365405081,40.2644487419407],[-111.723694938528,40.2654272532826],[-111.723751471306,40.2678183196862],[-111.724165482362,40.2674123848151],[-111.725595320919,40.2674065804499],[-111.725363724459,40.2679548947226],[-111.725206928017,40.2681401172051],[-111.725059307867,40.2682959236143],[-111.724917969635,40.2688399117674],[-111.72498870837,40.2693733680713],[-111.72499085714,40.2693943462497],[-111.723723646888,40.2694118719275],[-111.722842503799,40.2695348606711],[-111.722748942465,40.2695513917603],[-111.723128707947,40.2700365100521],[-111.72295659523,40.2701097499212],[-111.722175695143,40.2691534278671],[-111.721956776607,40.2692048857687],[-111.720559844238,40.2692118812547],[-111.720432361621,40.2692127647724],[-111.720430599126,40.2694125114306],[-111.717206091922,40.2693659640874],[-111.71713539451,40.269364870831],[-111.717600791895,40.2700549780162],[-111.717639564081,40.2700733863436],[-111.720453536709,40.2701110371392],[-111.721381935673,40.270128496831],[-111.722957138711,40.2701497475721],[-111.72315817718,40.2700537141013],[-111.723558957849,40.2705457268091],[-111.723868374464,40.270907045216],[-111.724448809206,40.2716014499158],[-111.724607055528,40.2715401870617],[-111.726140044934,40.2715263425619],[-111.728276200052,40.2715369725115],[-111.734630193364,40.2715345550875],[-111.736847856221,40.2715341479568],[-111.736852002844,40.2724905446398],[-111.738015961636,40.2724910545741],[-111.738664623425,40.273117653259],[-111.739777380042,40.2741283191743],[-111.740846495604,40.2751895254998],[-111.741460624357,40.2759234493704],[-111.741460479728,40.2761148066076],[-111.743111889546,40.276100158433],[-111.743100769301,40.2761480691166],[-111.74299173808,40.2762024646229],[-111.742914624899,40.2763358461011],[-111.742891734927,40.2764368963631],[-111.742918434654,40.2765120421259],[-111.742935225065,40.2765737377319],[-111.743049603957,40.2766210223521],[-111.743146210579,40.2766779711035],[-111.743262474137,40.2767576769324],[-111.743381999477,40.2768559207361],[-111.743469224094,40.2769477049705],[-111.742973269616,40.2769545845168],[-111.745170909923,40.2775893885851],[-111.745372908691,40.2776779993715],[-111.747069498378,40.2787510494106],[-111.747867012806,40.2787392308584],[-111.750852635518,40.2812339227734],[-111.751025147985,40.2813776712216],[-111.75179294255,40.2819827904626],[-111.752922102404,40.2828612363369],[-111.75300967467,40.2829294069343],[-111.75285173647,40.2830397165559],[-111.752453783697,40.283125730497],[-111.752174946633,40.2831860138589],[-111.751849955926,40.2832109192432],[-111.751539605063,40.283187439256],[-111.751251589014,40.2831306597712],[-111.750954150535,40.2830196149831],[-111.749109955071,40.2824224551285],[-111.748812292013,40.2821305908551],[-111.748775187999,40.2820941638411],[-111.748491792883,40.2822637488822],[-111.748360566088,40.2823753212187],[-111.748093683803,40.2826024585418],[-111.747905494836,40.2829465665861],[-111.748236046114,40.2830526301326],[-111.74840482159,40.2832309124838],[-111.748408320528,40.2833562081209],[-111.748345451933,40.2835329258543],[-111.748165960454,40.2837165233546],[-111.74812280449,40.2837607678688],[-111.747912370541,40.2839120414835],[-111.747214676009,40.2841594386645],[-111.74703688594,40.2843376180465],[-111.746340733816,40.2844692312302],[-111.74645338884,40.284775448688],[-111.746765081786,40.285497599837],[-111.746817101428,40.2857133951866],[-111.747862040631,40.2855255599591],[-111.747862858996,40.2855358252038],[-111.747863303662,40.2855441114067],[-111.747865488365,40.2855929267976],[-111.747866111796,40.2856174283608],[-111.747866159406,40.2856324732961],[-111.747866127067,40.2856402215564],[-111.747867689237,40.2856751671793],[-111.747869473291,40.2856983091536],[-111.747870779442,40.2857101031904],[-111.747871044445,40.2857128038059],[-111.747872215848,40.2857229765118],[-111.747873864257,40.2857444985124],[-111.747875403071,40.2857773718526],[-111.747874117581,40.2858101739098],[-111.747872591344,40.2858318055243],[-111.74787118548,40.28584298623],[-111.747865897098,40.2858755436175],[-111.747863892957,40.285885827311],[-111.747858490489,40.2859079351567],[-111.747849544167,40.285939524927],[-111.747837544471,40.2859714950012],[-111.747829411125,40.2859913681903],[-111.747824123641,40.2860026639931],[-111.74780858099,40.2860333957758],[-111.747803853157,40.286042075256],[-111.74779091023,40.2860632401356],[-111.747772285459,40.2860918297755],[-111.747750371956,40.2861209813143],[-111.747743063263,40.2861303076661],[-111.747426714349,40.2859372121772],[-111.747249567473,40.2861100720166],[-111.747017928793,40.2862382376519],[-111.746709969245,40.2863583369089],[-111.746379744055,40.2865399312783],[-111.746164506815,40.2868118665689],[-111.746110053637,40.2871556496211],[-111.746152969752,40.2874530378774],[-111.746232516468,40.2877543341239],[-111.74613131137,40.2878905756145],[-111.746271471012,40.2881727415354],[-111.746072153715,40.2882345690296],[-111.746143224827,40.2887279062508],[-111.745725185725,40.2890774567099],[-111.74588816527,40.2893270427801],[-111.745884207293,40.2895556327139],[-111.745772219717,40.2897280701114],[-111.74557672565,40.2898492430735],[-111.745497158272,40.2898673239592],[-111.745501512406,40.2899102700689],[-111.745466002003,40.2899120303963],[-111.745442247852,40.289912993814],[-111.74536791855,40.2899152749077],[-111.745342864537,40.2899157065956],[-111.745293452705,40.2899157545609],[-111.745219324626,40.2899149706705],[-111.745144820153,40.2899119372065],[-111.745096674047,40.2899094539731],[-111.745070654344,40.2899076395134],[-111.74499670503,40.2899016294577],[-111.744974092638,40.2898995224092],[-111.74492297221,40.2898939056685],[-111.744851227362,40.2898850882687],[-111.744776512683,40.2898736766276],[-111.744731607698,40.2898663077788],[-111.744702844541,40.2898611775412],[-111.744021688892,40.2897351066432],[-111.743990215518,40.2897295426508],[-111.743961337377,40.2897245933011],[-111.743914079704,40.289717239511],[-111.743836425738,40.2897059367917],[-111.743761032831,40.2896970515304],[-111.743707794176,40.2896914477922],[-111.743684124466,40.2896893475893],[-111.74360688103,40.2896833573856],[-111.743579802214,40.289681549772],[-111.743529421998,40.2896790802346],[-111.743451505724,40.2896760673167],[-111.7433742021,40.2896753026097],[-111.743333611724,40.2896751134886],[-111.743322788821,40.2896751826959],[-111.743300773809,40.2886751201522],[-111.743216211798,40.288645301614],[-111.742588229227,40.2886466316488],[-111.74258268213,40.2883117937024],[-111.742331887774,40.2883142139528],[-111.742337412413,40.2886471599625],[-111.741771545649,40.2886483563771],[-111.741498727298,40.2885518146966],[-111.741257369744,40.2884166914704],[-111.741072783021,40.2882443562534],[-111.740920533852,40.2880274876785],[-111.740888015737,40.2879260723767],[-111.740251337474,40.2880355549852],[-111.73988918526,40.2880535479604],[-111.739699016406,40.2881997220335],[-111.739447036274,40.2883092638142],[-111.739181935349,40.2883051016958],[-111.738967547017,40.2882044864811],[-111.738386908356,40.288210085546],[-111.738379769445,40.2877811119579],[-111.73836492748,40.2868928960021],[-111.738364529526,40.2868887543539],[-111.73836365816,40.2868843454581],[-111.738362313382,40.2868796693147],[-111.738360622753,40.2868757161093],[-111.738357982604,40.2868708679676],[-111.738355592187,40.2868674595353],[-111.73835177794,40.2868628889192],[-111.738348805415,40.2868600252601],[-111.738343701188,40.2868558233079],[-111.738340382811,40.2868535921342],[-111.738334108977,40.2868500288346],[-111.738330680108,40.2868484287759],[-111.738323356143,40.2868456829793],[-111.738319814984,40.286844624268],[-111.738311795724,40.2868427836865],[-111.738308496212,40.286842264267],[-111.738298252723,40.2868415187149],[-111.738296103054,40.286654770691],[-111.738463976621,40.2866544205272],[-111.738451259172,40.2860696219424],[-111.738456870049,40.2860663429834],[-111.738434332217,40.2860168461023],[-111.738448397139,40.2846391543199],[-111.738446538525,40.2829439878416],[-111.738446498999,40.282940384589],[-111.732688937628,40.2827595946757],[-111.732610539857,40.2827547757063],[-111.732512867832,40.2827517001181],[-111.733361698521,40.2839895979729],[-111.733684439846,40.2846913535515],[-111.733686643414,40.2846884569074],[-111.733753487054,40.2846907354363],[-111.734279461433,40.2846913631453],[-111.734308600085,40.2841444975635],[-111.735937403799,40.284153248555],[-111.73594426064,40.286152173536],[-111.733833686846,40.2861564803763],[-111.733887178826,40.2897643381518],[-111.733769423167,40.2897652652551],[-111.733770047496,40.2898339112845],[-111.74012759095,40.2897842273564],[-111.740153287259,40.2917083435174],[-111.741204063715,40.291700084793],[-111.74297603463,40.2930551482467],[-111.743335436202,40.2930522992389],[-111.743337044187,40.2933815753595],[-111.74338233904,40.2933813746007],[-111.743394770825,40.2940970774207],[-111.743440063882,40.2940966964626],[-111.743462048352,40.2949324305067],[-111.736922614917,40.2949836378884],[-111.736897070424,40.2949500160264],[-111.736714011735,40.2949514521381],[-111.735559314574,40.2934426368503],[-111.733974215696,40.2913716631512],[-111.734032726563,40.3039003199905],[-111.733837053732,40.3042390459043],[-111.733838133507,40.3044367010032],[-111.737976645969,40.3262879285646],[-111.737814332974,40.3262889640577],[-111.734323013554,40.3263121715641],[-111.724787840581,40.3263752824909],[-111.720574844306,40.326408425754],[-111.722339640378,40.3295558480245],[-111.722414059511,40.3298323716915],[-111.720102441858,40.3298433465198],[-111.720181959829,40.3336914786153],[-111.715412970174,40.3337179198211],[-111.705814671687,40.3337679672371],[-111.696270379017,40.3338168032515],[-111.691489919673,40.3338174613189],[-111.686709810671,40.3338179201172],[-111.680243285403,40.3338182008743],[-111.680157227697,40.3338181666357],[-111.677166225873,40.3338224718069],[-111.675853813294,40.3338213186483],[-111.674514559953,40.3338202168477],[-111.67451270583,40.3331611163612],[-111.672397431153,40.3313337562756],[-111.672355342387,40.33135120837],[-111.672234865731,40.3265530745567],[-111.672234337521,40.3265355095915],[-111.66755291025,40.3265238808807],[-111.667514845038,40.3251691175691],[-111.665178357527,40.3251753696677],[-111.665155601404,40.3229289668289],[-111.662817712521,40.3229044575639],[-111.658187511679,40.3228936870726],[-111.653393926152,40.3230529375761],[-111.653461547733,40.3266354239672],[-111.648702882416,40.3267701386064],[-111.643970321242,40.3269039715829],[-111.644136325415,40.3303987057015],[-111.639470081469,40.3304649574437],[-111.634686671158,40.3304656258159],[-111.634574140999,40.3277393387779],[-111.635399337013,40.3287199650396],[-111.63541193319,40.3287325986954],[-111.635424881506,40.3287451405822],[-111.635438415524,40.3287573188247],[-111.635451831863,40.3287694977499],[-111.635465833005,40.3287813130309],[-111.635480188083,40.3287931262553],[-111.63549453867,40.3288045792601],[-111.635509359974,40.3288159391268],[-111.635524178583,40.3288270291709],[-111.63553946701,40.3288380267618],[-111.635554753642,40.3288487538456],[-111.635570389718,40.3288592083677],[-111.635586142574,40.3288694827795],[-111.635602247571,40.3288796647386],[-111.635618939167,40.3288895727667],[-111.635635508592,40.3288991219459],[-111.635652078018,40.328908580727],[-111.635669233145,40.3289177655775],[-111.635686740411,40.3289268586605],[-111.635703773368,40.3289355942645],[-111.63572174686,40.3289441442804],[-111.635739246041,40.3289523368176],[-111.63575756808,40.3289604341635],[-111.635775534386,40.3289682637427],[-111.635793968714,40.3289758200767],[-111.635812282667,40.328983016878],[-111.635831185018,40.3289902102544],[-111.635850081978,40.3289968633052],[-111.635868861259,40.32900351704],[-111.63588822714,40.3290098975301],[-111.63590747085,40.3290158274066],[-111.635926713661,40.3290216682556],[-111.635946541276,40.3290271447787],[-111.635966249415,40.3290324418781],[-111.63598595486,40.3290373787605],[-111.636005658507,40.3290421355345],[-111.636025947856,40.3290466183793],[-111.636046116831,40.3290508320888],[-111.636066283111,40.3290547752934],[-111.636086446695,40.3290583582814],[-111.636107079201,40.3290617584218],[-111.636127237396,40.3290648004003],[-111.63614786541,40.3290677499277],[-111.636168488932,40.329070249527],[-111.636189110658,40.3290724786217],[-111.636209730587,40.3290745276083],[-111.636230466398,40.329076395117],[-111.636251079141,40.329077723671],[-111.636272161702,40.3290788686928],[-111.63629277175,40.3290799267423],[-111.636313847125,40.3290803513317],[-111.636334452681,40.329080868372],[-111.636355523564,40.3290808423488],[-111.636376121933,40.3290806389568],[-111.636397188325,40.3290800726093],[-111.636417900781,40.3290794186046],[-111.636438961783,40.329078311248],[-111.636459549372,40.3290769368109],[-111.636480135165,40.3290753822658],[-111.636500835044,40.3290734661347],[-111.636521416346,40.329071371265],[-111.636541993156,40.3290689154943],[-111.636581965491,40.3290633800799],[-111.637610640696,40.3289074411809],[-111.637721850331,40.3288915121871],[-111.637820847371,40.3288787142033],[-111.637919974666,40.328867266005],[-111.638019468473,40.3288571675925],[-111.638119444676,40.3288483278851],[-111.638219433455,40.3288408393343],[-111.638319434811,40.3288347019408],[-111.638419801781,40.3288299136504],[-111.638520181328,40.3288263861209],[-111.638620692028,40.3288243898583],[-111.638721096728,40.32882356533],[-111.638821514902,40.3288241823566],[-111.638921944754,40.3288260601446],[-111.639022035941,40.3288293808571],[-111.639122372368,40.3288338719339],[-111.639222370131,40.3288398059348],[-111.639217158106,40.3288863219091],[-111.63949467285,40.3289046984632],[-111.639519407063,40.3289061831603],[-111.63954449072,40.328907215874],[-111.639569571683,40.3289079780825],[-111.63959476763,40.3289084697857],[-111.639619842305,40.3289086012717],[-111.639644444465,40.3289084649919],[-111.639669629633,40.328907875359],[-111.639694697121,40.3289071960141],[-111.639719759219,40.3289059763437],[-111.639744464686,40.3289043985105],[-111.639769520496,40.3289024577209],[-111.639794692188,40.3289003368227],[-111.639819387774,40.328897767365],[-111.639843964782,40.3288950191683],[-111.639868654079,40.3288917292761],[-111.639893342478,40.3288882592751],[-111.639917908706,40.3288844297415],[-111.639942119201,40.3288802413601],[-111.639966795922,40.32887560031],[-111.639991001027,40.3288709619988],[-111.640015202539,40.3288657826766],[-111.640038928843,40.3288602458759],[-111.640062769232,40.3288543481724],[-111.640086491942,40.3288483607566],[-111.64011021016,40.3288420131228],[-111.640133571748,40.3288352176134],[-111.640156813859,40.3288282419945],[-111.640180169158,40.3288208150757],[-111.640202932467,40.3288130313627],[-111.640225813456,40.3288051565671],[-111.640248218338,40.3287968345801],[-111.640270621422,40.3287882414017],[-111.640293021812,40.328779468798],[-111.640314946993,40.3287701579209],[-111.640336988956,40.3287607566457],[-111.640358439826,40.3287510882874],[-111.640379533167,40.3287409713673],[-111.640400976852,40.3287305818852],[-111.640421595882,40.3287201074833],[-111.640442210421,40.3287090920676],[-111.640462823164,40.328697986938],[-111.640482963393,40.328686613355],[-111.640502628413,40.3286748829757],[-111.640522409315,40.3286628814035],[-111.640541599126,40.3286507024591],[-111.640560434103,40.3286382557456],[-111.640579266384,40.3286255385233],[-111.640597625254,40.3286125535316],[-111.640615981428,40.3285992987157],[-111.640633393473,40.3285858685816],[-111.640651274439,40.3285721658838],[-111.640668328955,40.3285581967855],[-111.640685382572,40.328544137972],[-111.6407018442,40.3285297223605],[-111.640717950993,40.3285151286909],[-111.640734056888,40.3285003542236],[-111.640749336332,40.3284854044372],[-111.640764494504,40.3284700951129],[-111.640779768559,40.3284546043057],[-111.640794100281,40.3284390292612],[-111.640808429308,40.3284231837058],[-111.640821816003,40.3284072539128],[-111.640835671618,40.3283910501846],[-111.640848584001,40.3283747622185],[-111.640861139754,40.3283581160831],[-111.640873695507,40.3283414692586],[-111.640885308029,40.3283246477986],[-111.640896918754,40.3283076462242],[-111.640908056965,40.3282904672747],[-111.640918840342,40.3282731095802],[-111.640929151204,40.3282555745103],[-111.640938873671,40.3282380428599],[-111.64094871202,40.3282204208075],[-111.640957724817,40.3282025323513],[-111.640966618138,40.3281844644647],[-111.640974688603,40.3281664917648],[-111.640982636896,40.328148158839],[-111.6414727128,40.3270318153473],[-111.641532498377,40.3268937331685],[-111.641590978702,40.3267669191497],[-111.641652641758,40.3266407185148],[-111.64171690364,40.3265154045218],[-111.641783881129,40.3263909764906],[-111.641854044943,40.3262675214022],[-111.641926806684,40.3261448625701],[-111.642002403509,40.3260233595464],[-111.64263613889,40.3250277469781],[-111.642684304759,40.3249556760927],[-111.642709391112,40.3249199501796],[-111.642735774632,40.3248843975183],[-111.64276263336,40.3248493831418],[-111.642790317641,40.3248145433877],[-111.642818947847,40.3247801494628],[-111.642848407199,40.3247462910855],[-111.642878456743,40.3247126100713],[-111.642909335433,40.3246794646058],[-111.642941041471,40.3246466752547],[-111.642973340397,40.3246144228233],[-111.643006348992,40.3245824367899],[-111.643040422091,40.3245509856229],[-111.643074852719,40.3245200727474],[-111.643110228375,40.3244895153044],[-111.64314607924,40.3244594050667],[-111.643182759249,40.3244298317527],[-111.643219915366,40.3244007953632],[-111.643257899729,40.3243722952139],[-111.643296477879,40.3243442422724],[-111.643335885174,40.3243168152905],[-111.643375648202,40.3242896567666],[-111.643416005914,40.3242631255731],[-111.643457195467,40.3242374004621],[-111.643498857533,40.324211942441],[-111.643540880722,40.3241872035252],[-111.643583495901,40.3241629125062],[-111.643626822545,40.3241391570483],[-111.643670743874,40.3241161193278],[-111.643715142209,40.3240936199091],[-111.643759898971,40.3240717485109],[-111.643805602558,40.324050412676],[-111.643851312433,40.3240297973207],[-111.644695612019,40.3236562584014],[-111.64469525988,40.3234831035511],[-111.648563462985,40.3217719843502],[-111.648548339847,40.3212001644931],[-111.648560954889,40.3211900936994],[-111.64850559621,40.3196730728403],[-111.648399983977,40.3158431277749],[-111.653118899741,40.3157545088034],[-111.654052983245,40.3157367985574],[-111.654161965957,40.3156389729265],[-111.654331033385,40.3154744095113],[-111.654479163779,40.3153234777943],[-111.65463471785,40.3151368276638],[-111.654766947165,40.3149603097037],[-111.654909444223,40.3147503087327],[-111.655209955839,40.3141824680043],[-111.655477870287,40.3137129216439],[-111.655716584099,40.313071914566],[-111.655990612482,40.3123227755598],[-111.656167682102,40.3117217577959],[-111.656199617211,40.3115801316255],[-111.656209165404,40.3114236776334],[-111.656182744155,40.3112473369727],[-111.656150112852,40.3110858960642],[-111.65594049637,40.3101960731905],[-111.655698235111,40.3093130107222],[-111.655614440262,40.3087040116243],[-111.655602382176,40.3084549752759],[-111.655720786418,40.3084567364902],[-111.656591516237,40.3084452211206],[-111.657045415187,40.3084392318946],[-111.656970190265,40.3085738951602],[-111.656937282281,40.3087396728205],[-111.657188200604,40.3092350209035],[-111.657221877546,40.3093828507512],[-111.656991454286,40.309506143541],[-111.656991544843,40.3095062493037],[-111.657013662268,40.3095337956256],[-111.657033654245,40.30956227095],[-111.657051453896,40.3095915800174],[-111.657067001677,40.3096216247794],[-111.657080245574,40.3096523047265],[-111.657091141284,40.3096835172245],[-111.657099652356,40.3097151578578],[-111.657105750319,40.3097471207785],[-111.657105769397,40.3097472462483],[-111.657105790948,40.3097473779353],[-111.657113476176,40.3098149887488],[-111.657114475621,40.3098828487272],[-111.657108783627,40.3099505739708],[-111.657096432395,40.3100177813433],[-111.657096401766,40.3100179119796],[-111.657322046887,40.3100504474451],[-111.657320702109,40.310130249554],[-111.657242889141,40.3103040640668],[-111.657822688774,40.3103186472881],[-111.657809629965,40.3097379676821],[-111.657855375773,40.3097377046353],[-111.657855433265,40.3097376923049],[-111.65785549974,40.3097397829794],[-111.65817410073,40.3101188810627],[-111.658198461244,40.3101188324267],[-111.659309637725,40.3101191721937],[-111.659324335061,40.3101298995119],[-111.659288446467,40.3101304639633],[-111.660269322316,40.3116991412219],[-111.662267408172,40.3085424207799],[-111.662373554902,40.3084699192227],[-111.662487178311,40.3083918797931],[-111.663244529062,40.3078097786093],[-111.663259371027,40.3077871703157],[-111.663415609615,40.3075665398816],[-111.663516554202,40.3073716320534],[-111.663527658277,40.3073519281915],[-111.663701536183,40.306793529606],[-111.663905037833,40.3064005508376],[-111.664265813827,40.3058215289523],[-111.664662949133,40.3054109500904],[-111.664918393169,40.3046878429981],[-111.665115880598,40.3044268818709],[-111.665396433444,40.3036491236867],[-111.665405644769,40.3035445633302],[-111.665444570567,40.3030504532545],[-111.665453355192,40.3029263457586],[-111.665564185738,40.3026010156842],[-111.665909090298,40.3022904649347],[-111.666192580636,40.3018735069048],[-111.666669693849,40.301366872576],[-111.666672855021,40.3010181064158],[-111.666752156498,40.3006463790505],[-111.66666933093,40.300300451707],[-111.66646594157,40.2999709845834],[-111.666327786069,40.2994065404367],[-111.666499698462,40.2991434720159],[-111.666520217779,40.2989086627236],[-111.666692191257,40.2984963105173],[-111.666721693728,40.2977509863916],[-111.666819514873,40.29763573488],[-111.666997210619,40.2974229031564],[-111.666981276302,40.2966759488648],[-111.667268439851,40.2966473554803],[-111.66790238993,40.2963838713908],[-111.667999790663,40.2961785285835],[-111.668036228128,40.2960911088684],[-111.668114806461,40.2961130879923],[-111.668279864707,40.2957768112048],[-111.668062026844,40.295783654577],[-111.668097792369,40.2955683079579],[-111.6682281469,40.2952088068443],[-111.668229528509,40.2952057359337],[-111.668230443892,40.2952031179173],[-111.668231713212,40.295200587602],[-111.668232627697,40.2951978798287],[-111.668234013797,40.2951952590714],[-111.668234812399,40.2951927321815],[-111.6682361985,40.295190111424],[-111.6682375846,40.2951874906663],[-111.66823885392,40.2951849603504],[-111.668240241817,40.295182519791],[-111.668241511136,40.2951799901601],[-111.668242777761,40.2951771898886],[-111.66824463907,40.2951750172287],[-111.668245905695,40.2951722169571],[-111.668247767004,40.2951700436118],[-111.668249035425,40.2951674235386],[-111.66825089404,40.2951650706798],[-111.668252752654,40.2951626273791],[-111.668254494487,40.2951602752053],[-111.668256235422,40.2951578325896],[-111.668258094037,40.2951553892886],[-111.668259837667,40.2951532166279],[-111.668261695383,40.2951507740119],[-111.668263438114,40.2951485115945],[-111.668265771039,40.2951464259497],[-111.668267393396,40.2951438935767],[-111.668269253807,40.2951416304739],[-111.668271467256,40.2951394557573],[-111.668273798384,40.2951371899136],[-111.668276015426,40.2951352851523],[-111.668277755463,40.2951327527789],[-111.668279968014,40.2951304876202],[-111.668282183259,40.29512840266],[-111.668284517082,40.2951264067714],[-111.668287082671,40.2951241402421],[-111.668289415596,40.2951220545966],[-111.668291631739,40.2951200593929],[-111.668293963766,40.2951179737473],[-111.668296533846,40.29511606693],[-111.6685742031,40.294888871622],[-111.668783593206,40.2947176567179],[-111.668786162388,40.2947157498892],[-111.668788495313,40.2947136642311],[-111.668790828238,40.2947116690154],[-111.668793396521,40.2947095819868],[-111.668795611767,40.2947074970137],[-111.668797943793,40.2947054113553],[-111.668800512975,40.2947034147689],[-111.668802845001,40.2947013291105],[-111.66880505845,40.2946990639373],[-111.668807274594,40.2946970687211],[-111.668809488941,40.2946949837476],[-111.668811820069,40.2946927185742],[-111.668814035315,40.2946906336005],[-111.668816248764,40.2946884581843],[-111.668818464009,40.2946863732105],[-111.668820677458,40.2946841080368],[-111.668823011281,40.2946822025775],[-111.668824751318,40.2946796701872],[-111.668826964767,40.2946774050132],[-111.66882929859,40.2946754995538],[-111.668830918252,40.2946726972059],[-111.668833135294,40.2946707924316],[-111.66883616082,40.294667441947],[-111.668839067768,40.2946639112623],[-111.668841163538,40.294661646773],[-111.668844188166,40.2946582058454],[-111.668847096012,40.2946547656028],[-111.668848836947,40.2946523229688],[-111.668850580577,40.2946501509772],[-111.668852438293,40.2946477076579],[-111.668854771218,40.2946456219976],[-111.668856391779,40.2946429100911],[-111.668858251291,40.2946405565289],[-111.668859993125,40.2946382940943],[-111.668861261546,40.2946356740004],[-111.668863122855,40.2946335013231],[-111.668864981469,40.2946310580032],[-111.668866721506,40.2946285256109],[-111.668868462441,40.2946260829759],[-111.668869730862,40.2946234628815],[-111.668871591273,40.2946212895187],[-111.668873569364,40.2946190257131],[-111.668874719207,40.2946163165462],[-111.668876697297,40.2946140527405],[-111.668877847141,40.2946113435734],[-111.668879115562,40.2946087234785],[-111.668880975075,40.2946063706002],[-111.668882362972,40.29460393002],[-111.668883631393,40.2946013996822],[-111.668885488211,40.294598776161],[-111.668886758429,40.2945963362656],[-111.668888145427,40.2945938059276],[-111.668889531528,40.2945911851468],[-111.668890800847,40.2945886554937],[-111.668892188744,40.2945862149128],[-111.668893458064,40.2945836852595],[-111.668894844164,40.2945810644783],[-111.668895760446,40.2945785361952],[-111.668897028867,40.294575916099],[-111.668898415866,40.2945733857601],[-111.668899331249,40.2945707677193],[-111.668900598772,40.2945680578652],[-111.668901984873,40.2945654370834],[-111.668902901154,40.2945629087998],[-111.668904169575,40.2945602893881],[-111.668905085857,40.2945577611042],[-111.668905999444,40.2945549628624],[-111.668907268763,40.294552433208],[-111.668908184146,40.2945498151663],[-111.668909098631,40.294547107367],[-111.668910014015,40.294544489325],[-111.66891081082,40.2945417815255],[-111.668911726204,40.2945391634834],[-111.668912640689,40.2945364556836],[-111.66891355697,40.294533928084],[-111.668914471455,40.2945311298413],[-111.668915270057,40.2945286022415],[-111.668916183644,40.2945258039986],[-111.668917099926,40.2945232763985],[-111.668917542795,40.2945204808961],[-111.668918459077,40.2945179532959],[-111.668963716201,40.2943467860993],[-111.66900299324,40.2937242903729],[-111.669002963595,40.2937213173758],[-111.669003407363,40.293718612284],[-111.669003380414,40.2937159099327],[-111.669003824181,40.2937131143969],[-111.669003797232,40.2937104113603],[-111.669004240101,40.2937076165094],[-111.669004683869,40.2937049107319],[-111.669005129434,40.293702295398],[-111.669005573201,40.2936995903055],[-111.669006016071,40.2936967947689],[-111.669006459839,40.2936940896761],[-111.669006902708,40.2936912941394],[-111.669007347374,40.2936885890464],[-111.669008013026,40.2936845307215],[-111.669008678677,40.2936804730816],[-111.669009593162,40.2936777645622],[-111.66901003693,40.2936750594686],[-111.669010480698,40.2936722639311],[-111.669011396979,40.2936697362992],[-111.669011839849,40.2936669407614],[-111.669012636654,40.2936642329267],[-111.669013552038,40.2936616155358],[-111.669013995805,40.2936589097564],[-111.669014909392,40.2936561114774],[-111.669015825674,40.2936535838449],[-111.669016621581,40.2936507862509],[-111.669017537863,40.2936482586182],[-111.669018451449,40.2936454603388],[-111.669019368629,40.2936429327059],[-111.669020283114,40.293640224185],[-111.669021080818,40.2936376067931],[-111.669021995303,40.2936348989573],[-111.669022910686,40.29363228088],[-111.669023826968,40.2936297532465],[-111.669025093592,40.2936269529108],[-111.669026009874,40.2936244252772],[-111.669027395975,40.2936218044588],[-111.669028312256,40.293619276825],[-111.669029580677,40.2936166566915],[-111.669030495162,40.2936139481697],[-111.669031763583,40.2936113287212],[-111.669033150582,40.2936087976611],[-111.669034065966,40.2936061795828],[-111.669035335285,40.2936036498928],[-111.669036720487,40.2936010290736],[-111.669038107486,40.2935984986983],[-111.669039377704,40.2935960587669],[-111.669040763804,40.2935934379474],[-111.669042033124,40.2935909082569],[-111.669043419224,40.2935882874372],[-111.66904480802,40.2935859372642],[-111.669046547158,40.2935833143887],[-111.669047934157,40.2935807840128],[-111.669049204375,40.2935783440806],[-111.669051180668,40.2935759897961],[-111.66905233141,40.2935733710314],[-111.669053598933,40.2935706604522],[-111.669055459344,40.2935683972967],[-111.669057201177,40.2935660450674],[-111.669058587278,40.2935634242467],[-111.669060327315,40.2935609815733],[-111.669062306303,40.2935588081762],[-111.669063457045,40.2935561887256],[-111.669065316558,40.2935538358108],[-111.669067057493,40.2935513931369],[-111.669068916107,40.2935490402219],[-111.669070657042,40.2935465975479],[-111.669072397977,40.2935441548738],[-111.66907425749,40.2935418019586],[-111.669075999323,40.2935395394872],[-111.669077738461,40.29353691661],[-111.669080070488,40.2935347404714],[-111.669081812321,40.293532478685],[-111.669083554155,40.2935301257693],[-111.669085414565,40.2935278626124],[-111.669087748389,40.2935258673617],[-111.669089366254,40.2935229752072],[-111.669091582398,40.2935209799564],[-111.669093443707,40.2935188072432],[-111.669095776632,40.2935168119922],[-111.669097516669,40.293514278873],[-111.669099731016,40.2935121041041],[-111.669101943567,40.293509838891],[-111.66910427739,40.2935078436398],[-111.669105897951,40.2935051310024],[-111.669108230875,40.293503135751],[-111.669110446121,40.2935010507406],[-111.66911265957,40.2934988759713],[-111.669114874815,40.2934967909608],[-111.669117205943,40.293494525062],[-111.669119420291,40.2934924400514],[-111.669121634638,40.2934902652818],[-111.669123848985,40.293488180271],[-111.669126534948,40.2934860925194],[-111.669128751091,40.2934840972675],[-111.669130965439,40.2934820129417],[-111.669133298363,40.2934799272455],[-111.669135865748,40.2934778401789],[-111.669138199572,40.2934758442415],[-111.669140884636,40.2934737571748],[-111.669143101678,40.2934718523665],[-111.669145786742,40.2934697646145],[-111.669148003785,40.2934678598062],[-111.669150689747,40.293465861813],[-111.669153024469,40.2934639570045],[-111.66915559365,40.2934620501405],[-111.66915828141,40.2934601425913],[-111.669422252254,40.2932645561552],[-111.669425286763,40.2932621059339],[-111.669428906974,40.2932593823237],[-111.669431712413,40.2932574740835],[-111.669434283391,40.2932557474173],[-111.669436970252,40.2932538398623],[-111.669439659808,40.293252113196],[-111.669442347567,40.2932502954],[-111.669445037123,40.2932485680485],[-111.669448196498,40.2932468379561],[-111.669450885156,40.2932451106045],[-111.669453574712,40.2932433832528],[-111.669456616407,40.2932416538455],[-111.669459306861,40.2932401066974],[-111.669462114097,40.2932383786604],[-111.669465157589,40.2932368301419],[-111.669467846247,40.29323510279],[-111.669471008316,40.293233552901],[-111.669473698771,40.2932320057528],[-111.669476742263,40.2932304565489],[-111.669479904333,40.2932289066598],[-111.669482712466,40.2932273588263],[-111.669485757755,40.2932259898261],[-111.669488918926,40.2932244399369],[-111.669493135618,40.2932225234735],[-111.669497233733,40.293220517936],[-111.669500981504,40.293218784417],[-111.669504145371,40.2932174147314],[-111.669510239541,40.2932150371381],[-111.669514926951,40.2932131179337],[-111.66951844116,40.2932115659887],[-111.669521605925,40.2932103765067],[-111.669524769791,40.2932090965802],[-111.669528288492,40.2932079050426],[-111.669531805396,40.2932066237458],[-111.669535323199,40.2932054322082],[-111.669539778843,40.2932038747815],[-111.669544468049,40.2932022255399],[-111.669548925489,40.2932008483169],[-111.669554203091,40.2931991065752],[-111.669558544649,40.2931979102412],[-111.669562768528,40.2931967145923],[-111.669567344546,40.2931955168879],[-111.669571333066,40.2931943226093],[-111.669576145341,40.2931931235345],[-111.669579783517,40.2931922012746],[-111.669586004351,40.2931907240144],[-111.669590113245,40.2931897990137],[-111.669594574279,40.2931887821981],[-111.66973993337,40.2931586607436],[-111.669715724671,40.2930899701281],[-111.669710520731,40.2930753153538],[-111.669544733052,40.2931098795947],[-111.669372438875,40.2932003385389],[-111.669315182954,40.2931330998755],[-111.669584675742,40.2924124226188],[-111.669299230671,40.2924224531665],[-111.669396694286,40.2914851979503],[-111.669730808283,40.2908637886438],[-111.6697776689,40.2904144961261],[-111.669765267657,40.2901951026414],[-111.669444776612,40.2902056967657],[-111.669327413516,40.2899007818417],[-111.669324689825,40.2898632290882],[-111.669319951211,40.2898002820638],[-111.669313203067,40.2897124806519],[-111.667421943068,40.2897306136509],[-111.667424215806,40.2896865450347],[-111.667425425837,40.2896660870677],[-111.667513652974,40.2894259323006],[-111.667626615223,40.2891171635684],[-111.667578128655,40.2889720343972],[-111.667534358243,40.288971475936],[-111.667559812905,40.2889160121527],[-111.667477389783,40.2886697246396],[-111.66739529724,40.2886722702746],[-111.66728050692,40.288675634761],[-111.667252087818,40.287855416657],[-111.667184300947,40.2876736401213],[-111.667238417256,40.2876735983216],[-111.667353588462,40.2876732043076],[-111.668855666838,40.2864781920022],[-111.668855587787,40.2864701745332],[-111.668856383694,40.2858467291209],[-111.668856347761,40.285831233332],[-111.668848809998,40.283693830932],[-111.668848743522,40.2836871645089],[-111.668848020379,40.2828618304837],[-111.66860828608,40.2828627652197],[-111.668566703964,40.2825943494692],[-111.668566054482,40.2825881366017],[-111.668566019448,40.2825845333302],[-111.668582832317,40.2819508150755],[-111.668582773926,40.2819448694157],[-111.668594825724,40.2815442475208],[-111.668594783503,40.2815399232541],[-111.668600953133,40.2812825829711],[-111.668602738085,40.2812727529356],[-111.668785432956,40.2803186967756],[-111.668794354125,40.2802690044826],[-111.668663675302,40.280007409697],[-111.668580859616,40.2798399558269],[-111.667504039204,40.2788929027162],[-111.667499430847,40.2788788746824],[-111.66758916356,40.2788769153218],[-111.668674443408,40.2788437110376],[-111.668746156815,40.2774665899378],[-111.668782967081,40.2767973492214],[-111.668754149126,40.2763795759457],[-111.668713923466,40.275818620627],[-111.668739822794,40.2752118767222],[-111.667977673243,40.2752170896304],[-111.667800330534,40.2750172065933],[-111.667601446225,40.2734042529219],[-111.667048964359,40.2734023941544],[-111.66659943212,40.2729365019229],[-111.666549779539,40.2723477615269],[-111.66645481324,40.2712286354395],[-111.666455452841,40.2708144755245],[-111.666560722816,40.2698324882008],[-111.666693154251,40.2698322654385],[-111.666635621649,40.2694829465269],[-111.666572853665,40.2690794220225],[-111.666538211035,40.268845290356],[-111.66652800797,40.2687763378729],[-111.666523579275,40.2687445604994],[-111.666758680063,40.2687678919652],[-111.667096036978,40.2687963086501],[-111.667737202326,40.2688502700225],[-111.668383319187,40.2689052800626],[-111.668637616074,40.2689191271552],[-111.668640593091,40.268910910885],[-111.668637958333,40.2687627237984],[-111.668512229227,40.2684758741587],[-111.668516788177,40.2683058425871],[-111.668742794421,40.2678595675684],[-111.668651696268,40.2675899962295],[-111.668439223144,40.2673082420352],[-111.669756486625,40.2672731135003],[-111.669782978841,40.2672831580601],[-111.670115415684,40.2672800180214],[-111.670114199365,40.2672559601523],[-111.670134355763,40.2672552294642],[-111.670268367336,40.2671433895281],[-111.670279099508,40.2668132370788],[-111.670308591199,40.2659059852283],[-111.670398172996,40.2659067570588],[-111.670412443632,40.2654678233253],[-111.670933089205,40.2659113900978],[-111.671102699215,40.2660558874273],[-111.671233203765,40.266167067693],[-111.671453741065,40.2663549498489],[-111.671727402037,40.2663573057669],[-111.671887082969,40.2662097046369],[-111.671980019075,40.2659376775673],[-111.671984334581,40.265941271444],[-111.672303588647,40.2663281676409],[-111.672590436887,40.2668033617561],[-111.672754948059,40.2672282741941],[-111.6728469059,40.2675949581669],[-111.672890484971,40.267897957132],[-111.672912238574,40.267897560261],[-111.672889693555,40.2685895145857],[-111.672573160487,40.2704496986985],[-111.672583820794,40.2705759467591],[-111.672672664176,40.2708296724886],[-111.672723645365,40.270775680481],[-111.673046360639,40.2704293795325],[-111.673297245725,40.2699798881366],[-111.67335872822,40.269870157637],[-111.673533954497,40.2696548072784],[-111.673820908739,40.2694390758225],[-111.673900419523,40.2693209520701],[-111.674017465513,40.269038730083],[-111.674031949948,40.2688983715948],[-111.674019281906,40.2685226681858],[-111.674066736309,40.2682914840321],[-111.674130067537,40.2678706518571],[-111.674161697218,40.2678699266591],[-111.674169453272,40.267845556438],[-111.674221963394,40.267673533437],[-111.674414636751,40.2671789725833],[-111.67446005108,40.2670622178411],[-111.674495278514,40.2669856139043],[-111.674697382385,40.2665409985742],[-111.674731276719,40.2662710628],[-111.67472599732,40.2662250561784],[-111.674692035612,40.2659674087858],[-111.67475512699,40.2657834313244],[-111.674798910877,40.265751373561],[-111.674921487794,40.2656597550927],[-111.675111886616,40.2655171083612],[-111.675439234503,40.2652617669308],[-111.675668604937,40.2651001523967],[-111.675965023828,40.2649281457196],[-111.676200667199,40.2647471239374],[-111.67633242939,40.2645744569349],[-111.676478665236,40.264308188163],[-111.67654030314,40.2642150322663],[-111.676578646829,40.2641565176656],[-111.676629504949,40.2640791913687],[-111.676751677624,40.2638767590048],[-111.676814779781,40.2636592659314],[-111.676854779066,40.2633774919364],[-111.676862692325,40.2633218584047],[-111.676876914453,40.2630969033523],[-111.676998980229,40.2629429412805],[-111.677184398792,40.2627856350193],[-111.677325417223,40.2625865152136],[-111.677384496725,40.26244940836],[-111.677390553166,40.2624435171963],[-111.677446910772,40.2623164265592],[-111.677447809087,40.2622885822855],[-111.677459093724,40.2616396674154],[-111.677462612425,40.2614618929929],[-111.677462547746,40.2613964859709],[-111.677687890135,40.2612454320735],[-111.67772603889,40.2612736784849],[-111.677936097343,40.2614294794595],[-111.677980165996,40.2614616551219],[-111.678859727152,40.2609943219516],[-111.679159714151,40.2606525508522],[-111.679234633646,40.2605946316256],[-111.679524162459,40.260371573931],[-111.680293595551,40.2605232741653],[-111.680322132332,40.2606014867858],[-111.680572868298,40.2606031663],[-111.680627359205,40.2606035028883],[-111.680627007065,40.2606028735846],[-111.680626971082,40.2606027936676],[-111.68058778356,40.260521827364],[-111.680543798834,40.2604423077689],[-111.680552211826,40.2604541986557],[-111.680562800618,40.2604651181734],[-111.680575310365,40.2604747823601],[-111.680589488558,40.2604829961442],[-111.68060504901,40.2604895937307],[-111.680621677631,40.2604944419474],[-111.680639038773,40.2604974429331],[-111.680656781999,40.2604985361131],[-111.680656851794,40.2604985366024],[-111.681076107215,40.2605012183449],[-111.681379016434,40.2605156628721],[-111.684254574862,40.2605340052441],[-111.684253195948,40.2603190885719],[-111.684933865609,40.2604396300985],[-111.684933948923,40.2604396449001],[-111.684976113023,40.2604485318252],[-111.685017191668,40.2604600033463],[-111.685056913295,40.2604739836261],[-111.685095015312,40.2604903802419],[-111.685095088049,40.2604904145961],[-111.685276433651,40.2605761679337],[-111.685353917836,40.2606326510208],[-111.685357768913,40.2606326791269],[-111.685365645342,40.2606326283988],[-111.687716125012,40.2606485947424],[-111.687723769675,40.2606486393009],[-111.687733873925,40.2606245242321],[-111.687765457792,40.2605499195117],[-111.688019018959,40.2602384029556],[-111.688253103753,40.2600243916042],[-111.688433633684,40.2598405193175],[-111.688518977229,40.2597678469114],[-111.688780358231,40.2595438521181],[-111.689024361323,40.2593111311698],[-111.689258473964,40.2591120731185],[-111.689349233452,40.2590517107093],[-111.689493257647,40.258956074858],[-111.689727576002,40.2588470174929],[-111.68979328507,40.2588096881127],[-111.689903369117,40.2587417324503],[-111.689999865246,40.2586789929592],[-111.690157340814,40.2585764285496],[-111.690449921204,40.2584264802985],[-111.69059707423,40.2583959621955],[-111.69070601023,40.2584233309368],[-111.690743975729,40.2584331944576],[-111.691081883311,40.2586123540805],[-111.691183758552,40.2586854411055],[-111.691331953625,40.2587919471724],[-111.691354783409,40.2588051443923],[-111.691354954089,40.258717933419],[-111.691354869648,40.2586864913458],[-111.691355255025,40.2586781106751],[-111.694864034101,40.2586652027264],[-111.694943174779,40.2586650875564],[-111.694968339285,40.2586650265438],[-111.694945213056,40.2585194858071],[-111.694936990776,40.2584514249659],[-111.694933920335,40.2583812608243],[-111.694926580201,40.2572500079865],[-111.694925292016,40.25723902479],[-111.694926476894,40.2572283864234],[-111.694930016256,40.2572180949436],[-111.694935914595,40.2572084190864],[-111.694943821566,40.2571996330724],[-111.694953622186,40.2571920961303],[-111.694964966111,40.2571859919881],[-111.69497761978,40.2571815016316],[-111.694990996593,40.2571787182959],[-111.695004862988,40.2571777338452],[-111.695019218964,40.2571787285792],[-111.695911611656,40.2571772395631],[-111.695911647588,40.2571578693259],[-111.695909574277,40.2570702215896],[-111.696048798773,40.2570698349384],[-111.698876662049,40.2570593679332],[-111.698879388436,40.2570957487903],[-111.698884561834,40.2571528360112],[-111.698889030054,40.2571528092747],[-111.698974978166,40.2571516596058],[-111.699039168183,40.2571501904701],[-111.699064558166,40.2571492265855],[-111.6991541202,40.2571450817442],[-111.699189141919,40.2571430682809],[-111.699243547486,40.2571392257672],[-111.699332726838,40.2571321104324],[-111.69933860182,40.2571316243766],[-111.699421649271,40.2571229240465],[-111.699487189456,40.2571155002118],[-111.699510207887,40.2571125687944],[-111.699598511381,40.257100412597],[-111.699634910218,40.2570950570688],[-111.699686328886,40.2570866378102],[-111.69977389666,40.2570715138547],[-111.699781642833,40.2570701153291],[-111.699860739494,40.2570545012003],[-111.6999268016,40.2570407682227],[-111.699947215814,40.257036229868],[-111.70003296989,40.2570162515055],[-111.700070505994,40.2570071953588],[-111.700118237977,40.2569947436694],[-111.700202904192,40.2569719785227],[-111.7002122844,40.2569693089802],[-111.700286492429,40.2569472376046],[-111.700352018241,40.2569271111364],[-111.70036971595,40.2569214176167],[-111.70045186329,40.2568938028397],[-111.700489475751,40.2568807821199],[-111.7005331734,40.2568648409382],[-111.700613765755,40.2568347128966],[-111.70061383762,40.2568302979277]]]]},"properties":{"NAME":"Orem","COUNTYNBR":"25","FIPS":"57300","POPLASTCENSUS":98129}}]}