{"type":"FeatureCollection","crs":{"type":"name","properties":{"name":"EPSG:4326"}},"features":[{"type":"Feature","id":257,"geometry":{"type":"Polygon","coordinates":[[[-112.106299602783,40.5661970811972],[-112.104275520582,40.5679915130782],[-112.103057105917,40.5690600245532],[-112.100621882777,40.5708076200951],[-112.091891707198,40.5674377910265],[-112.091890694796,40.5672147730307],[-112.091848174839,40.5672146747652],[-112.091838632036,40.5661924244325],[-112.091118810202,40.5661960725955],[-112.088724280743,40.566182075004],[-112.086367662885,40.5661911940476],[-112.084839904369,40.5662877563379],[-112.083628896315,40.5664200739231],[-112.083538707257,40.5662118116935],[-112.083376104106,40.5661730501318],[-112.082960235333,40.5661607776684],[-112.081691356909,40.5661878939134],[-112.079197552832,40.5661749137936],[-112.079195789439,40.566030596201],[-112.079192392909,40.566008121657],[-112.07918877719,40.5645917222347],[-112.081697256146,40.56438997833],[-112.081691496148,40.5659944481718],[-112.085384194498,40.5659899176393],[-112.08624374119,40.5659267146654],[-112.087246356268,40.5659446689373],[-112.087786007497,40.5659980547184],[-112.092715933929,40.5660331989184],[-112.092708154518,40.5657869577928],[-112.09306974259,40.5657869277666],[-112.093067389004,40.5656422926966],[-112.093649784769,40.5656424312269],[-112.093649307763,40.565364425512],[-112.09364945329,40.5642862593959],[-112.0945400233,40.5642754408436],[-112.094552829683,40.5627593822115],[-112.094727899654,40.5627624907477],[-112.094728667713,40.5627899939506],[-112.095091489172,40.5627044760886],[-112.095870374337,40.5627048009326],[-112.095871035497,40.5622924661482],[-112.097240964509,40.5622944445696],[-112.098942493133,40.5622994680808],[-112.099341293017,40.5622966816393],[-112.099339354452,40.5625011657381],[-112.100011804528,40.5626760645153],[-112.100030818269,40.5627081142049],[-112.102972862808,40.5627135232667],[-112.103363834773,40.5631818715654],[-112.103857141916,40.5637823558117],[-112.104435571619,40.5636068689355],[-112.104648184881,40.5639879177096],[-112.105139710665,40.5638339396447],[-112.105215315574,40.5639561068017],[-112.105233104912,40.563989088081],[-112.105403821647,40.5643065411911],[-112.105652118686,40.5647181163132],[-112.105839421016,40.5650191694188],[-112.106299602783,40.5661970811972]]]},"properties":{"OBJECTID":257,"COUNTYNBR":"18","NAME":"Copperton","COUNTYSEAT":0,"SHORTDESC":"COPPERTON","UPDATED":1724112000000,"FIPS":"15720","ENTITYNBR":3900,"SALESTAXID":null,"IMSCOLOR":4,"MINNAME":"Copperton","POPLASTCENSUS":829,"POPLASTESTIMATE":840,"UGRCODE":"CMT","GNIS":null,"GlobalID":"c46646e7-0636-47fc-9494-ef216b0b3f30","Shape__Area":1407033.2578125,"Shape__Length":8080.1417643956274}}]}