{"type":"FeatureCollection","crs":{"type":"name","properties":{"name":"EPSG:4326"}},"features":[{"type":"Feature","geometry":{"type":"Polygon","coordinates":[[[-112.081691589573,40.5661960794196],[-112.081687364796,40.5661960371102],[-112.079745589834,40.5661770790806],[-112.07945158831,40.5661760779851],[-112.079196590737,40.5661740778413],[-112.079198589488,40.5661110777173],[-112.07919858859,40.5660210792896],[-112.079188319948,40.5660212266905],[-112.079186999424,40.5658510330229],[-112.079177424282,40.5646171733138],[-112.081688517335,40.5644060911408],[-112.081689248563,40.5659482577439],[-112.081919943115,40.5659500797848],[-112.085341340368,40.5659770657745],[-112.085773852228,40.565952860615],[-112.086096139006,40.5659415202866],[-112.086373494748,40.5659363250807],[-112.086720506756,40.5659357545839],[-112.087237699204,40.5659398176676],[-112.087776868936,40.5659962074296],[-112.088739185591,40.5659999081489],[-112.089401914997,40.5660053135327],[-112.091250593952,40.5660241201155],[-112.091831503006,40.5660284281796],[-112.091839622877,40.5660284875494],[-112.091847741851,40.5660285489665],[-112.091924444502,40.5660291174152],[-112.092709601704,40.5660349322435],[-112.092711484573,40.5657603163457],[-112.093071397287,40.5657631244803],[-112.09307154461,40.5655984365706],[-112.093647401538,40.5656029289143],[-112.093647106891,40.5653643872965],[-112.093646329848,40.5652720874295],[-112.093647768051,40.5651942479171],[-112.093646891295,40.5650936031714],[-112.093646816735,40.5649154685203],[-112.093647061975,40.564736635957],[-112.093647365606,40.5645090305576],[-112.093648511856,40.5642919774706],[-112.09400838145,40.5642921405712],[-112.09418834185,40.5642922251924],[-112.094548319242,40.5642924046713],[-112.094549514899,40.5627613578893],[-112.094729472604,40.5627614425124],[-112.094729449248,40.5627880128141],[-112.095089427538,40.5627040932367],[-112.095873014486,40.5627044597098],[-112.095873277692,40.5622927282089],[-112.097272080354,40.5622943892912],[-112.098803079092,40.562292224561],[-112.099342947713,40.5622924095049],[-112.099343631331,40.5625001379722],[-112.100011603305,40.5626779419233],[-112.100033187127,40.562706289346],[-112.100689600478,40.5627065705135],[-112.102976863905,40.562710754586],[-112.10385455387,40.5637788378622],[-112.10395808291,40.5637471060173],[-112.104238622281,40.5636611526193],[-112.104435668637,40.5636007802393],[-112.104636925397,40.5639828035616],[-112.10508294163,40.5638499365757],[-112.10513864706,40.5638330224536],[-112.105236823039,40.5639994828892],[-112.105394028213,40.5642914977229],[-112.105647350428,40.5647117970585],[-112.105821250793,40.5649717015057],[-112.106301123631,40.5661961810987],[-112.104067795054,40.568170668586],[-112.103014508705,40.5691017562086],[-112.10104661343,40.570509918196],[-112.100794963877,40.5706899867884],[-112.100630680877,40.5708075382115],[-112.097311226239,40.5695276610791],[-112.097310355771,40.5695289726055],[-112.091891592213,40.5674370786038],[-112.091890593287,40.5672930783187],[-112.091890593287,40.5672140776657],[-112.091847592731,40.5672140776657],[-112.091837592685,40.5661920770859],[-112.091783592258,40.5661920770859],[-112.091118591911,40.5661960773723],[-112.088904591486,40.5661830774642],[-112.088723591736,40.5661820784161],[-112.088410590843,40.5661830781466],[-112.086902590772,40.5661890772122],[-112.08636759102,40.5661910780379],[-112.084869590995,40.5662850785654],[-112.084839590857,40.5662870780234],[-112.083628590888,40.5664200780176],[-112.083578590659,40.5663030777802],[-112.083538591374,40.5662110781031],[-112.083375588473,40.5661720776975],[-112.082959590343,40.566160078198],[-112.08213859036,40.5661830774642],[-112.081973455756,40.5661878809476],[-112.081691589573,40.5661960794196]]]},"properties":{"PrecinctID":"COP001","VistaID":"COP001","CountyID":18,"SubPrecinctID":null,"AliasName":null,"VersionNbr":null}}]}