{
"type": "FeatureCollection",
"crs": { "type": "name", "properties": { "name": "urn:ogc:def:crs:OGC:1.3:CRS84" } },
"features": [
{ "type": "Feature", "properties": { "district": "1" }, "geometry": { "type": "Polygon", "coordinates": [ [ [ -111.948459938095993, 40.667426768308999 ], [ -111.948473862881002, 40.666760662140703 ], [ -111.948479010227999, 40.666611600500701 ], [ -111.948448067757994, 40.665907784094998 ], [ -111.948447544938006, 40.665907797041399 ], [ -111.948435576684005, 40.665629100276902 ], [ -111.948428577011001, 40.665466098823003 ], [ -111.948432575411999, 40.665400100758703 ], [ -111.948445576729, 40.665205100242702 ], [ -111.948450574955999, 40.665140099489697 ], [ -111.948445575831002, 40.664979098798497 ], [ -111.948432574514001, 40.664499100758398 ], [ -111.948428576111993, 40.664339098827 ], [ -111.948422576265003, 40.6641270994755 ], [ -111.948455574977999, 40.663274099167097 ], [ -111.948422575365996, 40.660527098809503 ], [ -111.948431575586994, 40.660401099127299 ], [ -111.948434575061995, 40.659919099423 ], [ -111.948444575107999, 40.658698099103297 ], [ -111.948437575434994, 40.6584760989982 ], [ -111.948424575016006, 40.657996099818597 ], [ -111.948419574094999, 40.657838098770902 ], [ -111.948414574970002, 40.657657099569299 ], [ -111.948398575076993, 40.657076098893 ], [ -111.948399574004, 40.656641098448901 ], [ -111.948401573653001, 40.656303098556698 ], [ -111.948207573485007, 40.656305098730499 ], [ -111.947628575148002, 40.656313098743396 ], [ -111.947435573007994, 40.656316099344401 ], [ -111.947243573386999, 40.656317098408799 ], [ -111.946671572925993, 40.656322099182802 ], [ -111.946480574028996, 40.656324098674503 ], [ -111.946239573105998, 40.656323098928603 ], [ -111.945518573580998, 40.656320099009498 ], [ -111.945278574279996, 40.656320098328102 ], [ -111.944939572549998, 40.656322099864298 ], [ -111.944454573924006, 40.656327098593501 ], [ -111.943925572222994, 40.656319099263698 ], [ -111.943588571939003, 40.656314099170899 ], [ -111.943455573666995, 40.656313098743396 ], [ -111.943059572932995, 40.656313099424899 ], [ -111.942927572689001, 40.656313099424899 ], [ -111.942195573293006, 40.656316100025897 ], [ -111.940548573304994, 40.6563260988476 ], [ -111.940035573293997, 40.6562370996038 ], [ -111.940011573004, 40.656224098800799 ], [ -111.939663571951996, 40.6560470996722 ], [ -111.939351571781998, 40.655911100142198 ], [ -111.939248573645997, 40.6559110987791 ], [ -111.938940573674998, 40.655912098531203 ], [ -111.938838869112999, 40.655913096238699 ], [ -111.938838154953004, 40.6558444772336 ], [ -111.938831298112007, 40.655186451132302 ], [ -111.938830548018998, 40.655114560168599 ], [ -111.938828587895003, 40.6549265620258 ], [ -111.938826162444002, 40.654693789062399 ], [ -111.938824525713002, 40.654625181070301 ], [ -111.938821981684001, 40.654369055120199 ], [ -111.938815571305994, 40.653724099586299 ], [ -111.938810571283994, 40.653177099202203 ], [ -111.938810570385002, 40.653176932910803 ], [ -111.938900675900001, 40.653177401116501 ], [ -111.940793195335999, 40.653187200722797 ], [ -111.941347152236006, 40.653162479869003 ], [ -111.943178469453002, 40.653108090959698 ], [ -111.94608512037, 40.653103146511199 ], [ -111.948376881661005, 40.653103150600401 ], [ -111.948770185651995, 40.653103145829697 ], [ -111.950001925026996, 40.653068536724597 ], [ -111.951370518244005, 40.6530447222531 ], [ -111.951422663648998, 40.653043813782297 ], [ -111.952748004781995, 40.653029441131402 ], [ -111.952765629728006, 40.653566477567999 ], [ -111.952766567569, 40.657742050998799 ], [ -111.95279723246, 40.660338195281298 ], [ -111.952807586440997, 40.6610609177756 ], [ -111.952792261183006, 40.6644448471516 ], [ -111.952791025101007, 40.664718162364402 ], [ -111.952787504602995, 40.667224564732997 ], [ -111.952789895020004, 40.667334969786197 ], [ -111.952794056016998, 40.667527107748498 ], [ -111.952798190962, 40.667719262873 ], [ -111.952804072231999, 40.667992549676903 ], [ -111.952777135350004, 40.669102814390598 ], [ -111.952799822301998, 40.670041651611101 ], [ -111.952803095763002, 40.6701771385748 ], [ -111.952788486461998, 40.670506515923499 ], [ -111.952760165276004, 40.671614425653303 ], [ -111.952782165016998, 40.673079786158603 ], [ -111.952796497638005, 40.673728160740303 ], [ -111.952737929278001, 40.675004770865002 ], [ -111.952681654317004, 40.675617679067798 ], [ -111.952612276528995, 40.6760476600152 ], [ -111.952578609469001, 40.676256295431998 ], [ -111.952378676826001, 40.677451761730701 ], [ -111.952235373978993, 40.678087952926496 ], [ -111.952154065665994, 40.678509128963803 ], [ -111.952045143141007, 40.679073333882997 ], [ -111.951992226981005, 40.679347425721303 ], [ -111.951938248112995, 40.679840488167798 ], [ -111.951845602163004, 40.680494214927698 ], [ -111.951759947800994, 40.681234865749097 ], [ -111.951680392998995, 40.681873390836401 ], [ -111.951671991056998, 40.682003863083999 ], [ -111.951663157921999, 40.6821411003341 ], [ -111.951662577611003, 40.6821411003341 ], [ -111.951655282391997, 40.682141071722597 ], [ -111.95141657936, 40.682140100975303 ], [ -111.951337578818993, 40.682140100975303 ], [ -111.950679577246007, 40.682139102978802 ], [ -111.950434577023998, 40.682139102978802 ], [ -111.950038578087003, 40.6821381015762 ], [ -111.948892578414998, 40.682136101495999 ], [ -111.948850576785006, 40.682135102818201 ], [ -111.948455577673002, 40.682135102818201 ], [ -111.948131576910001, 40.682135102137003 ], [ -111.947162578586003, 40.682135102137003 ], [ -111.946839577646998, 40.682135102818201 ], [ -111.946737576641993, 40.682134102096803 ], [ -111.946434578489999, 40.682133102056603 ], [ -111.946333577309005, 40.682133102737801 ], [ -111.946106576630001, 40.6821321026977 ], [ -111.946000578121996, 40.682132102016404 ], [ -111.945426578010995, 40.682132101335199 ], [ -111.945200577156996, 40.682132102016404 ], [ -111.944723577131001, 40.682131101294999 ], [ -111.943295575630003, 40.682130101935897 ], [ -111.942819576326997, 40.682130102617201 ], [ -111.942301575395007, 40.682129101895697 ], [ -111.940747576191001, 40.682128102536701 ], [ -111.940701577059002, 40.682128101855398 ], [ -111.940230575982, 40.682128101855398 ], [ -111.939962576194006, 40.682128102536701 ], [ -111.939637672624002, 40.682128103899103 ], [ -111.939158575031001, 40.682128101855398 ], [ -111.938902392580005, 40.682128103217799 ], [ -111.938891575067998, 40.682128102536701 ], [ -111.938891310065003, 40.682128096405599 ], [ -111.938771574518995, 40.682125102415696 ], [ -111.938351575292998, 40.682135102137003 ], [ -111.938279574424001, 40.682137102898601 ], [ -111.937830574885993, 40.682171101530002 ], [ -111.937346576085005, 40.682234102634901 ], [ -111.936881575754995, 40.682320102500697 ], [ -111.936750574436999, 40.682352103008697 ], [ -111.936383574914004, 40.682444102935797 ], [ -111.936229575826999, 40.682490102511103 ], [ -111.936091575733997, 40.682532103280401 ], [ -111.936088467564005, 40.682533155087597 ], [ -111.935763575671004, 40.682643102899199 ], [ -111.935688575328001, 40.682672103155703 ], [ -111.935555574361004, 40.682724102762002 ], [ -111.935466574672006, 40.682759102487303 ], [ -111.935444575828996, 40.682768102764001 ], [ -111.935205574555994, 40.682874103206899 ], [ -111.935119574343005, 40.6829131022863 ], [ -111.934943574615005, 40.6829911031016 ], [ -111.934416576157005, 40.683226102979901 ], [ -111.934241575357007, 40.683305103451403 ], [ -111.933933574487, 40.683440102962699 ], [ -111.933613575717999, 40.683568103432599 ], [ -111.933411574255004, 40.683639103358502 ], [ -111.933394575435003, 40.683646103481401 ], [ -111.933301574650002, 40.6836751039828 ], [ -111.933061573551996, 40.683752103890299 ], [ -111.932833573946994, 40.6838151028197 ], [ -111.932604574516006, 40.683872102967399 ], [ -111.930588216928001, 40.684302905340097 ], [ -111.930348574258005, 40.684354103941097 ], [ -111.929361573695999, 40.684566103019598 ], [ -111.929337931833999, 40.684572485195602 ], [ -111.928698573896995, 40.684745104123301 ], [ -111.928618573530997, 40.684761102775198 ], [ -111.926365573645, 40.6852331035143 ], [ -111.925636972576001, 40.685386390518701 ], [ -111.925614573084999, 40.685391103693199 ], [ -111.925518572824998, 40.685410104888099 ], [ -111.925232573493005, 40.6854701043234 ], [ -111.925137572161006, 40.685491104112998 ], [ -111.925061572890996, 40.685506103277497 ], [ -111.924836574557006, 40.6855541034422 ], [ -111.924761573314996, 40.685570103943498 ], [ -111.924032572496003, 40.6857241047407 ], [ -111.923745573339005, 40.6857851038788 ], [ -111.922955573319001, 40.6859501033112 ], [ -111.921844572008993, 40.686182103035897 ], [ -111.921365573231995, 40.686283104290297 ], [ -111.921284573939005, 40.686300104594302 ], [ -111.921199571754002, 40.686318103509102 ], [ -111.921115572987006, 40.686335104485302 ], [ -111.921109100625003, 40.686327924131199 ], [ -111.921051573412996, 40.686264103344399 ], [ -111.920662572352001, 40.685936104911001 ], [ -111.920216574085003, 40.685742105173397 ], [ -111.919521570905999, 40.685710103568198 ], [ -111.918949571343006, 40.685610104839398 ], [ -111.918540571988004, 40.685539104969699 ], [ -111.918030571450998, 40.685543104925998 ], [ -111.917596571082996, 40.685585104452599 ], [ -111.917319570174996, 40.685568104647402 ], [ -111.917050572359003, 40.685449105889603 ], [ -111.916938571307, 40.685214105675001 ], [ -111.916915571741001, 40.6849141047621 ], [ -111.916908570272, 40.684814103476498 ], [ -111.917281573235996, 40.6839961046024 ], [ -111.917303572079007, 40.683810103425799 ], [ -111.916976571839996, 40.683692104270797 ], [ -111.916534607008998, 40.683512380979003 ], [ -111.916194570418995, 40.683374103614199 ], [ -111.915160570899999, 40.683051104033403 ], [ -111.914717571208996, 40.683048105316502 ], [ -111.914045570290995, 40.683240104674098 ], [ -111.913826571803995, 40.6833031040874 ], [ -111.913424570325006, 40.683294103882901 ], [ -111.913331569540006, 40.683250104228101 ], [ -111.913007569675003, 40.682775104340799 ], [ -111.912517571026996, 40.682372105787699 ], [ -111.912359569944996, 40.682229105166101 ], [ -111.912359376807004, 40.682228928728698 ], [ -111.912203570309003, 40.682087104959798 ], [ -111.912167569426003, 40.682063103974002 ], [ -111.912135570537004, 40.681997105305697 ], [ -111.912223571298995, 40.681758104317304 ], [ -111.912252569814996, 40.681704103864099 ], [ -111.912380569861, 40.681551105408097 ], [ -111.912470571170999, 40.681391104879403 ], [ -111.912484570516995, 40.681068103863801 ], [ -111.912489570540004, 40.680971105155599 ], [ -111.912450570180994, 40.6809121037724 ], [ -111.912267568985001, 40.680629104321099 ], [ -111.912081571008997, 40.680393104076501 ], [ -111.911798570252998, 40.680037103362302 ], [ -111.911762569369998, 40.679991104819102 ], [ -111.911742569278999, 40.679918104266797 ], [ -111.911733417242004, 40.679884109936197 ], [ -111.911707570017001, 40.679788104130502 ], [ -111.911707557439996, 40.679788057805503 ], [ -111.911679570428007, 40.6796871046147 ], [ -111.911679690802004, 40.679684553328599 ], [ -111.911689285706998, 40.679484087331502 ], [ -111.911708569842006, 40.679081104306398 ], [ -111.911809568327001, 40.6787931034428 ], [ -111.911975568906996, 40.678318103813403 ], [ -111.912029569333995, 40.677996103678701 ], [ -111.911914567908994, 40.677631104182097 ], [ -111.911876570969, 40.677508104441003 ], [ -111.911794570954001, 40.677409104417997 ], [ -111.911486569185001, 40.677233104392698 ], [ -111.911038567675007, 40.677076104067098 ], [ -111.911027619907003, 40.677071688023098 ], [ -111.910510568494004, 40.676863104210099 ], [ -111.910178568232993, 40.676577103549299 ], [ -111.909933568908997, 40.676252102795601 ], [ -111.909791569516997, 40.675980104095601 ], [ -111.909216568682993, 40.675585105084501 ], [ -111.909091569010002, 40.6755571046087 ], [ -111.908572569151005, 40.675440104610203 ], [ -111.908103568623005, 40.675283104149798 ], [ -111.908009569810005, 40.675125103174402 ], [ -111.907991568469996, 40.6750951042578 ], [ -111.907975568576006, 40.674841104895201 ], [ -111.907958567061002, 40.674821103943998 ], [ -111.907966385099002, 40.674810681400203 ], [ -111.908063044721999, 40.674825508555003 ], [ -111.908155944895, 40.674839760007401 ], [ -111.90862507029, 40.674911723731697 ], [ -111.909306851165994, 40.674992711869002 ], [ -111.910144700847994, 40.675023862227 ], [ -111.910883979293004, 40.675011401268002 ], [ -111.911442544549999, 40.674942873446199 ], [ -111.912288608427005, 40.6747871288159 ], [ -111.913561813136994, 40.674438255954001 ], [ -111.915689292325993, 40.6738651070755 ], [ -111.919057120343993, 40.672986681833102 ], [ -111.922531730201001, 40.672058405120097 ], [ -111.925176709062001, 40.671217337686798 ], [ -111.927148118546995, 40.670463484196397 ], [ -111.928100966958993, 40.670095897939603 ], [ -111.930828085075007, 40.669092818165403 ], [ -111.932536641219997, 40.668457317892603 ], [ -111.933349847418995, 40.668164486562503 ], [ -111.934278054144002, 40.667940191080099 ], [ -111.935193944068004, 40.667780395002197 ], [ -111.936255202965, 40.667680342120804 ], [ -111.937832102919998, 40.667657602622803 ], [ -111.938761454997007, 40.667659162969699 ], [ -111.938851570392998, 40.6676587677727 ], [ -111.938851573986, 40.667659099601899 ], [ -111.939733574068001, 40.667658100026003 ], [ -111.939925573688996, 40.66765710045 ], [ -111.940712574234993, 40.66765710045 ], [ -111.942379574314003, 40.667636101174402 ], [ -111.943261574396004, 40.667625100383198 ], [ -111.943450574541998, 40.667624101488101 ], [ -111.943751575739, 40.667621100714399 ], [ -111.944020574454001, 40.667620099775199 ], [ -111.944210573527002, 40.667620099775199 ], [ -111.944582573971005, 40.667622100290998 ], [ -111.945699575128003, 40.667628101156701 ], [ -111.946072575396997, 40.667630100990898 ], [ -111.946551575071993, 40.667630100990898 ], [ -111.947988576794998, 40.667633100401403 ], [ -111.948163574899993, 40.667634099296301 ], [ -111.948467522572003, 40.667646098980804 ], [ -111.948464868049996, 40.6675692794309 ], [ -111.948460082723997, 40.667430962181697 ], [ -111.948459938095993, 40.667426768308999 ] ] ] } },
{ "type": "Feature", "properties": { "district": "2" }, "geometry": { "type": "Polygon", "coordinates": [ [ [ -111.929933263338995, 40.653012893734903 ], [ -111.933495570328006, 40.653071099252003 ], [ -111.934081570133003, 40.653081100604702 ], [ -111.934164569974001, 40.653083099512003 ], [ -111.934338398473002, 40.6530901573649 ], [ -111.934458855366003, 40.653095049337097 ], [ -111.935026570863002, 40.653118099803599 ], [ -111.936002571553999, 40.653159100881297 ], [ -111.937863572701005, 40.653170099287799 ], [ -111.938810571283994, 40.653177099202203 ], [ -111.938815571305994, 40.653724099586299 ], [ -111.938821981684001, 40.654369055120199 ], [ -111.938824525713002, 40.654625181070301 ], [ -111.938826162444002, 40.654693789062399 ], [ -111.938828587895003, 40.6549265620258 ], [ -111.938830548018998, 40.655114560168599 ], [ -111.938831298112007, 40.655186451132302 ], [ -111.938838154953004, 40.6558444772336 ], [ -111.938838869112999, 40.655913096238699 ], [ -111.938940573674998, 40.655912098531203 ], [ -111.939248573645997, 40.6559110987791 ], [ -111.939351571781998, 40.655911100142198 ], [ -111.939663571951996, 40.6560470996722 ], [ -111.940011573004, 40.656224098800799 ], [ -111.940035573293997, 40.6562370996038 ], [ -111.940548573304994, 40.6563260988476 ], [ -111.942195573293006, 40.656316100025897 ], [ -111.942927572689001, 40.656313099424899 ], [ -111.943059572932995, 40.656313099424899 ], [ -111.943455573666995, 40.656313098743396 ], [ -111.943588571939003, 40.656314099170899 ], [ -111.943925572222994, 40.656319099263698 ], [ -111.944454573924006, 40.656327098593501 ], [ -111.944939572549998, 40.656322099864298 ], [ -111.945278574279996, 40.656320098328102 ], [ -111.945518573580998, 40.656320099009498 ], [ -111.946239573105998, 40.656323098928603 ], [ -111.946480574028996, 40.656324098674503 ], [ -111.946671572925993, 40.656322099182802 ], [ -111.947243573386999, 40.656317098408799 ], [ -111.947435573007994, 40.656316099344401 ], [ -111.947628575148002, 40.656313098743396 ], [ -111.948207573485007, 40.656305098730499 ], [ -111.948401573653001, 40.656303098556698 ], [ -111.948399574004, 40.656641098448901 ], [ -111.948398575076993, 40.657076098893 ], [ -111.948414574970002, 40.657657099569299 ], [ -111.948419574094999, 40.657838098770902 ], [ -111.948424575016006, 40.657996099818597 ], [ -111.948437575434994, 40.6584760989982 ], [ -111.948444575107999, 40.658698099103297 ], [ -111.948434575061995, 40.659919099423 ], [ -111.948431575586994, 40.660401099127299 ], [ -111.948422575365996, 40.660527098809503 ], [ -111.948455574977999, 40.663274099167097 ], [ -111.948422576265003, 40.6641270994755 ], [ -111.948428576111993, 40.664339098827 ], [ -111.948432574514001, 40.664499100758398 ], [ -111.948445575831002, 40.664979098798497 ], [ -111.948450574955999, 40.665140099489697 ], [ -111.948445576729, 40.665205100242702 ], [ -111.948432575411999, 40.665400100758703 ], [ -111.948428577011001, 40.665466098823003 ], [ -111.948435576684005, 40.665629100276902 ], [ -111.948447544938006, 40.665907797041399 ], [ -111.948448067757994, 40.665907784094998 ], [ -111.948479010227999, 40.666611600500701 ], [ -111.948473862881002, 40.666760662140703 ], [ -111.948459938095993, 40.667426768308999 ], [ -111.948460082723997, 40.667430962181697 ], [ -111.948464868049996, 40.6675692794309 ], [ -111.948467522572003, 40.667646098980804 ], [ -111.948163574899993, 40.667634099296301 ], [ -111.947988576794998, 40.667633100401403 ], [ -111.946551575071993, 40.667630100990898 ], [ -111.946072575396997, 40.667630100990898 ], [ -111.945699575128003, 40.667628101156701 ], [ -111.944582573971005, 40.667622100290998 ], [ -111.944210573527002, 40.667620099775199 ], [ -111.944020574454001, 40.667620099775199 ], [ -111.943751575739, 40.667621100714399 ], [ -111.943450574541998, 40.667624101488101 ], [ -111.943261574396004, 40.667625100383198 ], [ -111.942379574314003, 40.667636101174402 ], [ -111.940712574234993, 40.66765710045 ], [ -111.939925573688996, 40.66765710045 ], [ -111.939733574068001, 40.667658100026003 ], [ -111.938851573986, 40.667659099601899 ], [ -111.938851570392998, 40.6676587677727 ], [ -111.938761454997007, 40.667659162969699 ], [ -111.937832102919998, 40.667657602622803 ], [ -111.936255202965, 40.667680342120804 ], [ -111.935193944068004, 40.667780395002197 ], [ -111.934278054144002, 40.667940191080099 ], [ -111.933349847418995, 40.668164486562503 ], [ -111.932536641219997, 40.668457317892603 ], [ -111.930828085075007, 40.669092818165403 ], [ -111.928100966958993, 40.670095897939603 ], [ -111.927148118546995, 40.670463484196397 ], [ -111.925176709062001, 40.671217337686798 ], [ -111.922531730201001, 40.672058405120097 ], [ -111.919057120343993, 40.672986681833102 ], [ -111.915689292325993, 40.6738651070755 ], [ -111.913561813136994, 40.674438255954001 ], [ -111.912288608427005, 40.6747871288159 ], [ -111.911442544549999, 40.674942873446199 ], [ -111.910883979293004, 40.675011401268002 ], [ -111.910144700847994, 40.675023862227 ], [ -111.909306851165994, 40.674992711869002 ], [ -111.90862507029, 40.674911723731697 ], [ -111.908155944895, 40.674839760007401 ], [ -111.908063044721999, 40.674825508555003 ], [ -111.907966385099002, 40.674810681400203 ], [ -111.907973568925996, 40.674801104349498 ], [ -111.908209568030003, 40.673910102869002 ], [ -111.908387567407004, 40.673631103659901 ], [ -111.908337568974005, 40.671826104143499 ], [ -111.908335568425997, 40.6717891037379 ], [ -111.908310567414006, 40.671427104928298 ], [ -111.908065568089995, 40.671129103014302 ], [ -111.908027449876997, 40.671030476432001 ], [ -111.908002567441997, 40.6709661027392 ], [ -111.907839566337003, 40.670542103250497 ], [ -111.907856567851994, 40.670170103651401 ], [ -111.907875567220003, 40.669758102493901 ], [ -111.907890704731003, 40.6696604931889 ], [ -111.907962568157004, 40.669197104252 ], [ -111.908303566843003, 40.668297102649902 ], [ -111.908547567240007, 40.667654102403397 ], [ -111.908587567422998, 40.6674221036047 ], [ -111.908601568565004, 40.667342103126998 ], [ -111.908595568717004, 40.6673161044842 ], [ -111.908551574624994, 40.667130622311603 ], [ -111.908521566402001, 40.667004102945199 ], [ -111.908508566882006, 40.666949102537799 ], [ -111.908502619136996, 40.666899534062402 ], [ -111.908502567932999, 40.666899103429003 ], [ -111.908502483491006, 40.6668984697437 ], [ -111.908477568717004, 40.666708103612599 ], [ -111.908418567368997, 40.666238103768798 ], [ -111.908346566500001, 40.666167102344602 ], [ -111.908209566232998, 40.666034102486798 ], [ -111.908139568607993, 40.665840102746202 ], [ -111.908136566438003, 40.665547103202897 ], [ -111.908340566652996, 40.665317103110702 ], [ -111.908356567444002, 40.6653051030071 ], [ -111.908691566282002, 40.665082102789803 ], [ -111.90887256693, 40.664859103189698 ], [ -111.909510272865006, 40.664075257078999 ], [ -111.909544567848002, 40.6640331022667 ], [ -111.909895567476994, 40.663807102983803 ], [ -111.910204568172006, 40.663814101782101 ], [ -111.910329567846006, 40.663818103041997 ], [ -111.910604568205002, 40.663862102575202 ], [ -111.910954567111006, 40.663943102770602 ], [ -111.911018566685001, 40.663953103174897 ], [ -111.911523567198998, 40.664032103317801 ], [ -111.911986566981, 40.663949101923102 ], [ -111.912265568436993, 40.6638071023024 ], [ -111.912440567440996, 40.6636571018852 ], [ -111.912859566842002, 40.6630731013814 ], [ -111.913142567598001, 40.662782102608901 ], [ -111.913324567173007, 40.662676102927897 ], [ -111.913657567257999, 40.662485101920304 ], [ -111.914465568618994, 40.662148102675999 ], [ -111.915028568859, 40.662028101974002 ], [ -111.915431568366003, 40.662020101283503 ], [ -111.916073567349997, 40.662061102341902 ], [ -111.916420568578005, 40.662007102288896 ], [ -111.916839569776002, 40.661841101170701 ], [ -111.918036568603995, 40.660902100803497 ], [ -111.918671672119999, 40.660344707889102 ], [ -111.918935568405004, 40.660113101393897 ], [ -111.919006568550003, 40.660045102060003 ], [ -111.919315568345993, 40.659752100910097 ], [ -111.920588569138999, 40.6591091007367 ], [ -111.920779568933995, 40.658982100714603 ], [ -111.921127568190997, 40.658752101153603 ], [ -111.921580568826002, 40.657976101311199 ], [ -111.921822568674997, 40.657374100224999 ], [ -111.922187570343993, 40.656556099957797 ], [ -111.922228051125998, 40.656464779870802 ], [ -111.922230568206004, 40.6564591010263 ], [ -111.922360568800002, 40.656167100911503 ], [ -111.922628569487003, 40.655568100491898 ], [ -111.922835569176002, 40.6549851004917 ], [ -111.922978568393006, 40.654585099565999 ], [ -111.923085568523007, 40.654283100982298 ], [ -111.923248567832005, 40.653828099614202 ], [ -111.923401568890995, 40.653374099704003 ], [ -111.923459568617005, 40.653204099741302 ], [ -111.923465567567007, 40.6530640993265 ], [ -111.923496852295003, 40.6530640993265 ], [ -111.923561567825999, 40.653064100008002 ], [ -111.923801568025993, 40.653065100484199 ], [ -111.923844568581998, 40.653060100147599 ], [ -111.923961568756994, 40.653057100081803 ], [ -111.924705569644999, 40.6530411013186 ], [ -111.925451569285002, 40.6530420997506 ], [ -111.925625026779997, 40.653042448009103 ], [ -111.925948569401996, 40.653043098864103 ], [ -111.926514570015001, 40.653040100160602 ], [ -111.926953568610003, 40.653039099684001 ], [ -111.928088569310006, 40.653028099211298 ], [ -111.928180569370994, 40.6530270994161 ], [ -111.928213568982997, 40.6530270994161 ], [ -111.928780571217999, 40.653024099348698 ], [ -111.928880570776997, 40.653023099553401 ], [ -111.928936569954999, 40.653023100235004 ], [ -111.929323569568993, 40.6530210999628 ], [ -111.929405570482999, 40.6530190990091 ], [ -111.929562569943997, 40.653016099622903 ], [ -111.929823065207003, 40.653011110187002 ], [ -111.929823570059995, 40.653011099282701 ], [ -111.929933263338995, 40.653012893734903 ] ] ] } },
{ "type": "Feature", "properties": { "district": "3" }, "geometry": { "type": "Polygon", "coordinates": [ [ [ -111.929236565937003, 40.629981096939801 ], [ -111.929236731226993, 40.6299810867133 ], [ -111.930056566993002, 40.629935095915499 ], [ -111.930561567506999, 40.629930097936501 ], [ -111.930907567112996, 40.629927098194401 ], [ -111.931037566808996, 40.629929096431702 ], [ -111.931078567716, 40.629929096431702 ], [ -111.931859567515005, 40.629887096621196 ], [ -111.931864567538, 40.630107097478302 ], [ -111.931861567165001, 40.630170097999297 ], [ -111.932689566820002, 40.630173096367002 ], [ -111.933257567981002, 40.630176096779799 ], [ -111.933586566971002, 40.630168095678698 ], [ -111.934627567960007, 40.630167097586302 ], [ -111.935102568336006, 40.6301670969046 ], [ -111.935171567932997, 40.630168095678698 ], [ -111.935355613870001, 40.630168095678698 ], [ -111.935358567530997, 40.630168095678698 ], [ -111.935359569151998, 40.630334095830499 ], [ -111.935364569174993, 40.630885097150198 ], [ -111.935364970722006, 40.630885613916497 ], [ -111.935399567537999, 40.630930096030198 ], [ -111.935457567265004, 40.630880097197 ], [ -111.935553569321002, 40.630847097087504 ], [ -111.935659567829006, 40.630843096577401 ], [ -111.935909567175997, 40.630861096144301 ], [ -111.936157050342004, 40.630893895130697 ], [ -111.936158569393001, 40.630894096246898 ], [ -111.936400569243006, 40.630888097530999 ], [ -111.936622569001003, 40.630869096480602 ], [ -111.936877567471996, 40.630840096194603 ], [ -111.937103569225002, 40.630813096833798 ], [ -111.937477568419993, 40.630762096420803 ], [ -111.937750569130003, 40.630729097616502 ], [ -111.938002569923, 40.630680096717597 ], [ -111.938138569467, 40.630658095898902 ], [ -111.938294570001005, 40.630613096835503 ], [ -111.938467568457, 40.630554097942003 ], [ -111.938580569332998, 40.6305050955512 ], [ -111.938711649702995, 40.630490216275497 ], [ -111.938765568383005, 40.6304840954894 ], [ -111.938767568033001, 40.630581096043898 ], [ -111.938767611152002, 40.630582771110802 ], [ -111.938768567858006, 40.630620096388803 ], [ -111.938772568055995, 40.630867096226197 ], [ -111.938779568626998, 40.631319096295201 ], [ -111.938779568626998, 40.631319135836499 ], [ -111.938782569, 40.631481095840698 ], [ -111.938781292493999, 40.631564000596498 ], [ -111.938780568450994, 40.631611096058599 ], [ -111.938777568077995, 40.631860097227197 ], [ -111.938776570049995, 40.631917097470797 ], [ -111.938773569676997, 40.632088097228099 ], [ -111.938773569676997, 40.632146096021799 ], [ -111.938772569852006, 40.632189097927601 ], [ -111.938770569303998, 40.632317095874299 ], [ -111.938770568405999, 40.632361097093202 ], [ -111.938771570027001, 40.632769097035997 ], [ -111.938776570049995, 40.633816096754998 ], [ -111.938772569852006, 40.633995096382797 ], [ -111.938766570902999, 40.634404095959297 ], [ -111.938764570355005, 40.634445096945399 ], [ -111.938762569806002, 40.6345700964877 ], [ -111.938762569806002, 40.634612097442997 ], [ -111.938762569806002, 40.634649097337501 ], [ -111.938762568908004, 40.634659097360696 ], [ -111.938759568535005, 40.634964097009401 ], [ -111.938759604468004, 40.634974014498802 ], [ -111.938849676744994, 40.634973407778602 ], [ -111.943568421828999, 40.6349415372379 ], [ -111.943567247730996, 40.6343834986533 ], [ -111.943087539285003, 40.634381700291598 ], [ -111.943087364112998, 40.633928805405802 ], [ -111.943561229916995, 40.633928705874901 ], [ -111.943563120871005, 40.633502242415503 ], [ -111.943604046318001, 40.633029528509297 ], [ -111.943559715356997, 40.633029561914 ], [ -111.943560802318999, 40.631320134593402 ], [ -111.943560804116004, 40.631315836188897 ], [ -111.943560804116004, 40.6313155532645 ], [ -111.944440213456005, 40.631314681993899 ], [ -111.945950217667999, 40.631313169882603 ], [ -111.948233141334001, 40.631308078607503 ], [ -111.948317756346, 40.631341255742903 ], [ -111.948438046152006, 40.631340793519698 ], [ -111.948766026452006, 40.631339530245903 ], [ -111.957831016713996, 40.631304271740703 ], [ -111.957831734468002, 40.631375134377102 ], [ -111.957836284435004, 40.631824489945799 ], [ -111.957917271151004, 40.631809497113601 ], [ -111.958900701808005, 40.631525949789498 ], [ -111.959316418765994, 40.631297659490599 ], [ -111.965325621603995, 40.631287231509397 ], [ -111.967338712019995, 40.631283737562597 ], [ -111.967344816969998, 40.632827781740197 ], [ -111.967390454081993, 40.638559123109403 ], [ -111.957817241948007, 40.638601370365201 ], [ -111.948817611308996, 40.638591175292802 ], [ -111.948960791087003, 40.638896132438198 ], [ -111.949157057706003, 40.639144349789902 ], [ -111.949353320731007, 40.639364200172999 ], [ -111.950007538598996, 40.639803898767298 ], [ -111.951409432364002, 40.641009508361698 ], [ -111.952839358955003, 40.642172545159198 ], [ -111.953699188615005, 40.642718598992701 ], [ -111.954250596994996, 40.643080268977997 ], [ -111.956923538614006, 40.644491468526198 ], [ -111.957643178987993, 40.644874401861202 ], [ -111.957848786289006, 40.644931131301803 ], [ -111.957846452466001, 40.645814884681599 ], [ -111.957846452466001, 40.645837230846702 ], [ -111.957846451566994, 40.649548763366603 ], [ -111.957873459416007, 40.653109499667501 ], [ -111.954757148, 40.653045966714998 ], [ -111.952748004781995, 40.653029441131402 ], [ -111.951422663648998, 40.653043813782297 ], [ -111.951370518244005, 40.6530447222531 ], [ -111.950001925026996, 40.653068536724597 ], [ -111.948770185651995, 40.653103145829697 ], [ -111.948376881661005, 40.653103150600401 ], [ -111.94608512037, 40.653103146511199 ], [ -111.943178469453002, 40.653108090959698 ], [ -111.941347152236006, 40.653162479869003 ], [ -111.940793195335999, 40.653187200722797 ], [ -111.938900675900001, 40.653177401116501 ], [ -111.938810570385002, 40.653176932910803 ], [ -111.938810571283994, 40.653177099202203 ], [ -111.937863572701005, 40.653170099287799 ], [ -111.936002571553999, 40.653159100881297 ], [ -111.935026570863002, 40.653118099803599 ], [ -111.934458855366003, 40.653095049337097 ], [ -111.934338398473002, 40.6530901573649 ], [ -111.934164569974001, 40.653083099512003 ], [ -111.934081570133003, 40.653081100604702 ], [ -111.933495570328006, 40.653071099252003 ], [ -111.929933263338995, 40.653012893734903 ], [ -111.929823570059995, 40.653011099282701 ], [ -111.929823065207003, 40.653011110187002 ], [ -111.929562569943997, 40.653016099622903 ], [ -111.929305570026003, 40.652604100179197 ], [ -111.929111569857, 40.6522250993361 ], [ -111.929089570116005, 40.652093099430701 ], [ -111.929154569515006, 40.651912100318199 ], [ -111.929248569226004, 40.651780099112102 ], [ -111.929529568535003, 40.651571100871202 ], [ -111.929622570218001, 40.6514511002256 ], [ -111.929627570240996, 40.651425099477898 ], [ -111.929713863306006, 40.6514285337581 ], [ -111.929828570981002, 40.651433099394403 ], [ -111.929849570897005, 40.651212098790801 ], [ -111.929555570271006, 40.650399098480399 ], [ -111.929342570733994, 40.649842100352998 ], [ -111.929306471036, 40.649529660622299 ], [ -111.929255570695005, 40.649089099169103 ], [ -111.929262570367996, 40.649003100743499 ], [ -111.929272567718996, 40.648863100374697 ], [ -111.929304570200998, 40.648445099278703 ], [ -111.929315569172999, 40.648306098968398 ], [ -111.929310568252006, 40.648122100201199 ], [ -111.929327411664005, 40.647979638860797 ], [ -111.929354569531, 40.647795100065998 ], [ -111.929416583828996, 40.647627577741702 ], [ -111.929431569523999, 40.647587099444301 ], [ -111.929496569822007, 40.6474150986109 ], [ -111.929475569006996, 40.647391098094801 ], [ -111.929412570156003, 40.647319099221001 ], [ -111.929392569165998, 40.647295098670398 ], [ -111.929529569433996, 40.647217099036403 ], [ -111.930184568835998, 40.647018098307598 ], [ -111.930416570437004, 40.646948099485797 ], [ -111.930769568816999, 40.6467830996353 ], [ -111.930870569998007, 40.646713099203801 ], [ -111.931110568400996, 40.646548100135497 ], [ -111.931433570237999, 40.646245099359099 ], [ -111.931554567917004, 40.646072098575502 ], [ -111.931697568930005, 40.645865098620597 ], [ -111.931804570856997, 40.6456210980962 ], [ -111.931927568185998, 40.645336099681302 ], [ -111.932031568840998, 40.645097098156697 ], [ -111.932082569792996, 40.644916099153299 ], [ -111.932082568894998, 40.644789098697103 ], [ -111.932079568521999, 40.644724098498997 ], [ -111.932056569853998, 40.644526099120199 ], [ -111.932056343477996, 40.644524616617304 ], [ -111.932056334495002, 40.644524549819401 ], [ -111.932010568924994, 40.644224098633501 ], [ -111.931964569792001, 40.644098098152803 ], [ -111.931781569494007, 40.643766098397997 ], [ -111.931721568320995, 40.643664098236101 ], [ -111.931704569500994, 40.643642099650897 ], [ -111.931430568965993, 40.643303098723301 ], [ -111.931397570252997, 40.643263099029099 ], [ -111.931315568439999, 40.643220099484402 ], [ -111.931145568561007, 40.6431310991183 ], [ -111.930972569207, 40.643098097566202 ], [ -111.930691570796, 40.6431070984248 ], [ -111.930654569189997, 40.643109099675797 ], [ -111.930236568715003, 40.643241098266799 ], [ -111.930078568531002, 40.643252098989699 ], [ -111.929696568040995, 40.642977099460502 ], [ -111.929451567819001, 40.642697099048398 ], [ -111.929407568336003, 40.642538098627497 ], [ -111.929458569288002, 40.642296099485002 ], [ -111.929492567826998, 40.642248098170597 ], [ -111.929661567880999, 40.642013098380403 ], [ -111.929775568582997, 40.641857098262903 ], [ -111.929852567677003, 40.641710098827801 ], [ -111.929941568263999, 40.641539098493503 ], [ -111.930020567906993, 40.641297099137198 ], [ -111.930028568303001, 40.641222097862901 ], [ -111.930049568219005, 40.641044098500203 ], [ -111.930020567906993, 40.640863098048897 ], [ -111.929883569436001, 40.640605098587002 ], [ -111.929544568604001, 40.640160097903802 ], [ -111.929600569578994, 40.640007097516701 ], [ -111.929652567660995, 40.639876097975801 ], [ -111.929754568665999, 40.639876098657503 ], [ -111.929690567294998, 40.639781099323997 ], [ -111.929501568945994, 40.6394980984631 ], [ -111.929438567399998, 40.639404098591001 ], [ -111.929352568084994, 40.639180099043898 ], [ -111.929339568564004, 40.6391260975129 ], [ -111.929259567299994, 40.638794098249299 ], [ -111.929259567299994, 40.638250098917297 ], [ -111.929260567124999, 40.638127098803501 ], [ -111.929265538402007, 40.637957098173302 ], [ -111.929265568046006, 40.6379560974706 ], [ -111.929090626535, 40.637957208605101 ], [ -111.9289505693, 40.637958097512602 ], [ -111.928004566948999, 40.637964097638402 ], [ -111.927690568027998, 40.637967098382703 ], [ -111.927545566467003, 40.637963098980798 ], [ -111.927113566646995, 40.637952098067998 ], [ -111.926969567604999, 40.637949098004597 ], [ -111.926947567864005, 40.6378590974048 ], [ -111.926935566371, 40.637810099693297 ], [ -111.926935566371, 40.637678097860899 ], [ -111.926981568198997, 40.637596099152702 ], [ -111.927027566432997, 40.637517098381601 ], [ -111.927138568557993, 40.637320098786802 ], [ -111.927144566609002, 40.637310098480398 ], [ -111.927526567097999, 40.636811099014402 ], [ -111.927541568064996, 40.636777099070798 ], [ -111.927584566825004, 40.636684098134097 ], [ -111.927552567936004, 40.636565098029301 ], [ -111.927390567553999, 40.635970097732503 ], [ -111.927376568208999, 40.635953098230402 ], [ -111.927296567843001, 40.635860098872598 ], [ -111.926950566439999, 40.635613098417501 ], [ -111.926791566431007, 40.635432098237999 ], [ -111.926546566208998, 40.634993097549398 ], [ -111.926489568104003, 40.634746098658702 ], [ -111.926590568386999, 40.634427097662801 ], [ -111.926608566132998, 40.634397098166097 ], [ -111.926658340884998, 40.6343181406478 ], [ -111.926828567140006, 40.634048097894301 ], [ -111.926966567232, 40.633870099172597 ], [ -111.927058566395004, 40.633752098226502 ], [ -111.927145566434007, 40.633554097660998 ], [ -111.927221566602, 40.6330680986175 ], [ -111.927282566700995, 40.632686096970602 ], [ -111.927262567507995, 40.632476098824903 ], [ -111.927353565947996, 40.632098098998398 ], [ -111.927131566189999, 40.631734097269302 ], [ -111.927036567551994, 40.631569097305899 ], [ -111.927087566707002, 40.631535096738098 ], [ -111.927086566881997, 40.631438098251103 ], [ -111.927082567583, 40.631351097414999 ], [ -111.927590566673004, 40.6313500979767 ], [ -111.928516476406003, 40.631348517009997 ], [ -111.928761567357995, 40.631348097055003 ], [ -111.929106567139002, 40.631348097736698 ], [ -111.929213525947006, 40.631348097736698 ], [ -111.929267567696002, 40.631348097055003 ], [ -111.929267566798003, 40.6308480972151 ], [ -111.929267567696002, 40.630621097201498 ], [ -111.929251566006002, 40.630289097912303 ], [ -111.929236565937003, 40.629981096939801 ] ] ] } },
{ "type": "Feature", "properties": { "district": "4" }, "geometry": { "type": "Polygon", "coordinates": [ [ [ -111.967338712019995, 40.631283737562597 ], [ -111.967477697563993, 40.631297865377803 ], [ -111.969306155441998, 40.6312957035625 ], [ -111.970405541535001, 40.631294003970702 ], [ -111.976333364195, 40.631308097696397 ], [ -111.976423441861002, 40.6313083090375 ], [ -111.976603591805002, 40.631308732401401 ], [ -111.976607575833, 40.631496093518898 ], [ -111.976623575727004, 40.631669095266602 ], [ -111.976658576784999, 40.6331920938281 ], [ -111.976748577197, 40.637075093576399 ], [ -111.976737641106993, 40.638570474982899 ], [ -111.976917801829998, 40.638570459304503 ], [ -111.977007880395007, 40.638570449079403 ], [ -111.979207449385996, 40.638570223446202 ], [ -111.982951806255002, 40.638569745594602 ], [ -111.982946568179003, 40.636547189301702 ], [ -111.982946565483999, 40.636546351502197 ], [ -111.985710277370998, 40.635093099926102 ], [ -111.985900329443993, 40.634973083967303 ], [ -111.985918788027007, 40.634743550425299 ], [ -111.984563379383005, 40.631930108463301 ], [ -111.984273450819998, 40.631466040210903 ], [ -111.984187396707, 40.631328295084799 ], [ -111.984190988172003, 40.631328316218898 ], [ -111.985184576978, 40.631334094009802 ], [ -111.991482579196997, 40.631330092847101 ], [ -111.991483602377997, 40.631330094210597 ], [ -111.991483721853996, 40.631330092847101 ], [ -111.991485059446006, 40.6314673327973 ], [ -111.991514366982003, 40.634473960686499 ], [ -111.989821779289997, 40.634478423180603 ], [ -111.989844366528999, 40.637028470287298 ], [ -111.988150419685994, 40.637033814713703 ], [ -111.988168959117004, 40.638572774941899 ], [ -111.986471358825995, 40.6385724634182 ], [ -111.986471405537998, 40.6385847628123 ], [ -111.986476124388005, 40.6398848286508 ], [ -111.986476382204998, 40.639956236367802 ], [ -111.986484476026007, 40.642186029252301 ], [ -111.986489142772996, 40.643309481440703 ], [ -111.986490399516995, 40.643611821422702 ], [ -111.986490886403004, 40.643698463427903 ], [ -111.986497439613004, 40.644862702758502 ], [ -111.986520239754, 40.645000519475701 ], [ -111.986548934639004, 40.645081019100502 ], [ -111.986588526987006, 40.645158788122401 ], [ -111.986663485109005, 40.645266551679597 ], [ -111.986780786219995, 40.645389530458999 ], [ -111.986847215737001, 40.645482184601697 ], [ -111.986906518919, 40.645606117222997 ], [ -111.986937946479003, 40.645735834337998 ], [ -111.986941925118003, 40.6457978467906 ], [ -111.986942745280004, 40.645810614474001 ], [ -111.986494574885995, 40.6458116430045 ], [ -111.986318916518997, 40.645812201232701 ], [ -111.985972769588997, 40.645813302012499 ], [ -111.985832643183997, 40.645813666667102 ], [ -111.985045670486002, 40.645815721001497 ], [ -111.983825778093006, 40.645818890428998 ], [ -111.982095862706004, 40.645823370567904 ], [ -111.980316314500996, 40.645827945448602 ], [ -111.979331971156, 40.645830465313402 ], [ -111.978651544040005, 40.645821729963302 ], [ -111.978460720314999, 40.645819279621101 ], [ -111.978426422637, 40.645827914095101 ], [ -111.978409396866994, 40.645832199978202 ], [ -111.978404580101, 40.6458210953963 ], [ -111.978188578393997, 40.645825095009002 ], [ -111.978064111422, 40.645824895300997 ], [ -111.978024019610999, 40.645824830549202 ], [ -111.978006000304006, 40.6458248012406 ], [ -111.976949579733002, 40.645823095202601 ], [ -111.976959577982996, 40.646157096108901 ], [ -111.977041578897001, 40.646159095223602 ], [ -111.977289577695004, 40.646166095191901 ], [ -111.977372579332993, 40.646169095567501 ], [ -111.977374578083996, 40.646321094884897 ], [ -111.977380578829994, 40.646780095197798 ], [ -111.977383579203007, 40.646933095054898 ], [ -111.977382578480004, 40.647074095267499 ], [ -111.977381577757001, 40.647498096722501 ], [ -111.977381578654999, 40.647640095617298 ], [ -111.977376578632004, 40.647909095786702 ], [ -111.977364578039001, 40.648717094419503 ], [ -111.977361579461999, 40.648987094874201 ], [ -111.977367578412, 40.649184095478503 ], [ -111.977385579751996, 40.649777095534397 ], [ -111.977392579424006, 40.649975095010497 ], [ -111.977391578701003, 40.6501120955744 ], [ -111.977391580497994, 40.650524096092603 ], [ -111.977391578701003, 40.650662096041501 ], [ -111.977389579051007, 40.6507890948632 ], [ -111.977387954896997, 40.6509444354962 ], [ -111.977388711279005, 40.650944440948599 ], [ -111.977384532315995, 40.651299642831603 ], [ -111.977390275245995, 40.652119059707601 ], [ -111.977354964268002, 40.652192049121098 ], [ -111.977294218392004, 40.652297533185802 ], [ -111.977201710783007, 40.652431742887799 ], [ -111.977180839325001, 40.6524620239298 ], [ -111.977099070177005, 40.652570502203297 ], [ -111.977022105217998, 40.652696473739198 ], [ -111.976948463127997, 40.652915754028598 ], [ -111.976951464398994, 40.653077095293099 ], [ -111.976951466195999, 40.653077137547598 ], [ -111.973945500235999, 40.653086806315997 ], [ -111.969094578837002, 40.653091345259597 ], [ -111.968369578215004, 40.653092180806802 ], [ -111.968364182933996, 40.653092186940498 ], [ -111.967391322751993, 40.653093292370798 ], [ -111.965104980098999, 40.653095883521203 ], [ -111.961839132424998, 40.653086808360598 ], [ -111.957873459416007, 40.653109499667501 ], [ -111.957846451566994, 40.649548763366603 ], [ -111.957846452466001, 40.645837230846702 ], [ -111.957846452466001, 40.645814884681599 ], [ -111.957848786289006, 40.644931131301803 ], [ -111.957643178987993, 40.644874401861202 ], [ -111.956923538614006, 40.644491468526198 ], [ -111.954250596994996, 40.643080268977997 ], [ -111.953699188615005, 40.642718598992701 ], [ -111.952839358955003, 40.642172545159198 ], [ -111.951409432364002, 40.641009508361698 ], [ -111.950007538598996, 40.639803898767298 ], [ -111.949353320731007, 40.639364200172999 ], [ -111.949157057706003, 40.639144349789902 ], [ -111.948960791087003, 40.638896132438198 ], [ -111.948817611308996, 40.638591175292802 ], [ -111.957817241948007, 40.638601370365201 ], [ -111.967390454081993, 40.638559123109403 ], [ -111.967344816969998, 40.632827781740197 ], [ -111.967338712019995, 40.631283737562597 ] ] ] } },
{ "type": "Feature", "properties": { "district": "5" }, "geometry": { "type": "Polygon", "coordinates": [ [ [ -111.978460720314999, 40.645819279621101 ], [ -111.978651544040005, 40.645821729963302 ], [ -111.979331971156, 40.645830465313402 ], [ -111.980316314500996, 40.645827945448602 ], [ -111.982095862706004, 40.645823370567904 ], [ -111.983825778093006, 40.645818890428998 ], [ -111.985045670486002, 40.645815721001497 ], [ -111.985832643183997, 40.645813666667102 ], [ -111.985972769588997, 40.645813302012499 ], [ -111.986318916518997, 40.645812201232701 ], [ -111.986494574885995, 40.6458116430045 ], [ -111.986942745280004, 40.645810614474001 ], [ -111.986943021960997, 40.645814946025297 ], [ -111.986942340138995, 40.646221598030003 ], [ -111.986978367074002, 40.646221636880803 ], [ -111.986978313175001, 40.646250472356101 ], [ -111.986973977006997, 40.648672830671799 ], [ -111.986962301603, 40.648869800170203 ], [ -111.986921643854004, 40.649130908330598 ], [ -111.986909967551, 40.649327876476903 ], [ -111.986903310136995, 40.6530031493065 ], [ -111.986903206831002, 40.653059177365002 ], [ -111.986904872306994, 40.6551297120089 ], [ -111.986905390635002, 40.655773989497 ], [ -111.986907938257005, 40.658939342314099 ], [ -111.986908068513003, 40.659100559978498 ], [ -111.986908775486995, 40.659982937254298 ], [ -111.986909043184994, 40.660311017045302 ], [ -111.986904837273002, 40.665541523934003 ], [ -111.986906155100996, 40.665674731236599 ], [ -111.986893160072, 40.665817821198303 ], [ -111.986887750418006, 40.6658773946818 ], [ -111.986882019166003, 40.665940509305202 ], [ -111.986861094708004, 40.666072778899199 ], [ -111.986834295269006, 40.6662044336178 ], [ -111.986740467134993, 40.666618886549102 ], [ -111.986738723504999, 40.666626582108997 ], [ -111.986680671676993, 40.666883005777997 ], [ -111.986631800629993, 40.6671554783536 ], [ -111.986616781696995, 40.667292524723003 ], [ -111.986608066241999, 40.667429886288097 ], [ -111.986607478744006, 40.667463555138902 ], [ -111.986606569648998, 40.667515475985397 ], [ -111.986606321714007, 40.667529761024902 ], [ -111.986605601264998, 40.667571044873903 ], [ -111.986591583055002, 40.6675700977625 ], [ -111.986591161744997, 40.6675701045762 ], [ -111.986138583319004, 40.667578097105803 ], [ -111.985356389657994, 40.667582506964898 ], [ -111.984425918279996, 40.667587747419702 ], [ -111.984363581487997, 40.667588097646501 ], [ -111.983143582194998, 40.6675570978054 ], [ -111.982797582589001, 40.6675570978054 ], [ -111.981853582582005, 40.667558097382901 ], [ -111.981763583068997, 40.667559096960403 ], [ -111.981650583090996, 40.667560097900598 ], [ -111.981418583288004, 40.667560096537798 ], [ -111.981205581954001, 40.667562097736798 ], [ -111.980567583167996, 40.667571098021199 ], [ -111.980355582556996, 40.667574097434297 ], [ -111.980088583492005, 40.667573097175698 ], [ -111.979290582177001, 40.667573097857101 ], [ -111.979024582937001, 40.667573097175698 ], [ -111.978738582706995, 40.667570098443903 ], [ -111.977883581491, 40.667562098418202 ], [ -111.977598581085005, 40.667560098582001 ], [ -111.977482580734005, 40.6675590976417 ], [ -111.977137582748995, 40.667556097546601 ], [ -111.977022583121993, 40.667555097287597 ], [ -111.977022510357997, 40.667555097969 ], [ -111.976531581054999, 40.6675570978054 ], [ -111.976455582683997, 40.667558098745602 ], [ -111.975426560729005, 40.667564160940799 ], [ -111.974757579946996, 40.667568097926498 ], [ -111.974191581130995, 40.667572096917098 ], [ -111.973819579788994, 40.667574098115701 ], [ -111.97326557977, 40.667578097787199 ], [ -111.972705581699998, 40.667579098045699 ], [ -111.972334581081, 40.667580097622903 ], [ -111.972045582274006, 40.667581098562799 ], [ -111.971181579939, 40.667588098327798 ], [ -111.970909579953002, 40.667590099526002 ], [ -111.970893580058998, 40.667590098844599 ], [ -111.970207580693994, 40.667592097317197 ], [ -111.968149580802006, 40.667602098537103 ], [ -111.967464844469006, 40.667605097948801 ], [ -111.967464789670998, 40.667605097267398 ], [ -111.967464673788996, 40.667605098630197 ], [ -111.967464579465997, 40.667605097948801 ], [ -111.966859580291, 40.667606099569703 ], [ -111.965045579898998, 40.667613098650698 ], [ -111.964441578752997, 40.667616098743402 ], [ -111.964176578438995, 40.667616098743402 ], [ -111.963511963469003, 40.667617071746299 ], [ -111.963493578549006, 40.667617099001298 ], [ -111.963384579666993, 40.667618098577897 ], [ -111.963121579003001, 40.667620099093803 ], [ -111.962955579321999, 40.667620099775199 ], [ -111.962458580103004, 40.667621099351699 ], [ -111.962293579348, 40.667622098928199 ], [ -111.962084578212, 40.667622098928199 ], [ -111.961458578223002, 40.667623099867498 ], [ -111.961250577811001, 40.667624099443998 ], [ -111.961033578973996, 40.667624099443998 ], [ -111.960381577248995, 40.667625099020398 ], [ -111.960165578238005, 40.667626099959698 ], [ -111.959726579643004, 40.667628099793902 ], [ -111.958412577046005, 40.667634099296301 ], [ -111.957974578275994, 40.667637099388003 ], [ -111.957987577796999, 40.668982098508202 ], [ -111.957987578694997, 40.669044100257899 ], [ -111.957989577446995, 40.669160100343497 ], [ -111.957992577819994, 40.669502100055901 ], [ -111.958004579312004, 40.6706740986752 ], [ -111.958014579357993, 40.671670099458098 ], [ -111.958014578459, 40.6717310991936 ], [ -111.958032578002999, 40.673380100597299 ], [ -111.958036579099002, 40.6737301011173 ], [ -111.958044184236002, 40.674520922037203 ], [ -111.958047578969996, 40.674874099604402 ], [ -111.958048579692999, 40.674932100051898 ], [ -111.958052578993005, 40.6752541006786 ], [ -111.958052578993005, 40.675369100720197 ], [ -111.958052578093998, 40.675717100064197 ], [ -111.958052579891003, 40.675833099441903 ], [ -111.958052578993005, 40.676269101570398 ], [ -111.958052578993005, 40.677577100385598 ], [ -111.958053580614006, 40.678014100067102 ], [ -111.958051579168, 40.678339099725001 ], [ -111.958048578795001, 40.679317099658398 ], [ -111.958047578969996, 40.679644099931402 ], [ -111.958045578422002, 40.679782100952899 ], [ -111.958043578772006, 40.680199101148297 ], [ -111.958043579670004, 40.680338100406701 ], [ -111.958042578047994, 40.680367100984803 ], [ -111.958036574606993, 40.681619766770901 ], [ -111.958034580347999, 40.682036101492102 ], [ -111.958033581421006, 40.682059100402697 ], [ -111.958033579624001, 40.6821281011742 ], [ -111.958033581421006, 40.682151213817797 ], [ -111.958033581421006, 40.682152102136598 ], [ -111.957992862585996, 40.682151944773402 ], [ -111.957774580057006, 40.682151101415499 ], [ -111.956998579380993, 40.682150100013097 ], [ -111.956740579639003, 40.682150100694301 ], [ -111.956672578967996, 40.6821491006543 ], [ -111.956469580375, 40.682149101335497 ], [ -111.956402580428005, 40.682149102016801 ], [ -111.956382579437999, 40.682149102016801 ], [ -111.956324578814005, 40.682149102016801 ], [ -111.956305579445001, 40.682149102016801 ], [ -111.956100580303996, 40.682148101295603 ], [ -111.955486578214007, 40.682147101255602 ], [ -111.955282579797, 40.682147101255602 ], [ -111.955203581052004, 40.682147101936799 ], [ -111.954967578356005, 40.682147100574397 ], [ -111.954889579435999, 40.682147101255602 ], [ -111.954756579367, 40.682146101896798 ], [ -111.954358578983005, 40.682145100494402 ], [ -111.954226579636995, 40.682145101856797 ], [ -111.953713577830001, 40.682144101816803 ], [ -111.952174578694994, 40.6821411003341 ], [ -111.951663157921999, 40.6821411003341 ], [ -111.951671991056998, 40.682003863083999 ], [ -111.951680392998995, 40.681873390836401 ], [ -111.951759947800994, 40.681234865749097 ], [ -111.951845602163004, 40.680494214927698 ], [ -111.951938248112995, 40.679840488167798 ], [ -111.951992226981005, 40.679347425721303 ], [ -111.952045143141007, 40.679073333882997 ], [ -111.952154065665994, 40.678509128963803 ], [ -111.952235373978993, 40.678087952926496 ], [ -111.952378676826001, 40.677451761730701 ], [ -111.952578609469001, 40.676256295431998 ], [ -111.952612276528995, 40.6760476600152 ], [ -111.952681654317004, 40.675617679067798 ], [ -111.952737929278001, 40.675004770865002 ], [ -111.952796497638005, 40.673728160740303 ], [ -111.952782165016998, 40.673079786158603 ], [ -111.952760165276004, 40.671614425653303 ], [ -111.952788486461998, 40.670506515923499 ], [ -111.952803095763002, 40.6701771385748 ], [ -111.952799822301998, 40.670041651611101 ], [ -111.952777135350004, 40.669102814390598 ], [ -111.952804072231999, 40.667992549676903 ], [ -111.952798190962, 40.667719262873 ], [ -111.952794056016998, 40.667527107748498 ], [ -111.952789895020004, 40.667334969786197 ], [ -111.952787504602995, 40.667224564732997 ], [ -111.952791025101007, 40.664718162364402 ], [ -111.952792261183006, 40.6644448471516 ], [ -111.952807586440997, 40.6610609177756 ], [ -111.95279723246, 40.660338195281298 ], [ -111.952766567569, 40.657742050998799 ], [ -111.952765629728006, 40.653566477567999 ], [ -111.952748004781995, 40.653029441131402 ], [ -111.954757148, 40.653045966714998 ], [ -111.957873459416007, 40.653109499667501 ], [ -111.961839132424998, 40.653086808360598 ], [ -111.965104980098999, 40.653095883521203 ], [ -111.967391322751993, 40.653093292370798 ], [ -111.968364182933996, 40.653092186940498 ], [ -111.968369578215004, 40.653092180806802 ], [ -111.969094578837002, 40.653091345259597 ], [ -111.973945500235999, 40.653086806315997 ], [ -111.976951466195999, 40.653077137547598 ], [ -111.976951464398994, 40.653077095293099 ], [ -111.976948463127997, 40.652915754028598 ], [ -111.977022105217998, 40.652696473739198 ], [ -111.977099070177005, 40.652570502203297 ], [ -111.977180839325001, 40.6524620239298 ], [ -111.977201710783007, 40.652431742887799 ], [ -111.977294218392004, 40.652297533185802 ], [ -111.977354964268002, 40.652192049121098 ], [ -111.977390275245995, 40.652119059707601 ], [ -111.977384532315995, 40.651299642831603 ], [ -111.977388711279005, 40.650944440948599 ], [ -111.977387954896997, 40.6509444354962 ], [ -111.977389579051007, 40.6507890948632 ], [ -111.977391578701003, 40.650662096041501 ], [ -111.977391580497994, 40.650524096092603 ], [ -111.977391578701003, 40.6501120955744 ], [ -111.977392579424006, 40.649975095010497 ], [ -111.977385579751996, 40.649777095534397 ], [ -111.977367578412, 40.649184095478503 ], [ -111.977361579461999, 40.648987094874201 ], [ -111.977364578039001, 40.648717094419503 ], [ -111.977376578632004, 40.647909095786702 ], [ -111.977381578654999, 40.647640095617298 ], [ -111.977381577757001, 40.647498096722501 ], [ -111.977382578480004, 40.647074095267499 ], [ -111.977383579203007, 40.646933095054898 ], [ -111.977380578829994, 40.646780095197798 ], [ -111.977374578083996, 40.646321094884897 ], [ -111.977372579332993, 40.646169095567501 ], [ -111.977289577695004, 40.646166095191901 ], [ -111.977041578897001, 40.646159095223602 ], [ -111.976959577982996, 40.646157096108901 ], [ -111.976949579733002, 40.645823095202601 ], [ -111.978006000304006, 40.6458248012406 ], [ -111.978024019610999, 40.645824830549202 ], [ -111.978064111422, 40.645824895300997 ], [ -111.978188578393997, 40.645825095009002 ], [ -111.978404580101, 40.6458210953963 ], [ -111.978409396866994, 40.645832199978202 ], [ -111.978426422637, 40.645827914095101 ], [ -111.978460720314999, 40.645819279621101 ] ] ] } }
]
}
