{
"type": "FeatureCollection",
"crs": { "type": "name", "properties": { "name": "urn:ogc:def:crs:OGC:1.3:CRS84" } },
"features": [
{ "type": "Feature", "properties": { "district": "1" }, "geometry": { "type": "MultiPolygon", "coordinates": [ [ [ [ -111.977022518442993, 40.667331686227797 ], [ -111.977022523833, 40.667220729252499 ], [ -111.977022548087007, 40.666665926615899 ], [ -111.977020551132995, 40.666538421765601 ], [ -111.977009504549002, 40.6658330421538 ], [ -111.977021424295003, 40.665558455255699 ], [ -111.977005027345996, 40.663875957062899 ], [ -111.977010381305007, 40.661161262703899 ], [ -111.976997296445006, 40.660847089912501 ], [ -111.976993203719999, 40.659820161873597 ], [ -111.976998820885996, 40.659284020785201 ], [ -111.976999801846006, 40.658528754648501 ], [ -111.976985780941007, 40.657823228994801 ], [ -111.976988530683997, 40.657258883105399 ], [ -111.977005655268002, 40.657027700682399 ], [ -111.976995917530999, 40.656975368233397 ], [ -111.976992677308004, 40.656069977382799 ], [ -111.976960629011003, 40.655394826743802 ], [ -111.976959794476997, 40.655275320929498 ], [ -111.976956021551999, 40.654279883569501 ], [ -111.976951539856998, 40.653096978047103 ], [ -111.976951513806, 40.653089402918901 ], [ -111.976951466195999, 40.653077137547598 ], [ -111.976951464398994, 40.653077095293099 ], [ -111.976951580282005, 40.653077095293099 ], [ -111.977074459931004, 40.653076536444097 ], [ -111.977094197713996, 40.653076660481297 ], [ -111.977091349157007, 40.653251885311903 ], [ -111.977083013688997, 40.653258267077803 ], [ -111.977085063645006, 40.6537578155652 ], [ -111.977086691392003, 40.654156164013202 ], [ -111.977087196244995, 40.654279679797703 ], [ -111.979184704043007, 40.6542764398949 ], [ -111.979182019877001, 40.653625706923101 ], [ -111.979556832946002, 40.653625124907101 ], [ -111.980759917859999, 40.653623244600098 ], [ -111.980914415512999, 40.653623012202601 ], [ -111.981330052519994, 40.653622384524901 ], [ -111.981368290207996, 40.653622326595901 ], [ -111.981511209475002, 40.653622110554799 ], [ -111.981485580539996, 40.653554096426298 ], [ -111.981311580463, 40.653103095397 ], [ -111.981309430793999, 40.653097972389098 ], [ -111.981403285876993, 40.653097388323999 ], [ -111.981422022038998, 40.653097272465097 ], [ -111.981552643369, 40.653096459408097 ], [ -111.983813018423007, 40.6530831431295 ], [ -111.984027857710004, 40.653081877540998 ], [ -111.985173373189994, 40.6530751284172 ], [ -111.985173408224995, 40.653090163498597 ], [ -111.985173432479002, 40.653100476304402 ], [ -111.985173673228005, 40.653203908915202 ], [ -111.985173745991005, 40.653234918834798 ], [ -111.985173769347, 40.653244741604297 ], [ -111.985174443084006, 40.653533284217197 ], [ -111.985174930868993, 40.653744632995704 ], [ -111.985690306026001, 40.653743824717303 ], [ -111.985690365313999, 40.6537688261404 ], [ -111.985690412924995, 40.653788647351803 ], [ -111.985691134272003, 40.654099742961499 ], [ -111.985692326337002, 40.654613951191102 ], [ -111.985692921920005, 40.654871058249597 ], [ -111.985925827225003, 40.654870656843201 ], [ -111.985926606063998, 40.655131419853298 ], [ -111.986536012372994, 40.655130355346898 ], [ -111.986770640648004, 40.655129946445598 ], [ -111.986775968554994, 40.655129936904601 ], [ -111.986775579585, 40.655678894892901 ], [ -111.986523922846004, 40.6556793330952 ], [ -111.98623489709, 40.6556798387656 ], [ -111.985928269743994, 40.655680373058999 ], [ -111.985928850055998, 40.655872511883601 ], [ -111.985929269568999, 40.656012208592998 ], [ -111.985929310892004, 40.6560264736069 ], [ -111.985929658540002, 40.6561415020373 ], [ -111.985930501159999, 40.656421306337897 ], [ -111.985931291677005, 40.6566840661757 ], [ -111.985914030548997, 40.656684098205503 ], [ -111.985697061357001, 40.656684514593699 ], [ -111.985664513597001, 40.656684576609003 ], [ -111.985582165034998, 40.656684734032297 ], [ -111.985582181205004, 40.656695768657897 ], [ -111.985582212645994, 40.656716697777497 ], [ -111.985587539655, 40.660312351323 ], [ -111.985587621402004, 40.6603652522084 ], [ -111.985587957372005, 40.660582295999198 ], [ -111.985503772653004, 40.660582287821903 ], [ -111.985504678154996, 40.661002184978301 ], [ -111.985505291704996, 40.661287588722502 ], [ -111.985505586352005, 40.661423784449198 ], [ -111.985508912813998, 40.6614237803606 ], [ -111.985511096617998, 40.661701296734599 ], [ -111.985512203341997, 40.661975771403299 ], [ -111.985512755805999, 40.662113010358503 ], [ -111.985513648731995, 40.662332580651302 ], [ -111.985514541656997, 40.662552149539998 ], [ -111.985515432786002, 40.662771719068701 ], [ -111.985516324813005, 40.662991288556 ], [ -111.985517383927004, 40.663252025957497 ], [ -111.985518553532998, 40.663540210474899 ], [ -111.985519219184994, 40.663704140633897 ], [ -111.985519877650006, 40.663704138589601 ], [ -111.985521060731003, 40.663978309965401 ], [ -111.985520892745996, 40.663978308602601 ], [ -111.985521172122006, 40.664164954532097 ], [ -111.985521460480996, 40.6643570893619 ], [ -111.985521805434004, 40.664586222609898 ], [ -111.985522141404005, 40.664809977435802 ], [ -111.985668767120004, 40.664809847287799 ], [ -111.986097930959005, 40.664809469109002 ], [ -111.986134914599006, 40.664809435720201 ], [ -111.986135185890006, 40.664987847994297 ], [ -111.986135457181007, 40.665166257065501 ], [ -111.986135459875996, 40.665168041651299 ], [ -111.986135729371, 40.665344668385103 ], [ -111.986136001560993, 40.665523078546002 ], [ -111.986136059052996, 40.665560681375297 ], [ -111.986136272851994, 40.665701488229701 ], [ -111.985887013717004, 40.665701706275797 ], [ -111.985891808923995, 40.666021467455799 ], [ -111.986194913974998, 40.666268988386904 ], [ -111.986243224473, 40.666308438719902 ], [ -111.986571821916002, 40.666519417235598 ], [ -111.986602688926993, 40.6665392373842 ], [ -111.986619728170993, 40.666550176348601 ], [ -111.986653326959996, 40.666571748329702 ], [ -111.986740467134993, 40.666618886549102 ], [ -111.986738723504999, 40.666626582108997 ], [ -111.986680671676993, 40.666883005777997 ], [ -111.986631800629993, 40.6671554783536 ], [ -111.986616781696995, 40.667292524723003 ], [ -111.986608066241999, 40.667429886288097 ], [ -111.986607478744006, 40.667463555138902 ], [ -111.986606569648998, 40.667515475985397 ], [ -111.986606321714007, 40.667529761024902 ], [ -111.986605601264998, 40.667571044873903 ], [ -111.986591583055002, 40.6675700977625 ], [ -111.986591161744997, 40.6675701045762 ], [ -111.986138583319004, 40.667578097105803 ], [ -111.985356389657994, 40.667582506964898 ], [ -111.984425918279996, 40.667587747419702 ], [ -111.984363581487997, 40.667588097646501 ], [ -111.983143582194998, 40.6675570978054 ], [ -111.982797582589001, 40.6675570978054 ], [ -111.981853582582005, 40.667558097382901 ], [ -111.981763583068997, 40.667559096960403 ], [ -111.981650583090996, 40.667560097900598 ], [ -111.981418583288004, 40.667560096537798 ], [ -111.981205581954001, 40.667562097736798 ], [ -111.980567583167996, 40.667571098021199 ], [ -111.980355582556996, 40.667574097434297 ], [ -111.980088583492005, 40.667573097175698 ], [ -111.979290582177001, 40.667573097857101 ], [ -111.979024582937001, 40.667573097175698 ], [ -111.978738582706995, 40.667570098443903 ], [ -111.977883581491, 40.667562098418202 ], [ -111.977598581085005, 40.667560098582001 ], [ -111.977482580734005, 40.6675590976417 ], [ -111.977137582748995, 40.667556097546601 ], [ -111.977022583121993, 40.667555097287597 ], [ -111.977022510357997, 40.667555097969 ], [ -111.977022513950999, 40.667417863397901 ], [ -111.977022518442993, 40.667331686227797 ] ] ], [ [ [ -111.956740579639003, 40.682150100694301 ], [ -111.956672578967996, 40.6821491006543 ], [ -111.956469580375, 40.682149101335497 ], [ -111.956402580428005, 40.682149102016801 ], [ -111.956382579437999, 40.682149102016801 ], [ -111.956324578814005, 40.682149102016801 ], [ -111.956305579445001, 40.682149102016801 ], [ -111.956100580303996, 40.682148101295603 ], [ -111.955486578214007, 40.682147101255602 ], [ -111.955282579797, 40.682147101255602 ], [ -111.955203581052004, 40.682147101936799 ], [ -111.954967578356005, 40.682147100574397 ], [ -111.954889579435999, 40.682147101255602 ], [ -111.954756579367, 40.682146101896798 ], [ -111.954358578983005, 40.682145100494402 ], [ -111.954226579636995, 40.682145101856797 ], [ -111.953713577830001, 40.682144101816803 ], [ -111.952174578694994, 40.6821411003341 ], [ -111.951663157921999, 40.6821411003341 ], [ -111.951662577611003, 40.6821411003341 ], [ -111.951655282391997, 40.682141071722597 ], [ -111.95141657936, 40.682140100975303 ], [ -111.951337578818993, 40.682140100975303 ], [ -111.950679577246007, 40.682139102978802 ], [ -111.950434577023998, 40.682139102978802 ], [ -111.950038578087003, 40.6821381015762 ], [ -111.948892578414998, 40.682136101495999 ], [ -111.948850576785006, 40.682135102818201 ], [ -111.948455577673002, 40.682135102818201 ], [ -111.948131576910001, 40.682135102137003 ], [ -111.947162578586003, 40.682135102137003 ], [ -111.946839577646998, 40.682135102818201 ], [ -111.946737576641993, 40.682134102096803 ], [ -111.946434578489999, 40.682133102056603 ], [ -111.946333577309005, 40.682133102737801 ], [ -111.946106576630001, 40.6821321026977 ], [ -111.946000578121996, 40.682132102016404 ], [ -111.945426578010995, 40.682132101335199 ], [ -111.945200577156996, 40.682132102016404 ], [ -111.944723577131001, 40.682131101294999 ], [ -111.943295575630003, 40.682130101935897 ], [ -111.942819576326997, 40.682130102617201 ], [ -111.942301575395007, 40.682129101895697 ], [ -111.940747576191001, 40.682128102536701 ], [ -111.940701577059002, 40.682128101855398 ], [ -111.940230575982, 40.682128101855398 ], [ -111.939962576194006, 40.682128102536701 ], [ -111.939637672624002, 40.682128103899103 ], [ -111.939158575031001, 40.682128101855398 ], [ -111.938902392580005, 40.682128103217799 ], [ -111.938891575067998, 40.682128102536701 ], [ -111.938891310065003, 40.682128096405599 ], [ -111.938891665797996, 40.682119867190799 ], [ -111.938892217363005, 40.681990807355398 ], [ -111.938899360766001, 40.680322157236297 ], [ -111.938893356427002, 40.679687471127899 ], [ -111.938881372900994, 40.678421491190697 ], [ -111.938881372900994, 40.6765025799955 ], [ -111.938881374697999, 40.675224793336398 ], [ -111.938887372748994, 40.673765083763001 ], [ -111.939930095807995, 40.673790919101997 ], [ -111.940377068746997, 40.673861699840202 ], [ -111.941224349842003, 40.674157856823498 ], [ -111.942783841345005, 40.674679387048798 ], [ -111.943866888879, 40.675040731868201 ], [ -111.944338419063001, 40.675148761921697 ], [ -111.944785393798995, 40.675199051890601 ], [ -111.945433748363996, 40.675195325195098 ], [ -111.946371897643004, 40.675193463891098 ], [ -111.947766228491005, 40.675201147560699 ], [ -111.947889025495002, 40.675189504872797 ], [ -111.948433924682007, 40.675093465054204 ], [ -111.948439756545, 40.675359233517803 ], [ -111.94844221164, 40.675400210024598 ], [ -111.948447709329997, 40.6753997542381 ], [ -111.948448979548004, 40.675539876737602 ], [ -111.948455245296998, 40.676239718370297 ], [ -111.948445046722995, 40.676814846394002 ], [ -111.948474344377999, 40.677552203945503 ], [ -111.948449032547998, 40.677956991356901 ], [ -111.948441298053993, 40.678516347629802 ], [ -111.948567508655998, 40.678511655769498 ], [ -111.948857527949002, 40.678511459565698 ], [ -111.948924350927996, 40.678511415283602 ], [ -111.949068673363001, 40.678511317181602 ], [ -111.949084732545003, 40.678511305600203 ], [ -111.949426472341003, 40.6785110732894 ], [ -111.949580635819999, 40.678510968374802 ], [ -111.949587050689004, 40.678510962924697 ], [ -111.949715795439005, 40.678510876404303 ], [ -111.949724845966003, 40.678510869591697 ], [ -111.949731260834994, 40.678510865504101 ], [ -111.949851032314001, 40.6785107837525 ], [ -111.949857447183007, 40.678510777621099 ], [ -111.949977216864994, 40.678510696550703 ], [ -111.949983631734995, 40.678510691781902 ], [ -111.949994301922999, 40.678510684969297 ], [ -111.950103400518003, 40.678510609348997 ], [ -111.950109814488997, 40.678510604580197 ], [ -111.950229585968003, 40.678510522828603 ], [ -111.950236000836995, 40.678510518059802 ], [ -111.950272810203998, 40.678510493534297 ], [ -111.950355770518996, 40.6785104349457 ], [ -111.950362184490004, 40.678510431539301 ], [ -111.950481954172005, 40.678510348425199 ], [ -111.950488369042006, 40.678510344337603 ], [ -111.950551319382996, 40.678510300736697 ], [ -111.950608139622005, 40.678510260542197 ], [ -111.950614552695001, 40.678510256454601 ], [ -111.950734325970004, 40.678510174021802 ], [ -111.950740739940997, 40.678510169934199 ], [ -111.950829824070993, 40.678510107257999 ], [ -111.950860508724006, 40.6785100861388 ], [ -111.950866923594006, 40.67851008137 ], [ -111.950986693275993, 40.678509997574601 ], [ -111.950993108144999, 40.678509993486998 ], [ -111.951112879624006, 40.678509911735397 ], [ -111.951119292697001, 40.678509905604002 ], [ -111.951226423980998, 40.678509830665099 ], [ -111.951239064174999, 40.6785098224899 ], [ -111.951245477247994, 40.6785098177211 ], [ -111.951465247387006, 40.678509476408102 ], [ -111.951481487131005, 40.6785094512014 ], [ -111.951602774966005, 40.678509262491502 ], [ -111.952154065665994, 40.678509128963803 ], [ -111.952235373978993, 40.678087952926496 ], [ -111.952378676826001, 40.677451761730701 ], [ -111.952578609469001, 40.676256295431998 ], [ -111.952612276528995, 40.6760476600152 ], [ -111.952681654317004, 40.675617679067798 ], [ -111.952737929278001, 40.675004770865002 ], [ -111.952796497638005, 40.673728160740303 ], [ -111.952782165016998, 40.673079786158603 ], [ -111.952760165276004, 40.671614425653303 ], [ -111.952788486461998, 40.670506515923499 ], [ -111.952803095763002, 40.6701771385748 ], [ -111.952799822301998, 40.670041651611101 ], [ -111.952777135350004, 40.669102814390598 ], [ -111.952804072231999, 40.667992549676903 ], [ -111.952798190962, 40.667719262873 ], [ -111.952794056016998, 40.667527107748498 ], [ -111.952794158424993, 40.667527108429901 ], [ -111.952798625746993, 40.6675271288712 ], [ -111.953216577711999, 40.667529100090597 ], [ -111.953322576220998, 40.6675300989872 ], [ -111.953370576799998, 40.667531099246403 ], [ -111.954490576533004, 40.667538099016703 ], [ -111.954915577579001, 40.667541100475397 ], [ -111.955158576355004, 40.667542099371801 ], [ -111.955890576648997, 40.667547099304301 ], [ -111.956000577151997, 40.667548098881902 ], [ -111.956105575836006, 40.667631098523103 ], [ -111.956478576104999, 40.667632100143599 ], [ -111.957600578183005, 40.667635098872601 ], [ -111.957600574588994, 40.667635907664099 ], [ -111.957832441441994, 40.667636639460298 ], [ -111.957884461982005, 40.667636809122499 ], [ -111.957974578275994, 40.667637099388003 ], [ -111.957987577796999, 40.668982098508202 ], [ -111.957987578694997, 40.669044100257899 ], [ -111.957989577446995, 40.669160100343497 ], [ -111.957992577819994, 40.669502100055901 ], [ -111.958004579312004, 40.6706740986752 ], [ -111.958014579357993, 40.671670099458098 ], [ -111.958014578459, 40.6717310991936 ], [ -111.958032578002999, 40.673380100597299 ], [ -111.958036579099002, 40.6737301011173 ], [ -111.958044184236002, 40.674520922037203 ], [ -111.958047578969996, 40.674874099604402 ], [ -111.958048579692999, 40.674932100051898 ], [ -111.958052578993005, 40.6752541006786 ], [ -111.958052578993005, 40.675369100720197 ], [ -111.958052578093998, 40.675717100064197 ], [ -111.958052579891003, 40.675833099441903 ], [ -111.958052578993005, 40.676269101570398 ], [ -111.958052578993005, 40.677577100385598 ], [ -111.958053580614006, 40.678014100067102 ], [ -111.958051579168, 40.678339099725001 ], [ -111.958048578795001, 40.679317099658398 ], [ -111.958047578969996, 40.679644099931402 ], [ -111.958045578422002, 40.679782100952899 ], [ -111.958043578772006, 40.680199101148297 ], [ -111.958043579670004, 40.680338100406701 ], [ -111.958042578047994, 40.680367100984803 ], [ -111.958036574606993, 40.681619766770901 ], [ -111.958034580347999, 40.682036101492102 ], [ -111.958033581421006, 40.682059100402697 ], [ -111.958033579624001, 40.6821281011742 ], [ -111.958033581421006, 40.682151213817797 ], [ -111.958033581421006, 40.682152102136598 ], [ -111.957992862585996, 40.682151944773402 ], [ -111.957774580057006, 40.682151101415499 ], [ -111.956998579380993, 40.682150100013097 ], [ -111.956740579639003, 40.682150100694301 ] ] ], [ [ [ -111.916915571741001, 40.6849141047621 ], [ -111.916908570272, 40.684814103476498 ], [ -111.917281573235996, 40.6839961046024 ], [ -111.917303572079007, 40.683810103425799 ], [ -111.916976571839996, 40.683692104270797 ], [ -111.916534607008998, 40.683512380979003 ], [ -111.916194570418995, 40.683374103614199 ], [ -111.915160570899999, 40.683051104033403 ], [ -111.914717571208996, 40.683048105316502 ], [ -111.914045570290995, 40.683240104674098 ], [ -111.913826571803995, 40.6833031040874 ], [ -111.913424570325006, 40.683294103882901 ], [ -111.913331569540006, 40.683250104228101 ], [ -111.913007569675003, 40.682775104340799 ], [ -111.912517571026996, 40.682372105787699 ], [ -111.912359569944996, 40.682229105166101 ], [ -111.912359376807004, 40.682228928728698 ], [ -111.912203570309003, 40.682087104959798 ], [ -111.912167569426003, 40.682063103974002 ], [ -111.912135570537004, 40.681997105305697 ], [ -111.912223571298995, 40.681758104317304 ], [ -111.912252569814996, 40.681704103864099 ], [ -111.912380569861, 40.681551105408097 ], [ -111.912470571170999, 40.681391104879403 ], [ -111.912484570516995, 40.681068103863801 ], [ -111.912489570540004, 40.680971105155599 ], [ -111.912450570180994, 40.6809121037724 ], [ -111.912267568985001, 40.680629104321099 ], [ -111.912081571008997, 40.680393104076501 ], [ -111.911798570252998, 40.680037103362302 ], [ -111.911762569369998, 40.679991104819102 ], [ -111.911742569278999, 40.679918104266797 ], [ -111.911733417242004, 40.679884109936197 ], [ -111.911707570017001, 40.679788104130502 ], [ -111.911707557439996, 40.679788057805503 ], [ -111.911679570428007, 40.6796871046147 ], [ -111.911679690802004, 40.679684553328599 ], [ -111.911689285706998, 40.679484087331502 ], [ -111.911708569842006, 40.679081104306398 ], [ -111.911809568327001, 40.6787931034428 ], [ -111.911975568906996, 40.678318103813403 ], [ -111.912029569333995, 40.677996103678701 ], [ -111.911914567908994, 40.677631104182097 ], [ -111.911876570969, 40.677508104441003 ], [ -111.911794570954001, 40.677409104417997 ], [ -111.911486569185001, 40.677233104392698 ], [ -111.911038567675007, 40.677076104067098 ], [ -111.911027619907003, 40.677071688023098 ], [ -111.910510568494004, 40.676863104210099 ], [ -111.910178568232993, 40.676577103549299 ], [ -111.909933568908997, 40.676252102795601 ], [ -111.909791569516997, 40.675980104095601 ], [ -111.909216568682993, 40.675585105084501 ], [ -111.909091569010002, 40.6755571046087 ], [ -111.908572569151005, 40.675440104610203 ], [ -111.908103568623005, 40.675283104149798 ], [ -111.908009569810005, 40.675125103174402 ], [ -111.907991568469996, 40.6750951042578 ], [ -111.907975568576006, 40.674841104895201 ], [ -111.907958567061002, 40.674821103943998 ], [ -111.907966385099002, 40.674810681400203 ], [ -111.908063044721999, 40.674825508555003 ], [ -111.908155944895, 40.674839760007401 ], [ -111.90862507029, 40.674911723731697 ], [ -111.909306851165994, 40.674992711869002 ], [ -111.910144700847994, 40.675023862227 ], [ -111.910883979293004, 40.675011401268002 ], [ -111.911442544549999, 40.674942873446199 ], [ -111.912288608427005, 40.6747871288159 ], [ -111.913561813136994, 40.674438255954001 ], [ -111.915689292325993, 40.6738651070755 ], [ -111.919057120343993, 40.672986681833102 ], [ -111.922531730201001, 40.672058405120097 ], [ -111.922856395718, 40.672761518214301 ], [ -111.9229360673, 40.6729411655691 ], [ -111.922994207163995, 40.673192671052597 ], [ -111.923119098141001, 40.673751206121104 ], [ -111.923222456500994, 40.6740027092305 ], [ -111.923380186291993, 40.674267787109201 ], [ -111.923595517856, 40.674520410377703 ], [ -111.923874774433003, 40.6747730333704 ], [ -111.924487121826004, 40.675168552934899 ], [ -111.924736096195005, 40.675331861783199 ], [ -111.925038904803003, 40.675426275688999 ], [ -111.925220591764003, 40.6754160692102 ], [ -111.926795195625004, 40.675418621341002 ], [ -111.928221760720007, 40.675423724920996 ], [ -111.929321966974996, 40.675413515716698 ], [ -111.929320282633995, 40.676519995652001 ], [ -111.929325540473002, 40.678369933093798 ], [ -111.929333778024002, 40.679597426677397 ], [ -111.929336054355005, 40.679936758222503 ], [ -111.929346390370995, 40.681837176014199 ], [ -111.929462992593002, 40.681836294503398 ], [ -111.929494693240997, 40.681836289053599 ], [ -111.929732753078994, 40.681836248861103 ], [ -111.929979938903003, 40.681836204581202 ], [ -111.930159562434, 40.681836171882203 ], [ -111.930159596569993, 40.681842705552398 ], [ -111.930160301746994, 40.681972337224799 ], [ -111.930161439014, 40.682181211603002 ], [ -111.930162580773001, 40.6823906384802 ], [ -111.930163721634003, 40.682600065380697 ], [ -111.930164932563002, 40.682822941617303 ], [ -111.930165249667994, 40.682881145645702 ], [ -111.930346563827996, 40.683071494896303 ], [ -111.930348806921998, 40.683483353839499 ], [ -111.930335702297995, 40.683498637521403 ], [ -111.930326102901006, 40.683515361282304 ], [ -111.930320275529994, 40.683533065303102 ], [ -111.930318381880994, 40.683551259110502 ], [ -111.930320473159, 40.683569441332303 ], [ -111.930326493668005, 40.683587107190903 ], [ -111.930336275423002, 40.683603770301701 ], [ -111.930349546235007, 40.683618969485799 ], [ -111.930351548580006, 40.683986345626501 ], [ -111.930376038451001, 40.683985903522903 ], [ -111.930585844476994, 40.683982111241399 ], [ -111.930586151700993, 40.684054650253302 ], [ -111.930588216928001, 40.684302905340097 ], [ -111.930348574258005, 40.684354103941097 ], [ -111.929361573695999, 40.684566103019598 ], [ -111.929337931833999, 40.684572485195602 ], [ -111.928698573896995, 40.684745104123301 ], [ -111.928618573530997, 40.684761102775198 ], [ -111.926365573645, 40.6852331035143 ], [ -111.925636972576001, 40.685386390518701 ], [ -111.925614573084999, 40.685391103693199 ], [ -111.925518572824998, 40.685410104888099 ], [ -111.925232573493005, 40.6854701043234 ], [ -111.925137572161006, 40.685491104112998 ], [ -111.925061572890996, 40.685506103277497 ], [ -111.924836574557006, 40.6855541034422 ], [ -111.924761573314996, 40.685570103943498 ], [ -111.924032572496003, 40.6857241047407 ], [ -111.923745573339005, 40.6857851038788 ], [ -111.922955573319001, 40.6859501033112 ], [ -111.921844572008993, 40.686182103035897 ], [ -111.921365573231995, 40.686283104290297 ], [ -111.921284573939005, 40.686300104594302 ], [ -111.921199571754002, 40.686318103509102 ], [ -111.921115572987006, 40.686335104485302 ], [ -111.921109100625003, 40.686327924131199 ], [ -111.921051573412996, 40.686264103344399 ], [ -111.920662572352001, 40.685936104911001 ], [ -111.920216574085003, 40.685742105173397 ], [ -111.919521570905999, 40.685710103568198 ], [ -111.918949571343006, 40.685610104839398 ], [ -111.918540571988004, 40.685539104969699 ], [ -111.918030571450998, 40.685543104925998 ], [ -111.917596571082996, 40.685585104452599 ], [ -111.917319570174996, 40.685568104647402 ], [ -111.917050572359003, 40.685449105889603 ], [ -111.916938571307, 40.685214105675001 ], [ -111.916915571741001, 40.6849141047621 ] ] ] ] } },
{ "type": "Feature", "properties": { "district": "2" }, "geometry": { "type": "Polygon", "coordinates": [ [ [ -111.929111569857, 40.6522250993361 ], [ -111.929089570116005, 40.652093099430701 ], [ -111.929154569515006, 40.651912100318199 ], [ -111.929248569226004, 40.651780099112102 ], [ -111.929529568535003, 40.651571100871202 ], [ -111.929622570218001, 40.6514511002256 ], [ -111.929627570240996, 40.651425099477898 ], [ -111.929713863306006, 40.6514285337581 ], [ -111.929828570981002, 40.651433099394403 ], [ -111.929849570897005, 40.651212098790801 ], [ -111.929555570271006, 40.650399098480399 ], [ -111.929342570733994, 40.649842100352998 ], [ -111.929306471036, 40.649529660622299 ], [ -111.929255570695005, 40.649089099169103 ], [ -111.929262570367996, 40.649003100743499 ], [ -111.929272567718996, 40.648863100374697 ], [ -111.929304570200998, 40.648445099278703 ], [ -111.929315569172999, 40.648306098968398 ], [ -111.929310568252006, 40.648122100201199 ], [ -111.929327411664005, 40.647979638860797 ], [ -111.929354569531, 40.647795100065998 ], [ -111.929416583828996, 40.647627577741702 ], [ -111.929431569523999, 40.647587099444301 ], [ -111.929496569822007, 40.6474150986109 ], [ -111.929475569006996, 40.647391098094801 ], [ -111.929412570156003, 40.647319099221001 ], [ -111.929392569165998, 40.647295098670398 ], [ -111.929529569433996, 40.647217099036403 ], [ -111.930184568835998, 40.647018098307598 ], [ -111.930416570437004, 40.646948099485797 ], [ -111.930769568816999, 40.6467830996353 ], [ -111.930870569998007, 40.646713099203801 ], [ -111.931110568400996, 40.646548100135497 ], [ -111.931433570237999, 40.646245099359099 ], [ -111.931554567917004, 40.646072098575502 ], [ -111.931697568930005, 40.645865098620597 ], [ -111.931804570856997, 40.6456210980962 ], [ -111.931927568185998, 40.645336099681302 ], [ -111.932031568840998, 40.645097098156697 ], [ -111.932082569792996, 40.644916099153299 ], [ -111.932082568894998, 40.644789098697103 ], [ -111.932079568521999, 40.644724098498997 ], [ -111.932056569853998, 40.644526099120199 ], [ -111.932056343477996, 40.644524616617304 ], [ -111.932056334495002, 40.644524549819401 ], [ -111.932176170651999, 40.6445280130824 ], [ -111.932225033614003, 40.644529425379297 ], [ -111.932497364179994, 40.6445373163833 ], [ -111.933535734003996, 40.644534365691797 ], [ -111.934001519462001, 40.6445329152249 ], [ -111.935417031686001, 40.644528506568399 ], [ -111.937592698303007, 40.644521731359902 ], [ -111.937615820939001, 40.644521054520602 ], [ -111.937640936936006, 40.644521579360699 ], [ -111.937641487603003, 40.644521576634297 ], [ -111.938196343716996, 40.644519811262903 ], [ -111.938673300622995, 40.644519347767698 ], [ -111.938712491423999, 40.644519298691797 ], [ -111.938802571785999, 40.644519188270898 ], [ -111.938892666520999, 40.644519100343103 ], [ -111.938964748238007, 40.644519026047497 ], [ -111.940146475706001, 40.644517842090004 ], [ -111.941058494789004, 40.644535773899001 ], [ -111.941640804315995, 40.644544290620502 ], [ -111.942132015690007, 40.644574501627801 ], [ -111.942532128012004, 40.644615759468998 ], [ -111.942967409377999, 40.644667532468603 ], [ -111.943395803361, 40.644746065373504 ], [ -111.943620541184004, 40.644782599566298 ], [ -111.943803225275005, 40.644824673844603 ], [ -111.944358091270004, 40.644934783348603 ], [ -111.944800454952997, 40.645052003857799 ], [ -111.944940098961993, 40.645089006145497 ], [ -111.945173253101004, 40.645150789498501 ], [ -111.946293285173994, 40.645565562723498 ], [ -111.947052181925997, 40.645874537372798 ], [ -111.947081244222005, 40.645886369209499 ], [ -111.947756996503998, 40.645895055476103 ], [ -111.948099214202998, 40.645873893263897 ], [ -111.948345625678996, 40.6458737167303 ], [ -111.948352484316004, 40.645873711277602 ], [ -111.948354821733005, 40.645873710596 ], [ -111.948363929750997, 40.645873703098403 ], [ -111.948643690284001, 40.645873503390497 ], [ -111.948692129240001, 40.645873466584298 ], [ -111.948826986127997, 40.645873371160803 ], [ -111.948878658121004, 40.645873173497698 ], [ -111.948834932625005, 40.645834710300498 ], [ -111.948905111708996, 40.645834441069702 ], [ -111.949047422817003, 40.645833898518298 ], [ -111.949116944335003, 40.645832607573297 ], [ -111.949124760575998, 40.645832463074697 ], [ -111.949980604412005, 40.6458330151684 ], [ -111.950175463370002, 40.645833140582297 ], [ -111.950212539537006, 40.645833165119797 ], [ -111.950549170613002, 40.645832546911201 ], [ -111.950620060266004, 40.645832415362896 ], [ -111.950660500623002, 40.645832341750399 ], [ -111.950959563256006, 40.645832598712602 ], [ -111.950964195867996, 40.645832602802201 ], [ -111.951582018492999, 40.6458331330847 ], [ -111.951622287272002, 40.645833166483001 ], [ -111.952035827610999, 40.645833519550301 ], [ -111.952066082870004, 40.645833545450998 ], [ -111.952106353445998, 40.645833579530901 ], [ -111.952458870330005, 40.645833878752001 ], [ -111.952499138210996, 40.645833913513499 ], [ -111.952801206605997, 40.645834168430802 ], [ -111.952841478080998, 40.645834203192202 ], [ -111.953107506964997, 40.645834420621803 ], [ -111.953118318189993, 40.645834427437698 ], [ -111.953377766016999, 40.645834586249897 ], [ -111.953412692515002, 40.645834614876897 ], [ -111.953648030457998, 40.645834753241203 ], [ -111.953709983669995, 40.645834797545 ], [ -111.953918241001006, 40.645834918869298 ], [ -111.954007274825003, 40.645834974078603 ], [ -111.954260638362996, 40.645835127437998 ], [ -111.954304566879003, 40.645835155383502 ], [ -111.954566939619994, 40.645835312150801 ], [ -111.954601858033996, 40.645835336006698 ], [ -111.954873240878001, 40.645835496863597 ], [ -111.954899151884007, 40.645835515948399 ], [ -111.955179541237001, 40.645835681576401 ], [ -111.955196444834996, 40.6458356938452 ], [ -111.955485842493999, 40.645835864244503 ], [ -111.955493735990999, 40.645835871742001 ], [ -111.955791028044004, 40.645836050320497 ], [ -111.955792141955001, 40.6458360469125 ], [ -111.956115346811004, 40.645836239804503 ], [ -111.956331096989004, 40.645835734740999 ], [ -111.956331557824996, 40.645835736785799 ], [ -111.956673895, 40.645836083718699 ], [ -111.956998213766994, 40.645836412930201 ], [ -111.957322530737997, 40.6458367407784 ], [ -111.957720037046997, 40.6458371415575 ], [ -111.957745300368003, 40.645837193358901 ], [ -111.957846452466001, 40.645837230846702 ], [ -111.957846452466001, 40.645814884681599 ], [ -111.957848786289006, 40.644931131301803 ], [ -111.957943561245997, 40.644990881570997 ], [ -111.958000985153006, 40.645048974122901 ], [ -111.958062233186993, 40.645095447310197 ], [ -111.958138797497, 40.645147729777499 ], [ -111.958234499515996, 40.645217440124704 ], [ -111.958353170557999, 40.645310387595401 ], [ -111.958490980207003, 40.6454788543004 ], [ -111.958690043280995, 40.645844832017303 ], [ -111.95885060546, 40.645836868237097 ], [ -111.959491731282, 40.645837018869997 ], [ -111.960140370611995, 40.645837167458197 ], [ -111.961077292791998, 40.645837377390102 ], [ -111.962019839324995, 40.645837578461197 ], [ -111.962506666920007, 40.645837780895597 ], [ -111.962885737104997, 40.6458415337692 ], [ -111.962977513485995, 40.645879686154302 ], [ -111.963023452431003, 40.645809976498903 ], [ -111.963065561858997, 40.645626988477296 ], [ -111.963091865427998, 40.645555166961202 ], [ -111.965147971671996, 40.6455551683244 ], [ -111.965493774546999, 40.645477163930501 ], [ -111.966101260258, 40.645122599709097 ], [ -111.966512479350001, 40.644952406959703 ], [ -111.966811551865007, 40.644902766928297 ], [ -111.967362962040994, 40.644895674810698 ], [ -111.967431746939994, 40.645980077090897 ], [ -111.967502389556003, 40.645918270649801 ], [ -111.968392493340005, 40.645917208041098 ], [ -111.968950910375, 40.645916539395202 ], [ -111.968951157411993, 40.645984961405198 ], [ -111.969199951220006, 40.645987148645503 ], [ -111.969657487448004, 40.645983793831903 ], [ -111.969656926000994, 40.645835580700101 ], [ -111.970079402780996, 40.645835022471999 ], [ -111.970959624198997, 40.645833852851297 ], [ -111.971485427896994, 40.645833150124602 ], [ -111.972771470430999, 40.6458321065994 ], [ -111.973935916109994, 40.645830922665098 ], [ -111.975158496261997, 40.645829668526297 ], [ -111.975159824870005, 40.646953156852 ], [ -111.975194504331995, 40.646953016445302 ], [ -111.975195013676995, 40.6470243804768 ], [ -111.975202478677005, 40.647085811022201 ], [ -111.975217109537994, 40.647132502942803 ], [ -111.975239836016002, 40.647181181646197 ], [ -111.975251698269005, 40.6472156806621 ], [ -111.975256312914993, 40.647237351591301 ], [ -111.975258644042995, 40.6472564795287 ], [ -111.975259351915994, 40.647271564313598 ], [ -111.975257174399005, 40.647273353467497 ], [ -111.975306162227, 40.647273352104399 ], [ -111.975450467594001, 40.647273078789802 ], [ -111.975636673080999, 40.647272815017402 ], [ -111.976021143040001, 40.647272267025102 ], [ -111.976340544428993, 40.647271813091201 ], [ -111.976474779681993, 40.6472716188402 ], [ -111.976848607299004, 40.647271086524199 ], [ -111.976942299786003, 40.647270937939297 ], [ -111.976940144728005, 40.646677952418997 ], [ -111.976938387622994, 40.646194971586702 ], [ -111.976959577982996, 40.646157096108901 ], [ -111.977041578897001, 40.646159095223602 ], [ -111.977289577695004, 40.646166095191901 ], [ -111.977372579332993, 40.646169095567501 ], [ -111.977374578083996, 40.646321094884897 ], [ -111.977380578829994, 40.646780095197798 ], [ -111.977383579203007, 40.646933095054898 ], [ -111.977382578480004, 40.647074095267499 ], [ -111.977381577757001, 40.647498096722501 ], [ -111.977381578654999, 40.647640095617298 ], [ -111.977376578632004, 40.647909095786702 ], [ -111.977364578039001, 40.648717094419503 ], [ -111.977361579461999, 40.648987094874201 ], [ -111.977367578412, 40.649184095478503 ], [ -111.977385579751996, 40.649777095534397 ], [ -111.977392579424006, 40.649975095010497 ], [ -111.977391578701003, 40.6501120955744 ], [ -111.977391580497994, 40.650524096092603 ], [ -111.977391578701003, 40.650662096041501 ], [ -111.977389579051007, 40.6507890948632 ], [ -111.977387954896997, 40.6509444354962 ], [ -111.977388711279005, 40.650944440948599 ], [ -111.977384532315995, 40.651299642831603 ], [ -111.977390275245995, 40.652119059707601 ], [ -111.977354964268002, 40.652192049121098 ], [ -111.977294218392004, 40.652297533185802 ], [ -111.977201710783007, 40.652431742887799 ], [ -111.977180839325001, 40.6524620239298 ], [ -111.977099070177005, 40.652570502203297 ], [ -111.977022105217998, 40.652696473739198 ], [ -111.976948463127997, 40.652915754028598 ], [ -111.976951464398994, 40.653077095293099 ], [ -111.976951466195999, 40.653077137547598 ], [ -111.973945500235999, 40.653086806315997 ], [ -111.969094578837002, 40.653091345259597 ], [ -111.968369578215004, 40.653092180806802 ], [ -111.968364182933996, 40.653092186940498 ], [ -111.967391322751993, 40.653093292370798 ], [ -111.965104980098999, 40.653095883521203 ], [ -111.961839132424998, 40.653086808360598 ], [ -111.957873459416007, 40.653109499667501 ], [ -111.954757148, 40.653045966714998 ], [ -111.952748004781995, 40.653029441131402 ], [ -111.952765629728006, 40.653566477567999 ], [ -111.952766567569, 40.657742050998799 ], [ -111.95279723246, 40.660338195281298 ], [ -111.952807586440997, 40.6610609177756 ], [ -111.952792261183006, 40.6644448471516 ], [ -111.953409897856005, 40.664425418871097 ], [ -111.953842098001005, 40.664412364469896 ], [ -111.953977042923, 40.664347582357699 ], [ -111.957979292635002, 40.664346327885397 ], [ -111.957897625894006, 40.653640246417297 ], [ -111.958069010076997, 40.653643432511203 ], [ -111.958486723990006, 40.6536430828927 ], [ -111.958732152707995, 40.653924861796298 ], [ -111.958942698048006, 40.654244326411103 ], [ -111.959210664598999, 40.6547177099417 ], [ -111.959493944730994, 40.655013936269299 ], [ -111.959823160214, 40.655388573304201 ], [ -111.960188265189998, 40.655850333319101 ], [ -111.960761042692994, 40.6565995965734 ], [ -111.960891200492995, 40.656712855559398 ], [ -111.961178306549996, 40.656982936787102 ], [ -111.961427133594995, 40.6571978387841 ], [ -111.961649164793997, 40.657479533163901 ], [ -111.961756351774, 40.657601504702399 ], [ -111.962097050422003, 40.657915141467498 ], [ -111.962518142896997, 40.658266530215698 ], [ -111.962916266350007, 40.658617917794501 ], [ -111.962996653890002, 40.658699230336403 ], [ -111.963417745466998, 40.659163870460901 ], [ -111.963666572513006, 40.659422324264703 ], [ -111.964102974976001, 40.659933424250902 ], [ -111.964275240407005, 40.660127989740197 ], [ -111.964673363859006, 40.660528733600998 ], [ -111.964910704147002, 40.660784277800602 ], [ -111.965098282260001, 40.6609614176853 ], [ -111.965385390112999, 40.661219865887503 ], [ -111.965729919176994, 40.6614870239015 ], [ -111.965951949477997, 40.661681584177799 ], [ -111.966300304466998, 40.6620503766108 ], [ -111.966455419262005, 40.662181864142099 ], [ -111.967040965419002, 40.662657630853303 ], [ -111.967428385443995, 40.662990329113903 ], [ -111.967465767037993, 40.6661379538603 ], [ -111.967464725891006, 40.667536478024502 ], [ -111.967464673788996, 40.667605098630197 ], [ -111.967464579465997, 40.667605097948801 ], [ -111.966859580291, 40.667606099569703 ], [ -111.965045579898998, 40.667613098650698 ], [ -111.964441578752997, 40.667616098743402 ], [ -111.964176578438995, 40.667616098743402 ], [ -111.963511963469003, 40.667617071746299 ], [ -111.963493578549006, 40.667617099001298 ], [ -111.963384579666993, 40.667618098577897 ], [ -111.963121579003001, 40.667620099093803 ], [ -111.962955579321999, 40.667620099775199 ], [ -111.962458580103004, 40.667621099351699 ], [ -111.962293579348, 40.667622098928199 ], [ -111.962084578212, 40.667622098928199 ], [ -111.961458578223002, 40.667623099867498 ], [ -111.961250577811001, 40.667624099443998 ], [ -111.961033578973996, 40.667624099443998 ], [ -111.960381577248995, 40.667625099020398 ], [ -111.960165578238005, 40.667626099959698 ], [ -111.959726579643004, 40.667628099793902 ], [ -111.958412577046005, 40.667634099296301 ], [ -111.957974578275994, 40.667637099388003 ], [ -111.957884461982005, 40.667636809122499 ], [ -111.957832441441994, 40.667636639460298 ], [ -111.957600574588994, 40.667635907664099 ], [ -111.957600578183005, 40.667635098872601 ], [ -111.956478576104999, 40.667632100143599 ], [ -111.956105575836006, 40.667631098523103 ], [ -111.956000577151997, 40.667548098881902 ], [ -111.955890576648997, 40.667547099304301 ], [ -111.955158576355004, 40.667542099371801 ], [ -111.954915577579001, 40.667541100475397 ], [ -111.954490576533004, 40.667538099016703 ], [ -111.953370576799998, 40.667531099246403 ], [ -111.953322576220998, 40.6675300989872 ], [ -111.953216577711999, 40.667529100090597 ], [ -111.952798625746993, 40.6675271288712 ], [ -111.952794158424993, 40.667527108429901 ], [ -111.952794056016998, 40.667527107748498 ], [ -111.952792576491007, 40.667527100934699 ], [ -111.952696575334002, 40.667527099571998 ], [ -111.952421575871995, 40.667528099831301 ], [ -111.952315575566999, 40.667528100512698 ], [ -111.951673576583005, 40.6675331004462 ], [ -111.951038575474996, 40.6675390992758 ], [ -111.950488311548995, 40.667538197134803 ], [ -111.949821576556005, 40.667537100120299 ], [ -111.949318575692004, 40.667536100542499 ], [ -111.949143576688002, 40.667535099601899 ], [ -111.948746575231993, 40.667534099342703 ], [ -111.948628576128996, 40.667580100348403 ], [ -111.948467791168, 40.667646012446298 ], [ -111.948467574673998, 40.667646101024999 ], [ -111.948467522572003, 40.667646098980804 ], [ -111.948163574899993, 40.667634099296301 ], [ -111.947988576794998, 40.667633100401403 ], [ -111.946551575071993, 40.667630100990898 ], [ -111.946072575396997, 40.667630100990898 ], [ -111.945699575128003, 40.667628101156701 ], [ -111.944582573971005, 40.667622100290998 ], [ -111.944210573527002, 40.667620099775199 ], [ -111.944020574454001, 40.667620099775199 ], [ -111.943751575739, 40.667621100714399 ], [ -111.943450574541998, 40.667624101488101 ], [ -111.943261574396004, 40.667625100383198 ], [ -111.942379574314003, 40.667636101174402 ], [ -111.940712574234993, 40.66765710045 ], [ -111.939925573688996, 40.66765710045 ], [ -111.939733574068001, 40.667658100026003 ], [ -111.938851573986, 40.667659099601899 ], [ -111.938851570392998, 40.6676587677727 ], [ -111.938847572889998, 40.667130100374798 ], [ -111.938837573743001, 40.665544100291598 ], [ -111.938834573370002, 40.665016101619997 ], [ -111.938842573765996, 40.664837101370601 ], [ -111.938855574184004, 40.664565100395698 ], [ -111.938850574162004, 40.664302100399802 ], [ -111.938848573613001, 40.664124099907397 ], [ -111.938848570019999, 40.664123577947102 ], [ -111.938845572342004, 40.663357100038802 ], [ -111.938836572121005, 40.661057101021001 ], [ -111.938834571572997, 40.660291100324301 ], [ -111.938833572646004, 40.660216100633797 ], [ -111.938832571923001, 40.6599910996934 ], [ -111.938832572821994, 40.659916098984098 ], [ -111.938829572448995, 40.659534100377897 ], [ -111.938829571550002, 40.659370100683198 ], [ -111.938830571374993, 40.657733099135697 ], [ -111.938830572273005, 40.6572881002106 ], [ -111.938831572997003, 40.6571881004188 ], [ -111.938832572821994, 40.656933099896598 ], [ -111.938836572121005, 40.656167098867002 ], [ -111.938838573568006, 40.6559130982832 ], [ -111.938838869112999, 40.655913096238699 ], [ -111.938838154953004, 40.6558444772336 ], [ -111.938831298112007, 40.655186451132302 ], [ -111.938830548018998, 40.655114560168599 ], [ -111.938828587895003, 40.6549265620258 ], [ -111.938826162444002, 40.654693789062399 ], [ -111.938824525713002, 40.654625181070301 ], [ -111.938821981684001, 40.654369055120199 ], [ -111.938815571305994, 40.653724099586299 ], [ -111.938810571283994, 40.653177099202203 ], [ -111.937863572701005, 40.653170099287799 ], [ -111.936002571553999, 40.653159100881297 ], [ -111.935026570863002, 40.653118099803599 ], [ -111.934458855366003, 40.653095049337097 ], [ -111.934338398473002, 40.6530901573649 ], [ -111.934164569974001, 40.653083099512003 ], [ -111.934081570133003, 40.653081100604702 ], [ -111.933495570328006, 40.653071099252003 ], [ -111.929933263338995, 40.653012893734903 ], [ -111.929823570059995, 40.653011099282701 ], [ -111.929823065207003, 40.653011110187002 ], [ -111.929562569943997, 40.653016099622903 ], [ -111.929305570026003, 40.652604100179197 ], [ -111.929111569857, 40.6522250993361 ] ] ] } },
{ "type": "Feature", "properties": { "district": "3" }, "geometry": { "type": "MultiPolygon", "coordinates": [ [ [ [ -111.982885426145003, 40.650073760226199 ], [ -111.982633161246994, 40.6500739619661 ], [ -111.982389796857007, 40.650074154845797 ], [ -111.982380896348999, 40.650074161661401 ], [ -111.982128631451005, 40.650074362719799 ], [ -111.981876367450994, 40.650074562415 ], [ -111.981624104350004, 40.650074761428797 ], [ -111.981344836093996, 40.650075047681398 ], [ -111.981031338432999, 40.650075367330103 ], [ -111.981009715086003, 40.650075389821403 ], [ -111.980586559179997, 40.650075819881899 ], [ -111.980431740829005, 40.650075978002299 ], [ -111.980025777779005, 40.650074413154698 ], [ -111.980242988618002, 40.650576237315803 ], [ -111.980554580054005, 40.651296095408902 ], [ -111.980984581122996, 40.652323094687603 ], [ -111.981019579486002, 40.652407095359401 ], [ -111.981023377563005, 40.652416150166601 ], [ -111.981309430793999, 40.653097972389098 ], [ -111.981311580463, 40.653103095397 ], [ -111.981485580539996, 40.653554096426298 ], [ -111.981511209475002, 40.653622110554799 ], [ -111.981368290207996, 40.653622326595901 ], [ -111.981330052519994, 40.653622384524901 ], [ -111.980914415512999, 40.653623012202601 ], [ -111.980759917859999, 40.653623244600098 ], [ -111.979556832946002, 40.653625124907101 ], [ -111.979182019877001, 40.653625706923101 ], [ -111.979184704043007, 40.6542764398949 ], [ -111.977087196244995, 40.654279679797703 ], [ -111.977086691392003, 40.654156164013202 ], [ -111.977085063645006, 40.6537578155652 ], [ -111.977083013688997, 40.653258267077803 ], [ -111.977091349157007, 40.653251885311903 ], [ -111.977094197713996, 40.653076660481297 ], [ -111.977074459931004, 40.653076536444097 ], [ -111.976951580282005, 40.653077095293099 ], [ -111.976951464398994, 40.653077095293099 ], [ -111.976948463127997, 40.652915754028598 ], [ -111.977022105217998, 40.652696473739198 ], [ -111.977099070177005, 40.652570502203297 ], [ -111.977180839325001, 40.6524620239298 ], [ -111.977201710783007, 40.652431742887799 ], [ -111.977294218392004, 40.652297533185802 ], [ -111.977354964268002, 40.652192049121098 ], [ -111.977390275245995, 40.652119059707601 ], [ -111.977384532315995, 40.651299642831603 ], [ -111.977388711279005, 40.650944440948599 ], [ -111.977387954896997, 40.6509444354962 ], [ -111.977389579051007, 40.6507890948632 ], [ -111.977391578701003, 40.650662096041501 ], [ -111.977391580497994, 40.650524096092603 ], [ -111.977391578701003, 40.6501120955744 ], [ -111.977392579424006, 40.649975095010497 ], [ -111.977385579751996, 40.649777095534397 ], [ -111.977367578412, 40.649184095478503 ], [ -111.977361579461999, 40.648987094874201 ], [ -111.977364578039001, 40.648717094419503 ], [ -111.977376578632004, 40.647909095786702 ], [ -111.977381578654999, 40.647640095617298 ], [ -111.977381577757001, 40.647498096722501 ], [ -111.977382578480004, 40.647074095267499 ], [ -111.977383579203007, 40.646933095054898 ], [ -111.977380578829994, 40.646780095197798 ], [ -111.977374578083996, 40.646321094884897 ], [ -111.977372579332993, 40.646169095567501 ], [ -111.977289577695004, 40.646166095191901 ], [ -111.977041578897001, 40.646159095223602 ], [ -111.976959577982996, 40.646157096108901 ], [ -111.976949579733002, 40.645823095202601 ], [ -111.978006000304006, 40.6458248012406 ], [ -111.978024019610999, 40.645824830549202 ], [ -111.978064111422, 40.645824895300997 ], [ -111.978188578393997, 40.645825095009002 ], [ -111.978404580101, 40.6458210953963 ], [ -111.978409396866994, 40.645832199978202 ], [ -111.978426422637, 40.645827914095101 ], [ -111.978460720314999, 40.645819279621101 ], [ -111.978651544040005, 40.645821729963302 ], [ -111.979331971156, 40.645830465313402 ], [ -111.980316314500996, 40.645827945448602 ], [ -111.982095862706004, 40.645823370567904 ], [ -111.983825778093006, 40.645818890428998 ], [ -111.985045670486002, 40.645815721001497 ], [ -111.985832643183997, 40.645813666667102 ], [ -111.985972769588997, 40.645813302012499 ], [ -111.986318916518997, 40.645812201232701 ], [ -111.986494574885995, 40.6458116430045 ], [ -111.986942745280004, 40.645810614474001 ], [ -111.986943021960997, 40.645814946025297 ], [ -111.986942340138995, 40.646221598030003 ], [ -111.986978367074002, 40.646221636880803 ], [ -111.986978313175001, 40.646250472356101 ], [ -111.986973977006997, 40.648672830671799 ], [ -111.986962301603, 40.648869800170203 ], [ -111.986921643854004, 40.649130908330598 ], [ -111.986909967551, 40.649327876476903 ], [ -111.986903310136995, 40.6530031493065 ], [ -111.986903206831002, 40.653059177365002 ], [ -111.986904872306994, 40.6551297120089 ], [ -111.986905390635002, 40.655773989497 ], [ -111.986907938257005, 40.658939342314099 ], [ -111.986908068513003, 40.659100559978498 ], [ -111.986908775486995, 40.659982937254298 ], [ -111.986909043184994, 40.660311017045302 ], [ -111.986904837273002, 40.665541523934003 ], [ -111.986906155100996, 40.665674731236599 ], [ -111.986893160072, 40.665817821198303 ], [ -111.986887750418006, 40.6658773946818 ], [ -111.986882019166003, 40.665940509305202 ], [ -111.986861094708004, 40.666072778899199 ], [ -111.986834295269006, 40.6662044336178 ], [ -111.986740467134993, 40.666618886549102 ], [ -111.986653326959996, 40.666571748329702 ], [ -111.986619728170993, 40.666550176348601 ], [ -111.986602688926993, 40.6665392373842 ], [ -111.986571821916002, 40.666519417235598 ], [ -111.986243224473, 40.666308438719902 ], [ -111.986194913974998, 40.666268988386904 ], [ -111.985891808923995, 40.666021467455799 ], [ -111.985887013717004, 40.665701706275797 ], [ -111.986136272851994, 40.665701488229701 ], [ -111.986136059052996, 40.665560681375297 ], [ -111.986136001560993, 40.665523078546002 ], [ -111.986135729371, 40.665344668385103 ], [ -111.986135459875996, 40.665168041651299 ], [ -111.986135457181007, 40.665166257065501 ], [ -111.986135185890006, 40.664987847994297 ], [ -111.986134914599006, 40.664809435720201 ], [ -111.986097930959005, 40.664809469109002 ], [ -111.985668767120004, 40.664809847287799 ], [ -111.985522141404005, 40.664809977435802 ], [ -111.985521805434004, 40.664586222609898 ], [ -111.985521460480996, 40.6643570893619 ], [ -111.985521172122006, 40.664164954532097 ], [ -111.985520892745996, 40.663978308602601 ], [ -111.985521060731003, 40.663978309965401 ], [ -111.985519877650006, 40.663704138589601 ], [ -111.985519219184994, 40.663704140633897 ], [ -111.985518553532998, 40.663540210474899 ], [ -111.985517383927004, 40.663252025957497 ], [ -111.985516324813005, 40.662991288556 ], [ -111.985515432786002, 40.662771719068701 ], [ -111.985514541656997, 40.662552149539998 ], [ -111.985513648731995, 40.662332580651302 ], [ -111.985512755805999, 40.662113010358503 ], [ -111.985512203341997, 40.661975771403299 ], [ -111.985511096617998, 40.661701296734599 ], [ -111.985508912813998, 40.6614237803606 ], [ -111.985505586352005, 40.661423784449198 ], [ -111.985505291704996, 40.661287588722502 ], [ -111.985504678154996, 40.661002184978301 ], [ -111.985503772653004, 40.660582287821903 ], [ -111.985587957372005, 40.660582295999198 ], [ -111.985587621402004, 40.6603652522084 ], [ -111.985587539655, 40.660312351323 ], [ -111.985582212645994, 40.656716697777497 ], [ -111.985582181205004, 40.656695768657897 ], [ -111.985582165034998, 40.656684734032297 ], [ -111.985664513597001, 40.656684576609003 ], [ -111.985697061357001, 40.656684514593699 ], [ -111.985914030548997, 40.656684098205503 ], [ -111.985931291677005, 40.6566840661757 ], [ -111.985930501159999, 40.656421306337897 ], [ -111.985929658540002, 40.6561415020373 ], [ -111.985929310892004, 40.6560264736069 ], [ -111.985929269568999, 40.656012208592998 ], [ -111.985928850055998, 40.655872511883601 ], [ -111.985928269743994, 40.655680373058999 ], [ -111.98623489709, 40.6556798387656 ], [ -111.986523922846004, 40.6556793330952 ], [ -111.986775579585, 40.655678894892901 ], [ -111.986775968554994, 40.655129936904601 ], [ -111.986770640648004, 40.655129946445598 ], [ -111.986536012372994, 40.655130355346898 ], [ -111.985926606063998, 40.655131419853298 ], [ -111.985925827225003, 40.654870656843201 ], [ -111.985692921920005, 40.654871058249597 ], [ -111.985692326337002, 40.654613951191102 ], [ -111.985691134272003, 40.654099742961499 ], [ -111.985690412924995, 40.653788647351803 ], [ -111.985690365313999, 40.6537688261404 ], [ -111.985690306026001, 40.653743824717303 ], [ -111.985174930868993, 40.653744632995704 ], [ -111.985174443084006, 40.653533284217197 ], [ -111.985173769347, 40.653244741604297 ], [ -111.985173745991005, 40.653234918834798 ], [ -111.985173673228005, 40.653203908915202 ], [ -111.985173432479002, 40.653100476304402 ], [ -111.985173408224995, 40.653090163498597 ], [ -111.985173373189994, 40.6530751284172 ], [ -111.985177271878996, 40.653075106608497 ], [ -111.985558065033004, 40.6530728637156 ], [ -111.985557479331007, 40.652909358599302 ], [ -111.985556245045998, 40.652558208112303 ], [ -111.985697554531995, 40.652557919825803 ], [ -111.985696200769993, 40.652173649112001 ], [ -111.985696102854007, 40.652146202433599 ], [ -111.985695620458998, 40.6520089627383 ], [ -111.985692994683006, 40.6515258821359 ], [ -111.985832963882999, 40.651525426867899 ], [ -111.985829161314001, 40.650848811262897 ], [ -111.985794580667005, 40.650848839206297 ], [ -111.985023960001996, 40.6508494716809 ], [ -111.984515199141001, 40.650924569821001 ], [ -111.984426748323003, 40.650937624817203 ], [ -111.984296472843994, 40.650956853925599 ], [ -111.983570218175004, 40.650957390983002 ], [ -111.983570117563005, 40.650933909033597 ], [ -111.983570008867005, 40.650909357731301 ], [ -111.983569778, 40.6508613237635 ], [ -111.983568135880006, 40.6504970637993 ], [ -111.983566091314003, 40.650073212938402 ], [ -111.983397269126002, 40.650073350612303 ], [ -111.983101651533005, 40.6500735871115 ], [ -111.982885426145003, 40.650073760226199 ] ] ], [ [ [ -111.928004566948999, 40.637964097638402 ], [ -111.927690568027998, 40.637967098382703 ], [ -111.927545566467003, 40.637963098980798 ], [ -111.927113566646995, 40.637952098067998 ], [ -111.926969567604999, 40.637949098004597 ], [ -111.926947567864005, 40.6378590974048 ], [ -111.926935566371, 40.637810099693297 ], [ -111.926935566371, 40.637678097860899 ], [ -111.926981568198997, 40.637596099152702 ], [ -111.927027566432997, 40.637517098381601 ], [ -111.927138568557993, 40.637320098786802 ], [ -111.927144566609002, 40.637310098480398 ], [ -111.927526567097999, 40.636811099014402 ], [ -111.927541568064996, 40.636777099070798 ], [ -111.927584566825004, 40.636684098134097 ], [ -111.927552567936004, 40.636565098029301 ], [ -111.927390567553999, 40.635970097732503 ], [ -111.927376568208999, 40.635953098230402 ], [ -111.927296567843001, 40.635860098872598 ], [ -111.926950566439999, 40.635613098417501 ], [ -111.926791566431007, 40.635432098237999 ], [ -111.926546566208998, 40.634993097549398 ], [ -111.926489568104003, 40.634746098658702 ], [ -111.926590568386999, 40.634427097662801 ], [ -111.926608566132998, 40.634397098166097 ], [ -111.926658340884998, 40.6343181406478 ], [ -111.926828567140006, 40.634048097894301 ], [ -111.926966567232, 40.633870099172597 ], [ -111.927058566395004, 40.633752098226502 ], [ -111.927145566434007, 40.633554097660998 ], [ -111.927221566602, 40.6330680986175 ], [ -111.927282566700995, 40.632686096970602 ], [ -111.927262567507995, 40.632476098824903 ], [ -111.927353565947996, 40.632098098998398 ], [ -111.927131566189999, 40.631734097269302 ], [ -111.927036567551994, 40.631569097305899 ], [ -111.927087566707002, 40.631535096738098 ], [ -111.927086566881997, 40.631438098251103 ], [ -111.927082567583, 40.631351097414999 ], [ -111.927590566673004, 40.6313500979767 ], [ -111.928516476406003, 40.631348517009997 ], [ -111.928761567357995, 40.631348097055003 ], [ -111.929106567139002, 40.631348097736698 ], [ -111.929213525947006, 40.631348097736698 ], [ -111.929267567696002, 40.631348097055003 ], [ -111.932331567518005, 40.631372097204 ], [ -111.933130567760003, 40.631377096438598 ], [ -111.933258567806007, 40.631230097105799 ], [ -111.933370567959003, 40.631104096640897 ], [ -111.935230567483998, 40.631085096333798 ], [ -111.935373567599001, 40.631304096532098 ], [ -111.935545568924994, 40.631305096652802 ], [ -111.935601568102996, 40.631306097455102 ], [ -111.935914568097999, 40.631309096453499 ], [ -111.936828569762994, 40.631356097332798 ], [ -111.936972568805004, 40.631159096602502 ], [ -111.937389617964001, 40.6311777846486 ], [ -111.937463567278002, 40.631181097256203 ], [ -111.937491569561999, 40.631422096350498 ], [ -111.937982568932995, 40.631400096458002 ], [ -111.938011567448996, 40.6312680969504 ], [ -111.938725467588995, 40.6313155041789 ], [ -111.938779568626998, 40.631319096295201 ], [ -111.938779568626998, 40.631319135836499 ], [ -111.938782569, 40.631481095840698 ], [ -111.938781292493999, 40.631564000596498 ], [ -111.938780568450994, 40.631611096058599 ], [ -111.938777568077995, 40.631860097227197 ], [ -111.938776570049995, 40.631917097470797 ], [ -111.938773569676997, 40.632088097228099 ], [ -111.938773569676997, 40.632146096021799 ], [ -111.938772569852006, 40.632189097927601 ], [ -111.938770569303998, 40.632317095874299 ], [ -111.938770568405999, 40.632361097093202 ], [ -111.938771570027001, 40.632769097035997 ], [ -111.938776570049995, 40.633816096754998 ], [ -111.938772569852006, 40.633995096382797 ], [ -111.938766570902999, 40.634404095959297 ], [ -111.938764570355005, 40.634445096945399 ], [ -111.938762569806002, 40.6345700964877 ], [ -111.938762569806002, 40.634612097442997 ], [ -111.938762569806002, 40.634649097337501 ], [ -111.938762568908004, 40.634659097360696 ], [ -111.938759568535005, 40.634964097009401 ], [ -111.938759604468004, 40.634974014498802 ], [ -111.938760569257994, 40.635240096889802 ], [ -111.938760570157001, 40.635250096142798 ], [ -111.938764571253003, 40.636070097282399 ], [ -111.938770568405999, 40.636986096605597 ], [ -111.938774571299007, 40.6375680977252 ], [ -111.938775569327007, 40.637762097879801 ], [ -111.938778569700006, 40.638346097036397 ], [ -111.938780223498, 40.6385071797256 ], [ -111.938690166493004, 40.638509678734899 ], [ -111.938184120339997, 40.638523739580599 ], [ -111.937577311061006, 40.638477875322799 ], [ -111.937468523283002, 40.638455860713201 ], [ -111.937182539223002, 40.638326562312798 ], [ -111.936781188124002, 40.638138451432098 ], [ -111.936427047983997, 40.638013041384298 ], [ -111.936055206541994, 40.637950337294598 ], [ -111.935647950816005, 40.637941380049703 ], [ -111.934136973728997, 40.637945857990601 ], [ -111.932059373496003, 40.637945859353998 ], [ -111.929481753907993, 40.637956230397698 ], [ -111.929265538402007, 40.637957098173302 ], [ -111.929265568046006, 40.6379560974706 ], [ -111.929090626535, 40.637957208605101 ], [ -111.9289505693, 40.637958097512602 ], [ -111.928004566948999, 40.637964097638402 ] ] ], [ [ [ -111.935792693663004, 40.643300451299503 ], [ -111.936080964834005, 40.643299686518503 ], [ -111.936369236904, 40.643298922419 ], [ -111.936462923102994, 40.643298674308198 ], [ -111.936751196071, 40.643297908163902 ], [ -111.937039466344004, 40.643297142019698 ], [ -111.937133154340003, 40.6432968925456 ], [ -111.937457457836004, 40.643296030292397 ], [ -111.937639647853004, 40.643295538842203 ], [ -111.937638905845006, 40.644040832254397 ], [ -111.937641487603003, 40.644521576634297 ], [ -111.937640936936006, 40.644521579360699 ], [ -111.937615820939001, 40.644521054520602 ], [ -111.937592698303007, 40.644521731359902 ], [ -111.935417031686001, 40.644528506568399 ], [ -111.935415244039007, 40.644136209956102 ], [ -111.935411438775006, 40.643301459420002 ], [ -111.935699007463995, 40.643300697365397 ], [ -111.935792693663004, 40.643300451299503 ] ] ], [ [ [ -111.930724494949999, 40.682579204330601 ], [ -111.930724102385994, 40.682522831845397 ], [ -111.930724048486994, 40.6825149691769 ], [ -111.930954849938004, 40.6825142750113 ], [ -111.930999437816993, 40.6825094308386 ], [ -111.930997589084001, 40.682269578112397 ], [ -111.930997467812006, 40.682253787998498 ], [ -111.930995705317002, 40.682025058115599 ], [ -111.930994173689996, 40.6818263437859 ], [ -111.930993941026003, 40.681796055637101 ], [ -111.930993818855001, 40.681780120990297 ], [ -111.931176402334998, 40.681779216316997 ], [ -111.931182063517994, 40.681779189067697 ], [ -111.931403538660007, 40.681778093650003 ], [ -111.931409636423993, 40.681778062313398 ], [ -111.931562978843004, 40.681777303423303 ], [ -111.931630674085994, 40.681776967577001 ], [ -111.931637212024995, 40.681776934196698 ], [ -111.931855101989996, 40.681775854447203 ], [ -111.931857810411003, 40.681775840822603 ], [ -111.931857840953001, 40.6818153555542 ], [ -111.931857955938, 40.6819596023484 ], [ -111.931925316109002, 40.682048123108999 ], [ -111.931945771645999, 40.682075007052497 ], [ -111.932086094781994, 40.682259408105097 ], [ -111.932148428879998, 40.682231810311798 ], [ -111.932346981709998, 40.682492736117901 ], [ -111.932596565137004, 40.682382667481598 ], [ -111.932603275551998, 40.682391550638698 ], [ -111.932687457575994, 40.682502977618 ], [ -111.932842371147999, 40.682432502386298 ], [ -111.933032019877999, 40.682681978812802 ], [ -111.933041565376001, 40.682694537114998 ], [ -111.933276670655999, 40.682589704681703 ], [ -111.933290723900001, 40.682583438804798 ], [ -111.933511775935003, 40.682484873445901 ], [ -111.933539727015003, 40.682472411156603 ], [ -111.933746879417996, 40.682380041363999 ], [ -111.933788730130999, 40.682361381279698 ], [ -111.933981982901003, 40.682275208436003 ], [ -111.934037619159994, 40.682250400266099 ], [ -111.934217086383995, 40.682170374661901 ], [ -111.934287582574001, 40.682138939484503 ], [ -111.934378019567006, 40.682098612241397 ], [ -111.934405600540998, 40.682086314055503 ], [ -111.934452187171999, 40.682065540041698 ], [ -111.934536441060999, 40.682027971725098 ], [ -111.934687287960003, 40.681960706619101 ], [ -111.934770851943, 40.681926940179203 ], [ -111.935023877714002, 40.681897362597702 ], [ -111.935239986319999, 40.681874785993301 ], [ -111.935616376831007, 40.681829250591697 ], [ -111.935617647048005, 40.681831227519503 ], [ -111.935743612411002, 40.682027584788003 ], [ -111.935963830809001, 40.682370857104402 ], [ -111.935975601435004, 40.682389201098303 ], [ -111.936088467564005, 40.682533155087597 ], [ -111.935763575671004, 40.682643102899199 ], [ -111.935688575328001, 40.682672103155703 ], [ -111.935555574361004, 40.682724102762002 ], [ -111.935466574672006, 40.682759102487303 ], [ -111.935444575828996, 40.682768102764001 ], [ -111.935205574555994, 40.682874103206899 ], [ -111.935119574343005, 40.6829131022863 ], [ -111.934943574615005, 40.6829911031016 ], [ -111.934416576157005, 40.683226102979901 ], [ -111.934241575357007, 40.683305103451403 ], [ -111.933933574487, 40.683440102962699 ], [ -111.933613575717999, 40.683568103432599 ], [ -111.933411574255004, 40.683639103358502 ], [ -111.933394575435003, 40.683646103481401 ], [ -111.933301574650002, 40.6836751039828 ], [ -111.933061573551996, 40.683752103890299 ], [ -111.932833573946994, 40.6838151028197 ], [ -111.932604574516006, 40.683872102967399 ], [ -111.930588216928001, 40.684302905340097 ], [ -111.930586151700993, 40.684054650253302 ], [ -111.930585844476994, 40.683982111241399 ], [ -111.930376038451001, 40.683985903522903 ], [ -111.930351548580006, 40.683986345626501 ], [ -111.930349546235007, 40.683618969485799 ], [ -111.930336275423002, 40.683603770301701 ], [ -111.930326493668005, 40.683587107190903 ], [ -111.930320473159, 40.683569441332303 ], [ -111.930318381880994, 40.683551259110502 ], [ -111.930320275529994, 40.683533065303102 ], [ -111.930326102901006, 40.683515361282304 ], [ -111.930335702297995, 40.683498637521403 ], [ -111.930348806921998, 40.683483353839499 ], [ -111.930346563827996, 40.683071494896303 ], [ -111.930165249667994, 40.682881145645702 ], [ -111.930164932563002, 40.682822941617303 ], [ -111.930163721634003, 40.682600065380697 ], [ -111.930545908075004, 40.682599996577302 ], [ -111.930724639578997, 40.682599963878701 ], [ -111.930724551544003, 40.682587404877403 ], [ -111.930724494949999, 40.682579204330601 ] ] ] ] } },
{ "type": "Feature", "properties": { "district": "4" }, "geometry": { "type": "Polygon", "coordinates": [ [ [ -111.970405541535001, 40.631294003970702 ], [ -111.976333364195, 40.631308097696397 ], [ -111.976423441861002, 40.6313083090375 ], [ -111.976603591805002, 40.631308732401401 ], [ -111.976607575833, 40.631496093518898 ], [ -111.976623575727004, 40.631669095266602 ], [ -111.976658576784999, 40.6331920938281 ], [ -111.976748577197, 40.637075093576399 ], [ -111.976737641106993, 40.638570474982899 ], [ -111.976917801829998, 40.638570459304503 ], [ -111.977007880395007, 40.638570449079403 ], [ -111.979207449385996, 40.638570223446202 ], [ -111.982951806255002, 40.638569745594602 ], [ -111.982946568179003, 40.636547189301702 ], [ -111.982946565483999, 40.636546351502197 ], [ -111.985710277370998, 40.635093099926102 ], [ -111.985900329443993, 40.634973083967303 ], [ -111.985918788027007, 40.634743550425299 ], [ -111.984563379383005, 40.631930108463301 ], [ -111.984273450819998, 40.631466040210903 ], [ -111.984187396707, 40.631328295084799 ], [ -111.984190988172003, 40.631328316218898 ], [ -111.985184576978, 40.631334094009802 ], [ -111.991482579196997, 40.631330092847101 ], [ -111.991483602377997, 40.631330094210597 ], [ -111.991483721853996, 40.631330092847101 ], [ -111.991485059446006, 40.6314673327973 ], [ -111.991514366982003, 40.634473960686499 ], [ -111.989821779289997, 40.634478423180603 ], [ -111.989844366528999, 40.637028470287298 ], [ -111.988150419685994, 40.637033814713703 ], [ -111.988168959117004, 40.638572774941899 ], [ -111.986471358825995, 40.6385724634182 ], [ -111.986471405537998, 40.6385847628123 ], [ -111.986476124388005, 40.6398848286508 ], [ -111.986476382204998, 40.639956236367802 ], [ -111.986484476026007, 40.642186029252301 ], [ -111.986489142772996, 40.643309481440703 ], [ -111.986490399516995, 40.643611821422702 ], [ -111.986490886403004, 40.643698463427903 ], [ -111.986497439613004, 40.644862702758502 ], [ -111.986520239754, 40.645000519475701 ], [ -111.986548934639004, 40.645081019100502 ], [ -111.986588526987006, 40.645158788122401 ], [ -111.986663485109005, 40.645266551679597 ], [ -111.986780786219995, 40.645389530458999 ], [ -111.986847215737001, 40.645482184601697 ], [ -111.986906518919, 40.645606117222997 ], [ -111.986937946479003, 40.645735834337998 ], [ -111.986941925118003, 40.6457978467906 ], [ -111.986942745280004, 40.645810614474001 ], [ -111.986494574885995, 40.6458116430045 ], [ -111.986318916518997, 40.645812201232701 ], [ -111.985972769588997, 40.645813302012499 ], [ -111.985832643183997, 40.645813666667102 ], [ -111.985045670486002, 40.645815721001497 ], [ -111.983825778093006, 40.645818890428998 ], [ -111.982095862706004, 40.645823370567904 ], [ -111.980316314500996, 40.645827945448602 ], [ -111.979331971156, 40.645830465313402 ], [ -111.978651544040005, 40.645821729963302 ], [ -111.978460720314999, 40.645819279621101 ], [ -111.978426422637, 40.645827914095101 ], [ -111.978409396866994, 40.645832199978202 ], [ -111.978404580101, 40.6458210953963 ], [ -111.978188578393997, 40.645825095009002 ], [ -111.978064111422, 40.645824895300997 ], [ -111.978024019610999, 40.645824830549202 ], [ -111.978006000304006, 40.6458248012406 ], [ -111.976949579733002, 40.645823095202601 ], [ -111.976959577982996, 40.646157096108901 ], [ -111.976938387622994, 40.646194971586702 ], [ -111.976940144728005, 40.646677952418997 ], [ -111.976942299786003, 40.647270937939297 ], [ -111.976848607299004, 40.647271086524199 ], [ -111.976474779681993, 40.6472716188402 ], [ -111.976340544428993, 40.647271813091201 ], [ -111.976021143040001, 40.647272267025102 ], [ -111.975636673080999, 40.647272815017402 ], [ -111.975450467594001, 40.647273078789802 ], [ -111.975306162227, 40.647273352104399 ], [ -111.975257174399005, 40.647273353467497 ], [ -111.975259351915994, 40.647271564313598 ], [ -111.975258644042995, 40.6472564795287 ], [ -111.975256312914993, 40.647237351591301 ], [ -111.975251698269005, 40.6472156806621 ], [ -111.975239836016002, 40.647181181646197 ], [ -111.975217109537994, 40.647132502942803 ], [ -111.975202478677005, 40.647085811022201 ], [ -111.975195013676995, 40.6470243804768 ], [ -111.975194504331995, 40.646953016445302 ], [ -111.975159824870005, 40.646953156852 ], [ -111.975158496261997, 40.645829668526297 ], [ -111.973935916109994, 40.645830922665098 ], [ -111.972771470430999, 40.6458321065994 ], [ -111.971485427896994, 40.645833150124602 ], [ -111.970959624198997, 40.645833852851297 ], [ -111.970079402780996, 40.645835022471999 ], [ -111.969656926000994, 40.645835580700101 ], [ -111.969657487448004, 40.645983793831903 ], [ -111.969199951220006, 40.645987148645503 ], [ -111.968951157411993, 40.645984961405198 ], [ -111.968950910375, 40.645916539395202 ], [ -111.968392493340005, 40.645917208041098 ], [ -111.967502389556003, 40.645918270649801 ], [ -111.967431746939994, 40.645980077090897 ], [ -111.967362962040994, 40.644895674810698 ], [ -111.966811551865007, 40.644902766928297 ], [ -111.966512479350001, 40.644952406959703 ], [ -111.966101260258, 40.645122599709097 ], [ -111.965493774546999, 40.645477163930501 ], [ -111.965147971671996, 40.6455551683244 ], [ -111.963091865427998, 40.645555166961202 ], [ -111.963065561858997, 40.645626988477296 ], [ -111.963023452431003, 40.645809976498903 ], [ -111.962977513485995, 40.645879686154302 ], [ -111.962885737104997, 40.6458415337692 ], [ -111.962506666920007, 40.645837780895597 ], [ -111.962019839324995, 40.645837578461197 ], [ -111.961077292791998, 40.645837377390102 ], [ -111.960140370611995, 40.645837167458197 ], [ -111.959491731282, 40.645837018869997 ], [ -111.95885060546, 40.645836868237097 ], [ -111.958690043280995, 40.645844832017303 ], [ -111.958490980207003, 40.6454788543004 ], [ -111.958353170557999, 40.645310387595401 ], [ -111.958234499515996, 40.645217440124704 ], [ -111.958138797497, 40.645147729777499 ], [ -111.958062233186993, 40.645095447310197 ], [ -111.958000985153006, 40.645048974122901 ], [ -111.957943561245997, 40.644990881570997 ], [ -111.957848786289006, 40.644931131301803 ], [ -111.957846452466001, 40.645814884681599 ], [ -111.957846452466001, 40.645837230846702 ], [ -111.957745300368003, 40.645837193358901 ], [ -111.957720037046997, 40.6458371415575 ], [ -111.957322530737997, 40.6458367407784 ], [ -111.956998213766994, 40.645836412930201 ], [ -111.956673895, 40.645836083718699 ], [ -111.956331557824996, 40.645835736785799 ], [ -111.956331096989004, 40.645835734740999 ], [ -111.956115346811004, 40.645836239804503 ], [ -111.955792141955001, 40.6458360469125 ], [ -111.955791028044004, 40.645836050320497 ], [ -111.955493735990999, 40.645835871742001 ], [ -111.955485842493999, 40.645835864244503 ], [ -111.955196444834996, 40.6458356938452 ], [ -111.955179541237001, 40.645835681576401 ], [ -111.954899151884007, 40.645835515948399 ], [ -111.954873240878001, 40.645835496863597 ], [ -111.954601858033996, 40.645835336006698 ], [ -111.954566939619994, 40.645835312150801 ], [ -111.954304566879003, 40.645835155383502 ], [ -111.954260638362996, 40.645835127437998 ], [ -111.954007274825003, 40.645834974078603 ], [ -111.953918241001006, 40.645834918869298 ], [ -111.953709983669995, 40.645834797545 ], [ -111.953648030457998, 40.645834753241203 ], [ -111.953412692515002, 40.645834614876897 ], [ -111.953377766016999, 40.645834586249897 ], [ -111.953118318189993, 40.645834427437698 ], [ -111.953107506964997, 40.645834420621803 ], [ -111.952841478080998, 40.645834203192202 ], [ -111.952801206605997, 40.645834168430802 ], [ -111.952499138210996, 40.645833913513499 ], [ -111.952458870330005, 40.645833878752001 ], [ -111.952106353445998, 40.645833579530901 ], [ -111.952066082870004, 40.645833545450998 ], [ -111.952035827610999, 40.645833519550301 ], [ -111.951622287272002, 40.645833166483001 ], [ -111.951582018492999, 40.6458331330847 ], [ -111.950964195867996, 40.645832602802201 ], [ -111.950959563256006, 40.645832598712602 ], [ -111.950660500623002, 40.645832341750399 ], [ -111.950620060266004, 40.645832415362896 ], [ -111.950549170613002, 40.645832546911201 ], [ -111.950212539537006, 40.645833165119797 ], [ -111.950175463370002, 40.645833140582297 ], [ -111.949980604412005, 40.6458330151684 ], [ -111.949124760575998, 40.645832463074697 ], [ -111.949116944335003, 40.645832607573297 ], [ -111.949047422817003, 40.645833898518298 ], [ -111.948905111708996, 40.645834441069702 ], [ -111.948834932625005, 40.645834710300498 ], [ -111.948878658121004, 40.645873173497698 ], [ -111.948826986127997, 40.645873371160803 ], [ -111.948692129240001, 40.645873466584298 ], [ -111.948643690284001, 40.645873503390497 ], [ -111.948363929750997, 40.645873703098403 ], [ -111.948354821733005, 40.645873710596 ], [ -111.948352484316004, 40.645873711277602 ], [ -111.948345625678996, 40.6458737167303 ], [ -111.948099214202998, 40.645873893263897 ], [ -111.947756996503998, 40.645895055476103 ], [ -111.947081244222005, 40.645886369209499 ], [ -111.947052181925997, 40.645874537372798 ], [ -111.946293285173994, 40.645565562723498 ], [ -111.945173253101004, 40.645150789498501 ], [ -111.944940098961993, 40.645089006145497 ], [ -111.944800454952997, 40.645052003857799 ], [ -111.944358091270004, 40.644934783348603 ], [ -111.943803225275005, 40.644824673844603 ], [ -111.943620541184004, 40.644782599566298 ], [ -111.943395803361, 40.644746065373504 ], [ -111.942967409377999, 40.644667532468603 ], [ -111.942532128012004, 40.644615759468998 ], [ -111.942132015690007, 40.644574501627801 ], [ -111.941640804315995, 40.644544290620502 ], [ -111.941058494789004, 40.644535773899001 ], [ -111.940146475706001, 40.644517842090004 ], [ -111.938964748238007, 40.644519026047497 ], [ -111.938892666520999, 40.644519100343103 ], [ -111.938802571785999, 40.644519188270898 ], [ -111.938712491423999, 40.644519298691797 ], [ -111.938673300622995, 40.644519347767698 ], [ -111.938196343716996, 40.644519811262903 ], [ -111.937641487603003, 40.644521576634297 ], [ -111.937638905845006, 40.644040832254397 ], [ -111.937639647853004, 40.643295538842203 ], [ -111.937457457836004, 40.643296030292397 ], [ -111.937133154340003, 40.6432968925456 ], [ -111.937039466344004, 40.643297142019698 ], [ -111.936751196071, 40.643297908163902 ], [ -111.936462923102994, 40.643298674308198 ], [ -111.936369236904, 40.643298922419 ], [ -111.936080964834005, 40.643299686518503 ], [ -111.935792693663004, 40.643300451299503 ], [ -111.935699007463995, 40.643300697365397 ], [ -111.935411438775006, 40.643301459420002 ], [ -111.935415244039007, 40.644136209956102 ], [ -111.935417031686001, 40.644528506568399 ], [ -111.934001519462001, 40.6445329152249 ], [ -111.933535734003996, 40.644534365691797 ], [ -111.932497364179994, 40.6445373163833 ], [ -111.932225033614003, 40.644529425379297 ], [ -111.932176170651999, 40.6445280130824 ], [ -111.932056334495002, 40.644524549819401 ], [ -111.932010568924994, 40.644224098633501 ], [ -111.931964569792001, 40.644098098152803 ], [ -111.931781569494007, 40.643766098397997 ], [ -111.931721568320995, 40.643664098236101 ], [ -111.931704569500994, 40.643642099650897 ], [ -111.931430568965993, 40.643303098723301 ], [ -111.931397570252997, 40.643263099029099 ], [ -111.931315568439999, 40.643220099484402 ], [ -111.931145568561007, 40.6431310991183 ], [ -111.930972569207, 40.643098097566202 ], [ -111.930691570796, 40.6431070984248 ], [ -111.930654569189997, 40.643109099675797 ], [ -111.930236568715003, 40.643241098266799 ], [ -111.930078568531002, 40.643252098989699 ], [ -111.929696568040995, 40.642977099460502 ], [ -111.929451567819001, 40.642697099048398 ], [ -111.929407568336003, 40.642538098627497 ], [ -111.929458569288002, 40.642296099485002 ], [ -111.929492567826998, 40.642248098170597 ], [ -111.929661567880999, 40.642013098380403 ], [ -111.929775568582997, 40.641857098262903 ], [ -111.929852567677003, 40.641710098827801 ], [ -111.929941568263999, 40.641539098493503 ], [ -111.930020567906993, 40.641297099137198 ], [ -111.930028568303001, 40.641222097862901 ], [ -111.930049568219005, 40.641044098500203 ], [ -111.930020567906993, 40.640863098048897 ], [ -111.929883569436001, 40.640605098587002 ], [ -111.929544568604001, 40.640160097903802 ], [ -111.929600569578994, 40.640007097516701 ], [ -111.929652567660995, 40.639876097975801 ], [ -111.929754568665999, 40.639876098657503 ], [ -111.929690567294998, 40.639781099323997 ], [ -111.929501568945994, 40.6394980984631 ], [ -111.929438567399998, 40.639404098591001 ], [ -111.929352568084994, 40.639180099043898 ], [ -111.929339568564004, 40.6391260975129 ], [ -111.929259567299994, 40.638794098249299 ], [ -111.929259567299994, 40.638250098917297 ], [ -111.929260567124999, 40.638127098803501 ], [ -111.929265538402007, 40.637957098173302 ], [ -111.929481753907993, 40.637956230397698 ], [ -111.932059373496003, 40.637945859353998 ], [ -111.934136973728997, 40.637945857990601 ], [ -111.935647950816005, 40.637941380049703 ], [ -111.936055206541994, 40.637950337294598 ], [ -111.936427047983997, 40.638013041384298 ], [ -111.936781188124002, 40.638138451432098 ], [ -111.937182539223002, 40.638326562312798 ], [ -111.937468523283002, 40.638455860713201 ], [ -111.937577311061006, 40.638477875322799 ], [ -111.938184120339997, 40.638523739580599 ], [ -111.938690166493004, 40.638509678734899 ], [ -111.938780223498, 40.6385071797256 ], [ -111.938778569700006, 40.638346097036397 ], [ -111.938775569327007, 40.637762097879801 ], [ -111.938774571299007, 40.6375680977252 ], [ -111.938770568405999, 40.636986096605597 ], [ -111.938764571253003, 40.636070097282399 ], [ -111.938760570157001, 40.635250096142798 ], [ -111.938760569257994, 40.635240096889802 ], [ -111.938759604468004, 40.634974014498802 ], [ -111.938849676744994, 40.634973407778602 ], [ -111.943568421828999, 40.6349415372379 ], [ -111.943567247730996, 40.6343834986533 ], [ -111.943087539285003, 40.634381700291598 ], [ -111.943087364112998, 40.633928805405802 ], [ -111.943561229916995, 40.633928705874901 ], [ -111.943563120871005, 40.633502242415503 ], [ -111.943604046318001, 40.633029528509297 ], [ -111.943559715356997, 40.633029561914 ], [ -111.943560802318999, 40.631320134593402 ], [ -111.943560804116004, 40.631315836188897 ], [ -111.943560804116004, 40.6313155532645 ], [ -111.944440213456005, 40.631314681993899 ], [ -111.945950217667999, 40.631313169882603 ], [ -111.948233141334001, 40.631308078607503 ], [ -111.948317756346, 40.631341255742903 ], [ -111.948438046152006, 40.631340793519698 ], [ -111.948766026452006, 40.631339530245903 ], [ -111.957831016713996, 40.631304271740703 ], [ -111.957831734468002, 40.631375134377102 ], [ -111.957836284435004, 40.631824489945799 ], [ -111.957917271151004, 40.631809497113601 ], [ -111.958900701808005, 40.631525949789498 ], [ -111.959316418765994, 40.631297659490599 ], [ -111.965325621603995, 40.631287231509397 ], [ -111.967338712019995, 40.631283737562597 ], [ -111.967477697563993, 40.631297865377803 ], [ -111.969306155441998, 40.6312957035625 ], [ -111.970405541535001, 40.631294003970702 ] ] ] } },
{ "type": "Feature", "properties": { "district": "5" }, "geometry": { "type": "MultiPolygon", "coordinates": [ [ [ [ -111.929267567696002, 40.630621097201498 ], [ -111.929251566006002, 40.630289097912303 ], [ -111.929236565937003, 40.629981096939801 ], [ -111.929236731226993, 40.6299810867133 ], [ -111.930056566993002, 40.629935095915499 ], [ -111.930561567506999, 40.629930097936501 ], [ -111.930907567112996, 40.629927098194401 ], [ -111.931037566808996, 40.629929096431702 ], [ -111.931078567716, 40.629929096431702 ], [ -111.931859567515005, 40.629887096621196 ], [ -111.931864567538, 40.630107097478302 ], [ -111.931861567165001, 40.630170097999297 ], [ -111.932689566820002, 40.630173096367002 ], [ -111.933257567981002, 40.630176096779799 ], [ -111.933586566971002, 40.630168095678698 ], [ -111.934627567960007, 40.630167097586302 ], [ -111.935102568336006, 40.6301670969046 ], [ -111.935171567932997, 40.630168095678698 ], [ -111.935355613870001, 40.630168095678698 ], [ -111.935358567530997, 40.630168095678698 ], [ -111.935359569151998, 40.630334095830499 ], [ -111.935364569174993, 40.630885097150198 ], [ -111.935364970722006, 40.630885613916497 ], [ -111.935399567537999, 40.630930096030198 ], [ -111.935457567265004, 40.630880097197 ], [ -111.935553569321002, 40.630847097087504 ], [ -111.935659567829006, 40.630843096577401 ], [ -111.935909567175997, 40.630861096144301 ], [ -111.936157050342004, 40.630893895130697 ], [ -111.936158569393001, 40.630894096246898 ], [ -111.936400569243006, 40.630888097530999 ], [ -111.936622569001003, 40.630869096480602 ], [ -111.936877567471996, 40.630840096194603 ], [ -111.937103569225002, 40.630813096833798 ], [ -111.937477568419993, 40.630762096420803 ], [ -111.937750569130003, 40.630729097616502 ], [ -111.938002569923, 40.630680096717597 ], [ -111.938138569467, 40.630658095898902 ], [ -111.938294570001005, 40.630613096835503 ], [ -111.938467568457, 40.630554097942003 ], [ -111.938580569332998, 40.6305050955512 ], [ -111.938711649702995, 40.630490216275497 ], [ -111.938765568383005, 40.6304840954894 ], [ -111.938767568033001, 40.630581096043898 ], [ -111.938767611152002, 40.630582771110802 ], [ -111.938768567858006, 40.630620096388803 ], [ -111.938772568055995, 40.630867096226197 ], [ -111.938779568626998, 40.631319096295201 ], [ -111.938725467588995, 40.6313155041789 ], [ -111.938011567448996, 40.6312680969504 ], [ -111.937982568932995, 40.631400096458002 ], [ -111.937491569561999, 40.631422096350498 ], [ -111.937463567278002, 40.631181097256203 ], [ -111.937389617964001, 40.6311777846486 ], [ -111.936972568805004, 40.631159096602502 ], [ -111.936828569762994, 40.631356097332798 ], [ -111.935914568097999, 40.631309096453499 ], [ -111.935601568102996, 40.631306097455102 ], [ -111.935545568924994, 40.631305096652802 ], [ -111.935373567599001, 40.631304096532098 ], [ -111.935230567483998, 40.631085096333798 ], [ -111.933370567959003, 40.631104096640897 ], [ -111.933258567806007, 40.631230097105799 ], [ -111.933130567760003, 40.631377096438598 ], [ -111.932331567518005, 40.631372097204 ], [ -111.929267567696002, 40.631348097055003 ], [ -111.929267566798003, 40.6308480972151 ], [ -111.929267567696002, 40.630621097201498 ] ] ], [ [ [ -111.919057120343993, 40.665684721841799 ], [ -111.921274957473997, 40.665123957804497 ], [ -111.924091229788999, 40.664422373661999 ], [ -111.924465063694001, 40.664330213945902 ], [ -111.925324892456999, 40.664174248962603 ], [ -111.926119296018996, 40.6641388026963 ], [ -111.927081929779007, 40.664145891405902 ], [ -111.933722225154995, 40.664149879699103 ], [ -111.933532385084007, 40.663296942372398 ], [ -111.933167308855005, 40.661867974182599 ], [ -111.932568000507999, 40.6602962929692 ], [ -111.932203509081006, 40.659729114747996 ], [ -111.931315643001, 40.658190617122301 ], [ -111.931175453714005, 40.657949559971897 ], [ -111.931138070323001, 40.657616331594902 ], [ -111.931025919253003, 40.656134506522903 ], [ -111.930969843718003, 40.655404217806201 ], [ -111.930857692648999, 40.6549008093371 ], [ -111.930708156391006, 40.654567565050399 ], [ -111.930353010139001, 40.654078331872803 ], [ -111.929932445871998, 40.653390562502402 ], [ -111.929862821048005, 40.653149011624002 ], [ -111.929823065207003, 40.653011110187002 ], [ -111.929823570059995, 40.653011099282701 ], [ -111.929933263338995, 40.653012893734903 ], [ -111.933495570328006, 40.653071099252003 ], [ -111.934081570133003, 40.653081100604702 ], [ -111.934164569974001, 40.653083099512003 ], [ -111.934338398473002, 40.6530901573649 ], [ -111.934458855366003, 40.653095049337097 ], [ -111.935026570863002, 40.653118099803599 ], [ -111.936002571553999, 40.653159100881297 ], [ -111.937863572701005, 40.653170099287799 ], [ -111.938810571283994, 40.653177099202203 ], [ -111.938815571305994, 40.653724099586299 ], [ -111.938821981684001, 40.654369055120199 ], [ -111.938824525713002, 40.654625181070301 ], [ -111.938826162444002, 40.654693789062399 ], [ -111.938828587895003, 40.6549265620258 ], [ -111.938830548018998, 40.655114560168599 ], [ -111.938831298112007, 40.655186451132302 ], [ -111.938838154953004, 40.6558444772336 ], [ -111.938838869112999, 40.655913096238699 ], [ -111.938838573568006, 40.6559130982832 ], [ -111.938836572121005, 40.656167098867002 ], [ -111.938832572821994, 40.656933099896598 ], [ -111.938831572997003, 40.6571881004188 ], [ -111.938830572273005, 40.6572881002106 ], [ -111.938830571374993, 40.657733099135697 ], [ -111.938829571550002, 40.659370100683198 ], [ -111.938829572448995, 40.659534100377897 ], [ -111.938832572821994, 40.659916098984098 ], [ -111.938832571923001, 40.6599910996934 ], [ -111.938833572646004, 40.660216100633797 ], [ -111.938834571572997, 40.660291100324301 ], [ -111.938836572121005, 40.661057101021001 ], [ -111.938845572342004, 40.663357100038802 ], [ -111.938848570019999, 40.664123577947102 ], [ -111.938848573613001, 40.664124099907397 ], [ -111.938850574162004, 40.664302100399802 ], [ -111.938855574184004, 40.664565100395698 ], [ -111.938842573765996, 40.664837101370601 ], [ -111.938834573370002, 40.665016101619997 ], [ -111.938837573743001, 40.665544100291598 ], [ -111.938847572889998, 40.667130100374798 ], [ -111.938851570392998, 40.6676587677727 ], [ -111.938761454997007, 40.667659162969699 ], [ -111.937832102919998, 40.667657602622803 ], [ -111.936255202965, 40.667680342120804 ], [ -111.935193944068004, 40.667780395002197 ], [ -111.934278054144002, 40.667940191080099 ], [ -111.933349847418995, 40.668164486562503 ], [ -111.932536641219997, 40.668457317892603 ], [ -111.930828085075007, 40.669092818165403 ], [ -111.928100966958993, 40.670095897939603 ], [ -111.927148118546995, 40.670463484196397 ], [ -111.925176709062001, 40.671217337686798 ], [ -111.922531730201001, 40.672058405120097 ], [ -111.919057120343993, 40.672986681833102 ], [ -111.915689292325993, 40.6738651070755 ], [ -111.913561813136994, 40.674438255954001 ], [ -111.912288608427005, 40.6747871288159 ], [ -111.911442544549999, 40.674942873446199 ], [ -111.910883979293004, 40.675011401268002 ], [ -111.910144700847994, 40.675023862227 ], [ -111.909306851165994, 40.674992711869002 ], [ -111.90862507029, 40.674911723731697 ], [ -111.908155944895, 40.674839760007401 ], [ -111.908063044721999, 40.674825508555003 ], [ -111.907966385099002, 40.674810681400203 ], [ -111.907973568925996, 40.674801104349498 ], [ -111.908209568030003, 40.673910102869002 ], [ -111.908387567407004, 40.673631103659901 ], [ -111.908337568974005, 40.671826104143499 ], [ -111.908335568425997, 40.6717891037379 ], [ -111.908310567414006, 40.671427104928298 ], [ -111.908065568089995, 40.671129103014302 ], [ -111.908027449876997, 40.671030476432001 ], [ -111.908002567441997, 40.6709661027392 ], [ -111.907839566337003, 40.670542103250497 ], [ -111.907856567851994, 40.670170103651401 ], [ -111.907875567220003, 40.669758102493901 ], [ -111.907890704731003, 40.6696604931889 ], [ -111.907962568157004, 40.669197104252 ], [ -111.908303566843003, 40.668297102649902 ], [ -111.908547567240007, 40.667654102403397 ], [ -111.908587567422998, 40.6674221036047 ], [ -111.908601568565004, 40.667342103126998 ], [ -111.908595568717004, 40.6673161044842 ], [ -111.908551574624994, 40.667130622311603 ], [ -111.908521566402001, 40.667004102945199 ], [ -111.908508566882006, 40.666949102537799 ], [ -111.908502619136996, 40.666899534062402 ], [ -111.908502567932999, 40.666899103429003 ], [ -111.908502483491006, 40.6668984697437 ], [ -111.908609065006004, 40.6668824722558 ], [ -111.911565759270999, 40.666438630036197 ], [ -111.913537169654006, 40.666170713708603 ], [ -111.914013593860005, 40.666114637380502 ], [ -111.915755005885998, 40.666002485945803 ], [ -111.917541460338995, 40.665911794768697 ], [ -111.917841418592005, 40.665896565654499 ], [ -111.918391769653994, 40.66583425844 ], [ -111.919057120343993, 40.665684721841799 ] ] ], [ [ [ -111.980554580054005, 40.651296095408902 ], [ -111.980242988618002, 40.650576237315803 ], [ -111.980025777779005, 40.650074413154698 ], [ -111.980431740829005, 40.650075978002299 ], [ -111.980586559179997, 40.650075819881899 ], [ -111.981009715086003, 40.650075389821403 ], [ -111.981031338432999, 40.650075367330103 ], [ -111.981344836093996, 40.650075047681398 ], [ -111.981624104350004, 40.650074761428797 ], [ -111.981876367450994, 40.650074562415 ], [ -111.982128631451005, 40.650074362719799 ], [ -111.982380896348999, 40.650074161661401 ], [ -111.982389796857007, 40.650074154845797 ], [ -111.982633161246994, 40.6500739619661 ], [ -111.982885426145003, 40.650073760226199 ], [ -111.983101651533005, 40.6500735871115 ], [ -111.983397269126002, 40.650073350612303 ], [ -111.983566091314003, 40.650073212938402 ], [ -111.983568135880006, 40.6504970637993 ], [ -111.983569778, 40.6508613237635 ], [ -111.983570008867005, 40.650909357731301 ], [ -111.983570117563005, 40.650933909033597 ], [ -111.983570218175004, 40.650957390983002 ], [ -111.984296472843994, 40.650956853925599 ], [ -111.984426748323003, 40.650937624817203 ], [ -111.984515199141001, 40.650924569821001 ], [ -111.985023960001996, 40.6508494716809 ], [ -111.985794580667005, 40.650848839206297 ], [ -111.985829161314001, 40.650848811262897 ], [ -111.985832963882999, 40.651525426867899 ], [ -111.985692994683006, 40.6515258821359 ], [ -111.985695620458998, 40.6520089627383 ], [ -111.985696102854007, 40.652146202433599 ], [ -111.985696200769993, 40.652173649112001 ], [ -111.985697554531995, 40.652557919825803 ], [ -111.985556245045998, 40.652558208112303 ], [ -111.985557479331007, 40.652909358599302 ], [ -111.985558065033004, 40.6530728637156 ], [ -111.985177271878996, 40.653075106608497 ], [ -111.985173373189994, 40.6530751284172 ], [ -111.984027857710004, 40.653081877540998 ], [ -111.983813018423007, 40.6530831431295 ], [ -111.981552643369, 40.653096459408097 ], [ -111.981422022038998, 40.653097272465097 ], [ -111.981403285876993, 40.653097388323999 ], [ -111.981309430793999, 40.653097972389098 ], [ -111.981023377563005, 40.652416150166601 ], [ -111.981019579486002, 40.652407095359401 ], [ -111.980984581122996, 40.652323094687603 ], [ -111.980554580054005, 40.651296095408902 ] ] ], [ [ [ -111.965104980098999, 40.653095883521203 ], [ -111.967391322751993, 40.653093292370798 ], [ -111.968364182933996, 40.653092186940498 ], [ -111.968369578215004, 40.653092180806802 ], [ -111.969094578837002, 40.653091345259597 ], [ -111.973945500235999, 40.653086806315997 ], [ -111.976951466195999, 40.653077137547598 ], [ -111.976951513806, 40.653089402918901 ], [ -111.976951539856998, 40.653096978047103 ], [ -111.976956021551999, 40.654279883569501 ], [ -111.976959794476997, 40.655275320929498 ], [ -111.976960629011003, 40.655394826743802 ], [ -111.976992677308004, 40.656069977382799 ], [ -111.976995917530999, 40.656975368233397 ], [ -111.977005655268002, 40.657027700682399 ], [ -111.976988530683997, 40.657258883105399 ], [ -111.976985780941007, 40.657823228994801 ], [ -111.976999801846006, 40.658528754648501 ], [ -111.976998820885996, 40.659284020785201 ], [ -111.976993203719999, 40.659820161873597 ], [ -111.976708908492, 40.659757473501003 ], [ -111.976484606352997, 40.659622766761402 ], [ -111.976007962059001, 40.6593817147861 ], [ -111.975120100469994, 40.658800347509498 ], [ -111.974811680984999, 40.658523843993599 ], [ -111.974521957237997, 40.658275697351698 ], [ -111.974288309025994, 40.657970829434802 ], [ -111.974213542244996, 40.6577510403418 ], [ -111.974045313844002, 40.6577581304117 ], [ -111.973718205807998, 40.657729769445801 ], [ -111.973512594913998, 40.657651781327402 ], [ -111.972447157952004, 40.656878966891703 ], [ -111.971381719194994, 40.656070695675901 ], [ -111.970596660807004, 40.655382945480497 ], [ -111.969690103480005, 40.654794454334798 ], [ -111.968755509733001, 40.654333583879598 ], [ -111.967839606333996, 40.653964885087099 ], [ -111.967391000256995, 40.653922344281703 ], [ -111.967447074893997, 40.6600197936096 ], [ -111.967428385443995, 40.662990329113903 ], [ -111.967040965419002, 40.662657630853303 ], [ -111.966455419262005, 40.662181864142099 ], [ -111.966300304466998, 40.6620503766108 ], [ -111.965951949477997, 40.661681584177799 ], [ -111.965729919176994, 40.6614870239015 ], [ -111.965385390112999, 40.661219865887503 ], [ -111.965098282260001, 40.6609614176853 ], [ -111.964910704147002, 40.660784277800602 ], [ -111.964673363859006, 40.660528733600998 ], [ -111.964275240407005, 40.660127989740197 ], [ -111.964102974976001, 40.659933424250902 ], [ -111.963666572513006, 40.659422324264703 ], [ -111.963417745466998, 40.659163870460901 ], [ -111.962996653890002, 40.658699230336403 ], [ -111.962916266350007, 40.658617917794501 ], [ -111.962518142896997, 40.658266530215698 ], [ -111.962097050422003, 40.657915141467498 ], [ -111.961756351774, 40.657601504702399 ], [ -111.961649164793997, 40.657479533163901 ], [ -111.961427133594995, 40.6571978387841 ], [ -111.961178306549996, 40.656982936787102 ], [ -111.960891200492995, 40.656712855559398 ], [ -111.960761042692994, 40.6565995965734 ], [ -111.960188265189998, 40.655850333319101 ], [ -111.959823160214, 40.655388573304201 ], [ -111.959493944730994, 40.655013936269299 ], [ -111.959210664598999, 40.6547177099417 ], [ -111.958942698048006, 40.654244326411103 ], [ -111.958732152707995, 40.653924861796298 ], [ -111.958486723990006, 40.6536430828927 ], [ -111.958069010076997, 40.653643432511203 ], [ -111.957897625894006, 40.653640246417297 ], [ -111.957979292635002, 40.664346327885397 ], [ -111.953977042923, 40.664347582357699 ], [ -111.953842098001005, 40.664412364469896 ], [ -111.953409897856005, 40.664425418871097 ], [ -111.952792261183006, 40.6644448471516 ], [ -111.952807586440997, 40.6610609177756 ], [ -111.95279723246, 40.660338195281298 ], [ -111.952766567569, 40.657742050998799 ], [ -111.952765629728006, 40.653566477567999 ], [ -111.952748004781995, 40.653029441131402 ], [ -111.954757148, 40.653045966714998 ], [ -111.957873459416007, 40.653109499667501 ], [ -111.961839132424998, 40.653086808360598 ], [ -111.965104980098999, 40.653095883521203 ] ] ] ] } }
]
}
